Site,Equipment,EquipName,EquipModel,EquipDesignator,EquipSN,MajorCommand,OperatingActivity,Port,SampDate,SampOrderSeq,SampNum,ProcDate,ProcTime,SoftwareVer,ReservoirCap,FilterRating,FluidType,WaterLimit,ISO4Limit,ISO6Limit,ISO14Limit,NASLimit,NAVAirLimit,CharnLimit,HALLimit,SAELimitGT4,SAELimitGT6,SAELimitGT14,SAELimitGT21,SAELimitGT38,SAELimitGT70,HrsMilesOilChange,HrsMilesOverhaul,OilAdded,OperatingHours,LNFNum,OperatorID,Notes,ConcentrationMult,MDiamCum5,MDiamCum10,MDiamCum15,MDiamCum20,MDiamCum25,MDiamCum50,MDiamCum100,MDiamMaxSize,MDiamMeanSize,MDiamStdDev,ISO4,ISO6,ISO14,NAS,NAVAIR,CHARN,HAL,SAE,CDiamCum4,CDiamCum5,CDiamCum6,CDiamCum10,CDiamCum14,CDiamCum15,CDiamCum20,CDiamCum21,CDiamCum25,CDiamCum38,CDiamCum50,CDiamCum70,CDiamCum100,WaterIndex,CutCum20,CutCum25,CutCum50,CutCum100,CutMaxSize,CutCntMean,CutCntStdDev,SlideCum20,SlideCum25,SlideCum50,SlideCum100,SlideMaxSize,SlideCntMean,SlideCntStdDev,FatCum20,FatCum25,FatCum50,FatCum100,FatMaxSize,FatCntMean,FatCntStdDev,OxideCum20,OxideCum25,OxideCum50,OxideCum100,OxideMaxSize,OxideCntMean,OxideCntStdDev,OtherCum20,OtherCum25,OtherCum50,OtherCum100,OtherMaxSize,OtherCntMean,OtherCntStdDev,Fibers,UserSize1,UserCnt1,UserSize2,UserCnt2,UserSize3,UserCnt3,UserSize4,UserCnt4,UserSize5,UserCnt5,UserSize6,UserCnt6,SAE4,SAE6,SAE14,SAE21,SAE38,SAE70,SAEmax,PctSoot,BSW,CFD,GOST,TotalFerrous,FerrousMaxDiam,FerrousMeanDiam,FerrousDiamStdev,Ferrous25,Ferrous38,Ferrous50,Ferrous100,FerrousStatus,SlidingLimit20,SlidingLimit25,SlidingLimit50,SlidingLimit100,SlidingLimitTotal,FatigueLimit20,FatigueLimit25,FatigueLimit50,FatigueLimit100,FatigueLimitTotal,CuttingLimit20,CuttingLimit25,CuttingLimit50,CuttingLimit100,CuttingLimitTotal,NonMetallicLimit20,NonMetallicLimit25,NonMetallicLimit50,NonMetallicLimit100,NonMetallicLimitTotal,SootLimit,GOSTLimit
Unknown,Unknown,NULL,NULL,NULL,NULL,NULL,NULL,Unknown,2018-02-21 00:00:00.000,0,TEST,2018-02-21 00:00:00.000,09:24:01.0000000,6.0.,0,0,Hydraulic,0,NULL,NULL,NULL,NULL,NULL,NULL,NULL,NULL,NULL,NULL,NULL,NULL,NULL,0,0,0,0,1165,NULL,NULL,NULL,859387.5,293351.1,29956.13,8196.45,3572.71,152.07,23.1,255,7.05,3.03,27,25,20,12,NULL,NULL,17,NULL,847296.4,481205.8,281259.9,29915.34,5233.36,3701.91,867.56,752.51,326.5,27.99,18.66,15.55,6.22,0,651.45,396.47,27.99,0,80.33,28.08,8.78,2512.51,757.17,6.22,0,98.61,24.12,4.17,1481.7,429.12,3.11,3.11,161.69,24.15,7.34,1845.51,1226.71,41.98,1.55,123.16,29.49,8.63,223.89,88.62,43.53,13.99,395.6,44.3,60.99,199.01,-1,NULL,-1,NULL,-1,NULL,-1,NULL,-1,NULL,-1,NULL,NULL,NULL,NULL,NULL,11,NULL,NULL,0,0.01,245.62,NULL,0,0,0,0,0,0,0,0,-2,-1,-1,-1,-1,-1,-1,-1,-1,-1,-1,-1,-1,-1,-1,-1,-1,-1,-1,-1,-1,0,-1
Unknown,Unknown,NULL,NULL,NULL,NULL,NULL,NULL,Unknown,2018-02-21 00:00:00.000,2,TEST,2018-02-21 00:00:00.000,09:46:07.0000000,6.0.,0,0,Hydraulic,0,NULL,NULL,NULL,NULL,NULL,NULL,NULL,NULL,NULL,NULL,NULL,NULL,NULL,0,0,0,0,1165,TEALD,NULL,NULL,859.68,15.47,5.8,0,0,0,0,15,5.14,0.93,17,11,NULL,3,0,800,11,7,857.24,224.08,13.03,6.52,0,0,0,0,0,0,0,0,0,0,0,0,0,0,0,0,0,0,0,0,0,0,0,0,0,0,0,0,0,0,0,0,0,0,0,0,0,0,0,0,0,0,0,0,0,0,-1,NULL,-1,NULL,-1,NULL,-1,NULL,-1,NULL,-1,NULL,7,3,0,0,0,0,7,0,0,0.1,7,0,0,0,0,0,0,0,0,-2113658336,-1,-1,-1,-1,-1,-1,-1,-1,-1,-1,-1,-1,-1,-1,-1,-1,-1,-1,-1,-1,0,-1
Unknown,Unknown,NULL,NULL,NULL,NULL,NULL,NULL,Unknown,2018-02-21 00:00:00.000,3,TEST,2018-02-21 00:00:00.000,09:52:54.0000000,6.0.,0,0,Hydraulic,0,NULL,NULL,NULL,NULL,NULL,NULL,NULL,NULL,NULL,NULL,NULL,NULL,NULL,0,0,0,0,1165,TEALD,NULL,NULL,2751.12,161.94,75.07,19.25,11.55,1.92,0,58,5.53,2.43,19,14,12,7,4,4400,17,9,2736.72,805.99,147.54,75.32,31.8,26.78,10.04,10.04,6.7,0,0,0,0,0,0,0,0,0,0,0,0,1.67,1.67,0,0,27.62,27.62,0,5.02,3.35,0,0,30.15,26.23,4.22,11.72,6.7,1.67,0,58.29,31,11.9,0,0,0,0,0,0,0,1.67,-1,NULL,-1,NULL,-1,NULL,-1,NULL,-1,NULL,-1,NULL,9,6,6,7,0,0,9,0,0,0.74,16,0,0,0,0,0,0,0,0,-2113658336,-1,-1,-1,-1,-1,-1,-1,-1,-1,-1,-1,-1,-1,-1,-1,-1,-1,-1,-1,-1,0,-1
Unknown,Unknown,NULL,NULL,NULL,NULL,NULL,NULL,Unknown,2018-02-21 00:00:00.000,4,55504,2018-02-21 00:00:00.000,10:19:40.0000000,6.0.,0,0,Hydraulic,0,NULL,NULL,NULL,NULL,NULL,NULL,NULL,NULL,NULL,NULL,NULL,NULL,NULL,0,0,0,0,1165,TEALD,NULL,NULL,10774.87,371.34,101.98,32.71,21.17,1.92,0,58,5.26,1.57,21,16,13,8,4,4400,17,11,10754.5,3040.69,350.98,95.42,47.71,42.77,14.81,14.81,4.94,0,0,0,0,0,8.23,4.94,1.65,0,58.92,33.55,14.5,1.65,1.65,0,0,32.95,32.95,0.01,3.29,3.29,0,0,27.62,27.17,0.45,14.81,8.23,0,0,41.11,27.5,6.12,0,0,0,0,0,0,0,0,-1,NULL,-1,NULL,-1,NULL,-1,NULL,-1,NULL,-1,NULL,11,7,7,8,0,0,11,0,0,1.64,11,0,0,0,0,0,0,0,0,-2113658336,-1,-1,-1,-1,-1,-1,-1,-1,-1,-1,-1,-1,-1,-1,-1,-1,-1,-1,-1,-1,0,-1
Unknown,Unknown,NULL,NULL,NULL,NULL,NULL,NULL,Unknown,2018-02-21 00:00:00.000,5,55519,2018-02-21 00:00:00.000,10:26:30.0000000,6.0.,0,0,Hydraulic,0,NULL,NULL,NULL,NULL,NULL,NULL,NULL,NULL,NULL,NULL,NULL,NULL,NULL,0,0,0,0,1165,TEALD,NULL,NULL,4561.14,549.86,28.86,9.62,5.77,0,0,37,5.67,1.86,19,16,10,8,5,2000,17,10,4548.42,1713.78,537.14,24.62,6.16,6.16,3.08,3.08,1.54,0,0,0,0,0,3.08,1.54,0,0,32.11,27.1,5.01,0,0,0,0,0,0,0,0,0,0,0,0,0,0,4.62,3.08,0,0,37.53,30.61,6.4,0,0,0,0,0,0,0,0,-1,NULL,-1,NULL,-1,NULL,-1,NULL,-1,NULL,-1,NULL,10,8,4,6,0,0,10,0,0,0.69,12,0,0,0,0,0,0,0,0,-2113658336,-1,-1,-1,-1,-1,-1,-1,-1,-1,-1,-1,-1,-1,-1,-1,-1,-1,-1,-1,-1,0,-1
Unknown,Unknown,NULL,NULL,NULL,NULL,NULL,NULL,Unknown,2018-02-21 00:00:00.000,6,55520,2018-02-21 00:00:00.000,10:35:24.0000000,6.0.,0,0,Hydraulic,0,NULL,NULL,NULL,NULL,NULL,NULL,NULL,NULL,NULL,NULL,NULL,NULL,NULL,0,0,0,0,1165,TEALD,NULL,NULL,3872.79,583.54,73.12,28.86,11.55,3.85,0,96,5.97,2.68,19,16,12,8,5,21000,17,9,3845.43,1498.84,556.19,73.87,26.16,18.47,10.77,7.69,4.62,3.08,3.08,0,0,0,1.54,0,0,0,23.3,23.3,0,3.08,1.54,0,0,32.2,27.06,5.15,4.62,1.54,1.54,0,96.11,45.88,35.52,12.31,6.16,1.54,0,74.14,33.37,17.22,1.54,0,0,0,24.7,24.7,0,0,-1,NULL,-1,NULL,-1,NULL,-1,NULL,-1,NULL,-1,NULL,9,8,6,7,8,0,9,0,0,1.55,12,0,0,0,0,0,0,0,0,-2113658336,-1,-1,-1,-1,-1,-1,-1,-1,-1,-1,-1,-1,-1,-1,-1,-1,-1,-1,-1,-1,0,-1
Unknown,Unknown,NULL,NULL,NULL,NULL,NULL,NULL,Unknown,2018-02-21 00:00:00.000,7,55521,2018-02-21 00:00:00.000,10:44:49.0000000,6.0.,0,0,Hydraulic,0,NULL,NULL,NULL,NULL,NULL,NULL,NULL,NULL,NULL,NULL,NULL,NULL,NULL,0,0,0,0,1165,TEALD,NULL,NULL,14256.38,1606.89,105.83,32.71,15.39,0,0,49,5.63,1.85,21,18,13,10,NULL,6300,17,11,14225.33,5162.1,1575.83,89.37,40.06,24.65,7.7,6.16,4.62,1.54,0,0,0,0,3.08,1.54,0,0,26.6,25.02,1.59,4.62,3.08,0,0,27.4,24.79,3.14,13.87,6.16,0,0,49.43,30.97,10.75,4.62,1.54,0,0,32.11,25.37,4.77,0,0,0,0,0,0,0,0,-1,NULL,-1,NULL,-1,NULL,-1,NULL,-1,NULL,-1,NULL,11,10,7,7,7,0,11,0,0,2.27,12,0,0,0,0,0,0,0,0,-2113658336,-1,-1,-1,-1,-1,-1,-1,-1,-1,-1,-1,-1,-1,-1,-1,-1,-1,-1,-1,-1,0,-1
Unknown,Unknown,NULL,NULL,NULL,NULL,NULL,NULL,Unknown,2018-02-21 00:00:00.000,8,55521,2018-02-21 00:00:00.000,10:53:51.0000000,6.0.,0,0,Hydraulic,0,NULL,NULL,NULL,NULL,NULL,NULL,NULL,NULL,NULL,NULL,NULL,NULL,NULL,0,0,0,0,1165,TEALD,NULL,NULL,4166.24,452.13,26.94,13.47,3.85,1.92,0,59,5.62,2.02,19,16,11,8,5,2000,17,10,4153.97,1489.51,439.87,29.28,10.79,9.24,3.08,3.08,1.54,1.54,0,0,0,0,1.54,0,0,0,21.25,21.25,0,0,0,0,0,0,0,0,4.62,0,0,0,24.63,23.74,0.64,4.62,3.08,1.54,0,59.38,36.3,16.33,0,0,0,0,0,0,0,0,-1,NULL,-1,NULL,-1,NULL,-1,NULL,-1,NULL,-1,NULL,10,8,5,6,7,0,10,0,0,0.73,12,0,0,0,0,0,0,0,0,-2113658336,-1,-1,-1,-1,-1,-1,-1,-1,-1,-1,-1,-1,-1,-1,-1,-1,-1,-1,-1,-1,0,-1
Unknown,Unknown,NULL,NULL,NULL,NULL,NULL,NULL,Unknown,2018-02-21 00:00:00.000,9,55522,2018-02-21 00:00:00.000,13:02:45.0000000,6.0.,0,0,Hydraulic,0,NULL,NULL,NULL,NULL,NULL,NULL,NULL,NULL,NULL,NULL,NULL,NULL,NULL,0,0,0,0,1165,TEALD,NULL,NULL,5646.09,244.14,25.01,11.55,7.7,0,0,29,5.26,1.35,20,15,9,7,3,2000,17,10,5640.17,1666.08,238.23,18.65,4.66,3.11,0,0,0,0,0,0,0,0,0,0,0,0,0,0,0,6.22,6.22,0,0,29.72,26.75,1.75,1.55,0,0,0,20.37,20.37,0,1.55,0,0,0,20.62,20.62,0,0,0,0,0,0,0,0,3.11,-1,NULL,-1,NULL,-1,NULL,-1,NULL,-1,NULL,-1,NULL,10,7,4,0,0,0,10,0,0,0.64,16,0,0,0,0,0,0,0,0,-2113658336,-1,-1,-1,-1,-1,-1,-1,-1,-1,-1,-1,-1,-1,-1,-1,-1,-1,-1,-1,-1,0,-1
Unknown,Unknown,NULL,NULL,NULL,NULL,NULL,NULL,Unknown,2018-02-21 00:00:00.000,10,55523,2018-02-21 00:00:00.000,13:10:13.0000000,6.0.,0,0,Hydraulic,0,NULL,NULL,NULL,NULL,NULL,NULL,NULL,NULL,NULL,NULL,NULL,NULL,NULL,0,0,0,0,1165,TEALD,NULL,NULL,20806.45,939.84,3.85,1.92,1.92,1.92,0,67,5.23,1.13,22,17,8,9,6,6300,17,12,20806.14,6309.56,939.53,3.72,1.86,1.86,1.86,1.86,1.86,0,0,0,0,0,1.86,1.86,1.86,0,67.46,67.46,0,0,0,0,0,0,0,0,0,0,0,0,0,0,0,0,0,0,0,0,0,0,0,0,0,0,0,0,0,0,-1,NULL,-1,NULL,-1,NULL,-1,NULL,-1,NULL,-1,NULL,12,9,2,5,0,0,12,0,0,2.26,12,0,0,0,0,0,0,0,0,-2113658336,-1,-1,-1,-1,-1,-1,-1,-1,-1,-1,-1,-1,-1,-1,-1,-1,-1,-1,-1,-1,0,-1
Unknown,Unknown,NULL,NULL,NULL,NULL,NULL,NULL,Unknown,2018-02-21 00:00:00.000,11,55523,2018-02-21 00:00:00.000,13:22:43.0000000,6.0.,0,0,Hydraulic,0,NULL,NULL,NULL,NULL,NULL,NULL,NULL,NULL,NULL,NULL,NULL,NULL,NULL,0,0,0,0,1165,TEALD,NULL,NULL,7946.09,752.53,11.55,5.77,5.77,0,0,30,5.49,1.56,20,17,9,9,5,4400,17,10,7938.76,2750.85,745.21,13.85,4.62,4.62,4.62,1.54,0,0,0,0,0,0,0,0,0,0,0,0,0,0,0,0,0,0,0,0,4.62,4.62,0,0,30.55,29.76,1.13,0,0,0,0,0,0,0,0,0,0,0,0,0,0,0,-1,NULL,-1,NULL,-1,NULL,-1,NULL,-1,NULL,-1,NULL,10,8,4,5,0,0,10,0,0,1.03,12,0,0,0,0,0,0,0,0,-2113658336,-1,-1,-1,-1,-1,-1,-1,-1,-1,-1,-1,-1,-1,-1,-1,-1,-1,-1,-1,-1,0,-1
Unknown,Unknown,NULL,NULL,NULL,NULL,NULL,NULL,Unknown,2018-02-21 00:00:00.000,12,55524,2018-02-21 00:00:00.000,13:28:59.0000000,6.0.,0,0,Hydraulic,0,NULL,NULL,NULL,NULL,NULL,NULL,NULL,NULL,NULL,NULL,NULL,NULL,NULL,0,0,0,0,1165,TEALD,NULL,NULL,40180.09,4653.55,59.65,19.24,7.7,0,0,28,5.6,1.65,23,19,12,11,NULL,15000,17,NULL,40134.62,14940.46,4608.07,64.63,21.54,18.47,3.08,1.54,0,0,0,0,0,0,0,0,0,0,0,0,0,1.54,0,0,0,22.77,22.77,0,7.69,3.08,0,0,28.91,24.02,2.94,6.16,3.08,0,0,28.8,25.06,2.6,0,0,0,0,0,0,0,0,-1,NULL,-1,NULL,-1,NULL,-1,NULL,-1,NULL,-1,NULL,NULL,11,6,5,0,0,NULL,0,0,5.28,12,0,0,0,0,0,0,0,0,-2113658336,-1,-1,-1,-1,-1,-1,-1,-1,-1,-1,-1,-1,-1,-1,-1,-1,-1,-1,-1,-1,0,-1
Unknown,Unknown,NULL,NULL,NULL,NULL,NULL,NULL,Unknown,2018-02-21 00:00:00.000,13,55524,2018-02-21 00:00:00.000,13:34:18.0000000,6.0.,0,0,Hydraulic,0,NULL,NULL,NULL,NULL,NULL,NULL,NULL,NULL,NULL,NULL,NULL,NULL,NULL,0,0,0,0,1165,TEALD,NULL,NULL,51575.66,7768.19,69.27,15.39,3.85,0,0,42,5.77,1.82,23,20,11,12,NULL,15000,17,NULL,51524.28,20912,7716.8,86.21,14.11,7.84,1.57,1.57,0,0,0,0,0,0,3.13,1.57,0,0,42.21,32.49,9.72,3.13,1.57,0,0,26.6,24.72,1.88,1.57,0,0,0,20.37,20.37,0,4.7,0,0,0,23.15,22.58,0.57,0,0,0,0,0,0,0,0,-1,NULL,-1,NULL,-1,NULL,-1,NULL,-1,NULL,-1,NULL,NULL,12,5,5,0,0,NULL,0,0,7.24,12,0,0,0,0,0,0,0,0,-2113658336,-1,-1,-1,-1,-1,-1,-1,-1,-1,-1,-1,-1,-1,-1,-1,-1,-1,-1,-1,-1,0,-1
Unknown,Unknown,NULL,NULL,NULL,NULL,NULL,NULL,Unknown,2018-02-21 00:00:00.000,14,55525,2018-02-21 00:00:00.000,13:42:36.0000000,6.0.,0,0,Hydraulic,0,NULL,NULL,NULL,NULL,NULL,NULL,NULL,NULL,NULL,NULL,NULL,NULL,NULL,0,0,0,0,1165,TEALD,NULL,NULL,10526.82,1955.74,65.42,17.32,9.62,7.7,1.92,178,6.03,2.61,21,18,11,10,NULL,6300,17,11,10481.41,4508.44,1910.33,70.81,13.85,12.31,9.24,7.7,7.7,4.62,1.54,0,0,0,0,0,0,0,0,0,0,4.62,1.54,1.54,1.54,178.78,74.19,73.96,0,0,0,0,0,0,0,7.7,4.62,3.08,0,61.9,41.93,16.86,1.54,1.54,1.54,0,50.45,50.45,0,0,-1,NULL,-1,NULL,-1,NULL,-1,NULL,-1,NULL,-1,NULL,11,10,5,7,9,0,11,0,0,2.47,13,0,0,0,0,0,0,0,0,-2113658336,-1,-1,-1,-1,-1,-1,-1,-1,-1,-1,-1,-1,-1,-1,-1,-1,-1,-1,-1,-1,0,-1
Unknown,Unknown,NULL,NULL,NULL,NULL,NULL,NULL,Unknown,2018-02-21 00:00:00.000,15,55532,2018-02-21 00:00:00.000,13:47:46.0000000,6.0.,0,0,Hydraulic,0,NULL,NULL,NULL,NULL,NULL,NULL,NULL,NULL,NULL,NULL,NULL,NULL,NULL,0,0,0,0,1165,TEALD,NULL,NULL,17712.49,2756.73,32.71,1.92,1.92,0,0,39,5.79,1.85,21,19,8,11,NULL,6300,17,12,17700.61,7250.43,2744.85,40.75,1.7,1.7,1.7,1.7,1.7,0,0,0,0,0,0,0,0,0,0,0,0,0,0,0,0,0,0,0,0,0,0,0,0,0,0,1.7,1.7,0,0,39.83,39.83,0.01,0,0,0,0,0,0,0,0,-1,NULL,-1,NULL,-1,NULL,-1,NULL,-1,NULL,-1,NULL,12,10,2,5,0,0,12,0,0,2.57,12,0,0,0,0,0,0,0,0,-2113658336,-1,-1,-1,-1,-1,-1,-1,-1,-1,-1,-1,-1,-1,-1,-1,-1,-1,-1,-1,-1,0,-1
Unknown,Unknown,NULL,NULL,NULL,NULL,NULL,NULL,Unknown,2018-02-21 00:00:00.000,16,55532,2018-02-21 00:00:00.000,13:53:01.0000000,6.0.,0,0,Hydraulic,0,NULL,NULL,NULL,NULL,NULL,NULL,NULL,NULL,NULL,NULL,NULL,NULL,NULL,0,0,0,0,1165,TEALD,NULL,NULL,27112.91,1838.2,30.8,1.92,0,0,0,20,5.35,1.29,22,18,8,10,NULL,15000,17,12,27111.18,8729.57,1836.46,47.16,1.89,0,0,0,0,0,0,0,0,0,0,0,0,0,0,0,0,0,0,0,0,0,0,0,1.89,0,0,0,20.37,20.37,0,0,0,0,0,0,0,0,0,0,0,0,0,0,0,0,-1,NULL,-1,NULL,-1,NULL,-1,NULL,-1,NULL,-1,NULL,12,10,2,0,0,0,12,0,0,3.16,12,0,0,0,0,0,0,0,0,-2113658336,-1,-1,-1,-1,-1,-1,-1,-1,-1,-1,-1,-1,-1,-1,-1,-1,-1,-1,-1,-1,0,-1
Unknown,Unknown,NULL,NULL,NULL,NULL,NULL,NULL,Unknown,2018-02-21 00:00:00.000,17,55533,2018-02-21 00:00:00.000,13:59:33.0000000,6.0.,0,0,Hydraulic,0,NULL,NULL,NULL,NULL,NULL,NULL,NULL,NULL,NULL,NULL,NULL,NULL,NULL,0,0,0,0,1165,TEALD,NULL,NULL,4975.1,1362.55,78.89,19.24,7.7,0,0,30,6.52,2.53,19,18,10,10,6,4400,17,10,4944.04,2493.64,1331.49,67.97,9.27,7.72,3.09,1.54,0,0,0,0,0,0,0,0,0,0,0,0,0,10.81,3.09,0,0,30.05,23.52,3.12,1.54,0,0,0,20.28,20.28,0,3.09,3.09,0,0,25.79,25.79,0,0,0,0,0,0,0,0,0,-1,NULL,-1,NULL,-1,NULL,-1,NULL,-1,NULL,-1,NULL,10,9,5,5,0,0,10,0,0,1.02,12,0,0,0,0,0,0,0,0,-2113658336,-1,-1,-1,-1,-1,-1,-1,-1,-1,-1,-1,-1,-1,-1,-1,-1,-1,-1,-1,-1,0,-1
Unknown,Unknown,NULL,NULL,NULL,NULL,NULL,NULL,Unknown,2018-02-21 00:00:00.000,19,55537,2018-02-21 00:00:00.000,14:18:50.0000000,6.0.,0,0,Hydraulic,0,NULL,NULL,NULL,NULL,NULL,NULL,NULL,NULL,NULL,NULL,NULL,NULL,NULL,0,0,0,0,1165,TEALD,NULL,NULL,30085.04,4.64,4.64,2.32,0,0,0,23,5,0.16,22,9,NULL,1,0,15000,17,12,30084.97,7524.67,4.57,2.28,0,0,0,0,0,0,0,0,0,0,0,0,0,0,0,0,0,2.28,0,0,0,23.43,23.43,0.01,0,0,0,0,0,0,0,0,0,0,0,0,0,0,0,0,0,0,0,0,0,0,-1,NULL,-1,NULL,-1,NULL,-1,NULL,-1,NULL,-1,NULL,12,1,0,0,0,0,12,0,0,2.88,6,0,0,0,0,0,0,0,0,-2113658336,-1,-1,-1,-1,-1,-1,-1,-1,-1,-1,-1,-1,-1,-1,-1,-1,-1,-1,-1,-1,0,-1
Unknown,Unknown,NULL,NULL,NULL,NULL,NULL,NULL,Unknown,2018-02-22 00:00:00.000,0,55542,2018-02-22 00:00:00.000,11:57:45.0000000,6.0.,0,0,Hydraulic,0,NULL,NULL,NULL,NULL,NULL,NULL,NULL,NULL,NULL,NULL,NULL,NULL,NULL,0,0,0,0,1165,TEALD,NULL,NULL,41177.41,7696.61,177.02,32.71,13.47,0,0,37,5.96,2.06,23,20,13,12,NULL,15000,17,NULL,41175.4,17895.79,7694.61,210.31,47.8,40.15,13.38,13.38,5.74,0,0,0,0,0,5.74,0,0,0,23.3,21.92,1.2,3.82,0,0,0,24.33,23.21,1.12,13.38,5.74,0,0,30.55,25.83,3.93,9.56,7.65,0,0,37.78,31.99,4.56,0,0,0,0,0,0,0,0,-1,NULL,-1,NULL,-1,NULL,-1,NULL,-1,NULL,-1,NULL,NULL,12,7,8,0,0,NULL,0,0,6.69,12,0,0,0,0,0,0,0,0,-2,-1,-1,-1,-1,-1,-1,-1,-1,-1,-1,-1,-1,-1,-1,-1,-1,-1,-1,-1,-1,0,-1
Unknown,Unknown,NULL,NULL,NULL,NULL,NULL,NULL,Unknown,2018-02-22 00:00:00.000,1,55542,2018-02-22 00:00:00.000,12:22:27.0000000,6.0.,0,0,Hydraulic,0,NULL,NULL,NULL,NULL,NULL,NULL,NULL,NULL,NULL,NULL,NULL,NULL,NULL,0,0,0,0,1165,TEALD,NULL,NULL,7713.45,1792.05,292.48,132.77,84.66,3.85,0,66,6.58,3.3,20,18,14,10,NULL,100000,17,10,7626.19,3517.18,1704.79,258.73,130.14,110,51.13,48.03,24.79,1.55,1.55,0,0,0,15.49,6.2,0,0,32.05,24.97,3.95,13.94,10.84,1.55,0,66.15,31.79,13.4,26.34,13.94,0,0,29.85,24.79,2.68,48.03,35.63,1.55,0,63.12,30.85,8.94,3.1,1.55,0,0,40.74,32.02,8.72,0,-1,NULL,-1,NULL,-1,NULL,-1,NULL,-1,NULL,-1,NULL,10,10,8,9,7,0,10,0,0,3.07,13,0,0,0,0,0,0,0,0,-2,-1,-1,-1,-1,-1,-1,-1,-1,-1,-1,-1,-1,-1,-1,-1,-1,-1,-1,-1,-1,0,-1
Unknown,Unknown,NULL,NULL,NULL,NULL,NULL,NULL,Unknown,2018-02-22 00:00:00.000,2,55543,2018-02-22 00:00:00.000,12:29:58.0000000,6.0.,0,0,Hydraulic,0,NULL,NULL,NULL,NULL,NULL,NULL,NULL,NULL,NULL,NULL,NULL,NULL,NULL,0,0,0,0,1165,TEALD,NULL,NULL,5316.6,950.7,26.94,15.39,9.62,1.92,0,82,5.96,2.27,20,17,10,9,6,4400,17,10,5306.59,2320.1,940.69,21.55,9.24,7.7,1.54,1.54,1.54,1.54,0,0,0,0,0,0,0,0,0,0,0,6.16,4.62,0,0,33.23,27.3,4.32,1.54,0,0,0,20.37,20.37,0,4.62,3.08,1.54,0,82.26,43.07,27.82,0,0,0,0,0,0,0,3.08,-1,NULL,-1,NULL,-1,NULL,-1,NULL,-1,NULL,-1,NULL,10,9,5,5,7,0,10,0,0,0.99,16,0,0,0,0,0,0,0,0,-2,-1,-1,-1,-1,-1,-1,-1,-1,-1,-1,-1,-1,-1,-1,-1,-1,-1,-1,-1,-1,0,-1
Unknown,Unknown,NULL,NULL,NULL,NULL,NULL,NULL,Unknown,2018-02-22 00:00:00.000,3,55543,2018-02-22 00:00:00.000,12:35:47.0000000,6.0.,0,0,Hydraulic,0,NULL,NULL,NULL,NULL,NULL,NULL,NULL,NULL,NULL,NULL,NULL,NULL,NULL,0,0,0,0,1165,TEALD,NULL,NULL,1663.43,219.37,57.75,15.4,9.62,1.92,1.92,199,6.04,4.11,18,15,12,7,4,6300,16,8,1651.47,601.86,207.41,41.56,24.63,20.01,6.16,6.16,4.62,1.54,1.54,0,0,0,1.54,1.54,1.54,1.54,199.8,199.8,0.04,1.54,1.54,0,0,26.6,26.6,0,6.16,4.62,0,0,30.95,28.01,3.43,3.08,0,0,0,21.1,21.03,0.07,0,0,0,0,0,0,0,3.08,-1,NULL,-1,NULL,-1,NULL,-1,NULL,-1,NULL,-1,NULL,8,7,6,7,7,0,8,0,0,0.66,16,0,0,0,0,0,0,0,0,-2,-1,-1,-1,-1,-1,-1,-1,-1,-1,-1,-1,-1,-1,-1,-1,-1,-1,-1,-1,-1,0,-1
Unknown,Unknown,NULL,NULL,NULL,NULL,NULL,NULL,Unknown,2018-02-22 00:00:00.000,4,55544,2018-02-22 00:00:00.000,13:25:00.0000000,6.0.,0,0,Hydraulic,0,NULL,NULL,NULL,NULL,NULL,NULL,NULL,NULL,NULL,NULL,NULL,NULL,NULL,0,0,0,0,1165,TEALD,NULL,NULL,163.22,68.26,13.47,5.77,1.92,0,0,35,7.94,3.8,14,13,9,5,2,400,10,5,159.03,101.37,64.07,10.8,3.09,1.54,1.54,1.54,0,0,0,0,0,0,0,0,0,0,0,0,0,1.54,0,0,0,22.09,22.09,0,1.54,0,0,0,20.96,20.96,0,1.54,1.54,0,0,35.96,35.96,0.01,0,0,0,0,0,0,0,0,-1,NULL,-1,NULL,-1,NULL,-1,NULL,-1,NULL,-1,NULL,5,5,3,5,0,0,5,0,0,0.07,9,0,0,0,0,0,0,0,0,-2,-1,-1,-1,-1,-1,-1,-1,-1,-1,-1,-1,-1,-1,-1,-1,-1,-1,-1,-1,-1,0,-1
Unknown,Unknown,NULL,NULL,NULL,NULL,NULL,NULL,Unknown,2018-02-22 00:00:00.000,5,55545,2018-02-22 00:00:00.000,13:32:49.0000000,6.0.,0,0,Hydraulic,0,NULL,NULL,NULL,NULL,NULL,NULL,NULL,NULL,NULL,NULL,NULL,NULL,NULL,0,0,0,0,1165,TEALD,NULL,NULL,2951.05,64,17.32,9.62,5.77,0,0,48,5.17,1.3,19,13,11,7,4,1300,17,9,2948.55,805.64,61.5,15.06,11.72,10.04,5.02,5.02,1.67,1.67,0,0,0,0,1.67,1.67,0,0,39.05,39.05,0,1.67,1.67,0,0,27.62,27.62,0,3.35,1.67,0,0,48.53,36.61,11.91,1.67,0,0,0,22.77,22.77,0,0,0,0,0,0,0,0,0,-1,NULL,-1,NULL,-1,NULL,-1,NULL,-1,NULL,-1,NULL,9,5,5,6,7,0,9,0,0,0.5,11,0,0,0,0,0,0,0,0,-2,-1,-1,-1,-1,-1,-1,-1,-1,-1,-1,-1,-1,-1,-1,-1,-1,-1,-1,-1,-1,0,-1
Unknown,Unknown,NULL,NULL,NULL,NULL,NULL,NULL,Unknown,2018-02-22 00:00:00.000,6,55562,2018-02-22 00:00:00.000,13:41:59.0000000,6.0.,0,0,Hydraulic,0,NULL,NULL,NULL,NULL,NULL,NULL,NULL,NULL,NULL,NULL,NULL,NULL,NULL,0,0,0,0,1165,TEALD,NULL,NULL,492.9,24.92,3.85,1.92,1.92,1.92,0,53,5.45,3.01,16,12,8,5,1,800,10,6,490.59,146.29,22.6,4.62,1.54,1.54,1.54,1.54,1.54,0,0,0,0,0,0,0,0,0,0,0,0,0,0,0,0,0,0,0,1.54,1.54,1.54,0,53.21,53.21,0.01,0,0,0,0,0,0,0,0,0,0,0,0,0,0,0,-1,NULL,-1,NULL,-1,NULL,-1,NULL,-1,NULL,-1,NULL,6,3,2,5,0,0,6,0,0,0.13,8,0,0,0,0,0,0,0,0,-2,-1,-1,-1,-1,-1,-1,-1,-1,-1,-1,-1,-1,-1,-1,-1,-1,-1,-1,-1,-1,0,-1
Unknown,Unknown,NULL,NULL,NULL,NULL,NULL,NULL,Unknown,2018-02-22 00:00:00.000,7,55562,2018-02-22 00:00:00.000,13:48:07.0000000,6.0.,0,0,Hydraulic,0,NULL,NULL,NULL,NULL,NULL,NULL,NULL,NULL,NULL,NULL,NULL,NULL,NULL,0,0,0,0,1165,TEALD,NULL,NULL,5710.4,11.55,5.77,1.92,1.92,0,0,26,5.02,0.47,20,11,8,3,0,2000,17,10,5709.79,1435.64,10.93,5.46,1.82,1.82,0,0,0,0,0,0,0,0,0,0,0,0,0,0,0,0,0,0,0,0,0,0,0,0,0,0,0,0,0,0,0,0,0,0,0,0,1.82,1.82,0,0,26.72,26.72,0,0,-1,NULL,-1,NULL,-1,NULL,-1,NULL,-1,NULL,-1,NULL,10,2,2,0,0,0,10,0,0,0.57,7,0,0,0,0,0,0,0,0,-2,-1,-1,-1,-1,-1,-1,-1,-1,-1,-1,-1,-1,-1,-1,-1,-1,-1,-1,-1,-1,0,-1
Unknown,Unknown,NULL,NULL,NULL,NULL,NULL,NULL,Unknown,2018-02-22 00:00:00.000,8,55563,2018-02-22 00:00:00.000,13:56:29.0000000,6.0.,0,0,Hydraulic,0,NULL,NULL,NULL,NULL,NULL,NULL,NULL,NULL,NULL,NULL,NULL,NULL,NULL,0,0,0,0,1165,TEALD,NULL,NULL,8085.23,7.7,5.77,1.92,0,0,0,22,5.01,0.33,20,10,8,3,0,4400,17,11,8084.81,2026.66,7.28,3.64,1.82,1.82,0,0,0,0,0,0,0,0,0,0,0,0,0,0,0,0,0,0,0,0,0,0,1.82,0,0,0,22.85,22.85,0,0,0,0,0,0,0,0,0,0,0,0,0,0,0,0,-1,NULL,-1,NULL,-1,NULL,-1,NULL,-1,NULL,-1,NULL,11,2,2,0,0,0,11,0,0,0.79,6,0,0,0,0,0,0,0,0,-2,-1,-1,-1,-1,-1,-1,-1,-1,-1,-1,-1,-1,-1,-1,-1,-1,-1,-1,-1,-1,0,-1
Unknown,Unknown,NULL,NULL,NULL,NULL,NULL,NULL,Unknown,2018-02-23 00:00:00.000,0,55564,2018-02-23 00:00:00.000,12:21:12.0000000,6.0.,0,0,Hydraulic,0,NULL,NULL,NULL,NULL,NULL,NULL,NULL,NULL,NULL,NULL,NULL,NULL,NULL,0,0,0,0,1165,TEALD,NULL,NULL,26743.23,5352.72,159.71,50.03,26.94,0,0,39,6.05,2.18,22,20,13,12,NULL,15000,17,12,26735.42,11855.07,5344.91,220.37,50.85,37.67,13.18,11.3,3.77,0,0,0,0,0,3.77,1.88,0,0,26.72,25.07,1.64,5.65,5.65,0,0,39.83,34.11,6.02,18.83,7.53,0,0,30.15,24.28,3.34,16.95,11.3,0,0,37.7,28.56,5.07,3.77,0,0,0,24.7,24.7,0,0,-1,NULL,-1,NULL,-1,NULL,-1,NULL,-1,NULL,-1,NULL,12,11,7,7,0,0,12,0,0,4.76,12,0,34.95,29.55,2.12,5.53,0,0,0,-2,-1,-1,-1,-1,-1,-1,-1,-1,-1,-1,-1,-1,-1,-1,-1,-1,-1,-1,-1,-1,0,-1
Unknown,Unknown,NULL,NULL,NULL,NULL,NULL,NULL,Unknown,2018-02-23 00:00:00.000,1,55564,2018-02-23 00:00:00.000,12:33:19.0000000,6.0.,0,0,Hydraulic,0,NULL,NULL,NULL,NULL,NULL,NULL,NULL,NULL,NULL,NULL,NULL,NULL,NULL,0,0,0,0,1165,TEALD,NULL,NULL,3772.6,1258.86,192.42,59.65,36.56,0,0,37,7.21,3.28,19,17,13,9,6,4400,17,9,3689.36,1951.14,1175.63,213.9,53.86,40.01,13.85,13.85,4.62,0,0,0,0,0,4.62,0,0,0,24.33,22.51,1.35,7.69,6.16,0,0,28.11,25.87,1.55,15.39,7.69,0,0,37.62,25.61,5.32,20.01,15.39,0,0,37.62,29.12,5.71,0,0,0,0,0,0,0,0,-1,NULL,-1,NULL,-1,NULL,-1,NULL,-1,NULL,-1,NULL,9,9,7,8,0,0,9,0,0,1.36,12,0,0,0,0,0,0,0,0,-2,-1,-1,-1,-1,-1,-1,-1,-1,-1,-1,-1,-1,-1,-1,-1,-1,-1,-1,-1,-1,0,-1
Unknown,Unknown,NULL,NULL,NULL,NULL,NULL,NULL,Unknown,2018-02-23 00:00:00.000,2,55565,2018-02-23 00:00:00.000,12:40:05.0000000,6.0.,0,0,Hydraulic,0,NULL,NULL,NULL,NULL,NULL,NULL,NULL,NULL,NULL,NULL,NULL,NULL,NULL,0,0,0,0,1165,TEALD,NULL,NULL,7413.29,1035.36,57.73,28.86,21.17,1.92,0,88,5.79,2.19,20,17,12,9,6,6300,17,10,7393.24,2924.01,1015.31,55.4,24.62,23.08,13.85,13.85,4.62,1.54,1.54,0,0,0,7.69,6.16,0,0,49.43,32.29,9.45,0,0,0,0,0,0,0,4.62,4.62,0,0,40.96,33.88,5.2,7.69,3.08,1.54,0,88.92,37.69,25.68,3.08,3.08,0,0,43.01,38.08,4.94,0,-1,NULL,-1,NULL,-1,NULL,-1,NULL,-1,NULL,-1,NULL,10,9,6,8,7,0,10,0,0,1.63,12,0,0,0,0,0,0,0,0,-2,-1,-1,-1,-1,-1,-1,-1,-1,-1,-1,-1,-1,-1,-1,-1,-1,-1,-1,-1,-1,0,-1
Unknown,Unknown,NULL,NULL,NULL,NULL,NULL,NULL,Unknown,2018-02-23 00:00:00.000,3,55565,2018-02-23 00:00:00.000,12:47:26.0000000,6.0.,0,0,Hydraulic,0,NULL,NULL,NULL,NULL,NULL,NULL,NULL,NULL,NULL,NULL,NULL,NULL,NULL,0,0,0,0,1165,TEALD,NULL,NULL,9280.46,1312.33,76.97,34.64,23.09,0,0,49,5.79,2.1,20,17,12,9,6,4400,17,11,9267.06,3674.75,1298.93,98.71,31.73,26.44,15.86,10.58,0,0,0,0,0,0,5.29,3.53,0,0,49.03,34.2,10.84,5.29,3.53,0,0,33.6,28.16,4.72,8.81,3.53,0,0,31.63,25.3,3.93,12.34,10.58,0,0,37.78,30.1,4.93,0,0,0,0,0,0,0,0,-1,NULL,-1,NULL,-1,NULL,-1,NULL,-1,NULL,-1,NULL,11,9,6,7,0,0,11,0,0,1.57,12,0,0,0,0,0,0,0,0,-2,-1,-1,-1,-1,-1,-1,-1,-1,-1,-1,-1,-1,-1,-1,-1,-1,-1,-1,-1,-1,0,-1
Unknown,Unknown,NULL,NULL,NULL,NULL,NULL,NULL,Unknown,2018-02-27 00:00:00.000,0,55574,2018-02-27 00:00:00.000,13:08:44.0000000,6.0.,0,0,Hydraulic,0,NULL,NULL,NULL,NULL,NULL,NULL,NULL,NULL,NULL,NULL,NULL,NULL,NULL,0,0,0,0,1165,TEALD,NULL,NULL,15842.67,942.52,125.07,73.12,44.26,0,0,40,5.38,1.73,21,17,13,9,5,6300,17,11,15836.68,4928.71,936.54,116.57,69.22,60.11,20.04,12.75,3.64,0,0,0,0,0,9.11,5.46,0,0,32.95,29.13,4.75,25.5,20.04,0,0,36.77,29.45,5.39,21.86,10.93,0,0,40.21,25.08,5.35,12.75,3.64,0,0,35.21,25.44,4.25,1.82,1.82,0,0,27.62,27.62,0,1.82,-1,NULL,-1,NULL,-1,NULL,-1,NULL,-1,NULL,-1,NULL,11,9,7,8,0,0,11,0,0,2.34,16,0,0,0,0,0,0,0,0,-2,-1,-1,-1,-1,-1,-1,-1,-1,-1,-1,-1,-1,-1,-1,-1,-1,-1,-1,-1,-1,0,-1
Unknown,Unknown,NULL,NULL,NULL,NULL,NULL,NULL,Unknown,2018-02-27 00:00:00.000,1,55575,2018-02-27 00:00:00.000,13:16:15.0000000,6.0.,0,0,Hydraulic,0,NULL,NULL,NULL,NULL,NULL,NULL,NULL,NULL,NULL,NULL,NULL,NULL,NULL,0,0,0,0,1165,TEALD,NULL,NULL,7715.63,448.77,61.57,30.79,21.17,3.85,0,84,5.38,1.92,20,16,12,8,5,15000,17,10,7708.16,2315.09,441.3,58.36,30.07,22.99,7.07,5.31,3.54,1.77,1.77,0,0,0,0,0,0,0,0,0,0,3.54,0,0,0,23.43,21.9,1.53,10.61,5.31,0,0,26.6,24.84,1.46,10.61,10.61,3.54,0,84.92,42.79,20.44,3.54,3.54,0,0,40.89,33.8,7.08,0,-1,NULL,-1,NULL,-1,NULL,-1,NULL,-1,NULL,-1,NULL,10,8,6,6,7,0,10,0,0,1.53,12,0,0,0,0,0,0,0,0,-2,-1,-1,-1,-1,-1,-1,-1,-1,-1,-1,-1,-1,-1,-1,-1,-1,-1,-1,-1,-1,0,-1
Unknown,Unknown,NULL,NULL,NULL,NULL,NULL,NULL,Unknown,2018-02-28 00:00:00.000,0,55593,2018-02-28 00:00:00.000,12:10:44.0000000,6.0.,0,0,Hydraulic,0,NULL,NULL,NULL,NULL,NULL,NULL,NULL,NULL,NULL,NULL,NULL,NULL,NULL,0,0,0,0,1165,TEALD,NULL,NULL,13323.92,7.7,5.77,0,0,0,0,18,5.01,0.22,21,10,8,3,0,4400,17,11,13323.72,3336.55,7.5,3.75,1.87,1.87,0,0,0,0,0,0,0,0,0,0,0,0,0,0,0,0,0,0,0,0,0,0,0,0,0,0,0,0,0,0,0,0,0,0,0,0,0,0,0,0,0,0,0,0,-1,NULL,-1,NULL,-1,NULL,-1,NULL,-1,NULL,-1,NULL,11,2,2,0,0,0,11,0,0,1.29,6,0,44.2,33.25,7.39,1.3,0.32,0,0,-2,-1,-1,-1,-1,-1,-1,-1,-1,-1,-1,-1,-1,-1,-1,-1,-1,-1,-1,-1,-1,0,-1
Unknown,Unknown,NULL,NULL,NULL,NULL,NULL,NULL,Unknown,2018-02-28 00:00:00.000,1,55593,2018-02-28 00:00:00.000,12:15:56.0000000,6.0.,0,0,Hydraulic,0,NULL,NULL,NULL,NULL,NULL,NULL,NULL,NULL,NULL,NULL,NULL,NULL,NULL,0,0,0,0,1165,TEALD,NULL,NULL,1054.37,73.33,9.62,1.92,0,0,0,21,5.41,1.56,17,13,NULL,5,2,800,12,8,1052.78,327.43,71.73,9.95,0,0,0,0,0,0,0,0,0,0,1.66,0,0,0,21.1,21.1,0,0,0,0,0,0,0,0,0,0,0,0,0,0,0,0,0,0,0,0,0,0,0,0,0,0,0,0,0,0,-1,NULL,-1,NULL,-1,NULL,-1,NULL,-1,NULL,-1,NULL,8,5,0,0,0,0,8,0,0,0.14,9,0,0,0,0,0,0,0,0,-2,-1,-1,-1,-1,-1,-1,-1,-1,-1,-1,-1,-1,-1,-1,-1,-1,-1,-1,-1,-1,0,-1
Unknown,Unknown,NULL,NULL,NULL,NULL,NULL,NULL,Unknown,2018-02-28 00:00:00.000,2,55593,2018-02-28 00:00:00.000,12:23:27.0000000,6.0.,0,0,Hydraulic,0,NULL,NULL,NULL,NULL,NULL,NULL,NULL,NULL,NULL,NULL,NULL,NULL,NULL,0,0,0,0,1165,TEALD,NULL,NULL,558.89,184.51,67.37,23.1,17.32,1.92,0,57,7.9,5.03,16,15,12,8,4,4400,11,8,544.62,283.89,170.24,61.57,32.33,30.79,12.31,12.31,6.16,1.54,0,0,0,0,3.08,1.54,0,0,25.43,23.27,2.16,0,0,0,0,0,0,0,7.7,7.7,0,0,32.2,29.19,2.39,7.7,4.62,1.54,0,57.61,31.37,13.56,0,0,0,0,0,0,0,0,-1,NULL,-1,NULL,-1,NULL,-1,NULL,-1,NULL,-1,NULL,7,6,6,8,7,0,8,0,0,0.55,11,0,0,0,0,0,0,0,0,-2,-1,-1,-1,-1,-1,-1,-1,-1,-1,-1,-1,-1,-1,-1,-1,-1,-1,-1,-1,-1,0,-1
Unknown,Unknown,NULL,NULL,NULL,NULL,NULL,NULL,Unknown,2018-02-28 00:00:00.000,3,55594,2018-02-28 00:00:00.000,12:29:08.0000000,6.0.,0,0,Hydraulic,0,NULL,NULL,NULL,NULL,NULL,NULL,NULL,NULL,NULL,NULL,NULL,NULL,NULL,0,0,0,0,1165,TEALD,NULL,NULL,22076.71,181.15,21.17,9.62,7.7,0,0,44,5.05,0.62,22,15,11,7,3,6300,17,12,22074.95,5681,179.4,21.77,10.89,10.89,3.63,3.63,3.63,0,0,0,0,0,1.81,1.81,0,0,28.16,28.16,0.01,1.81,1.81,0,0,30.95,30.95,0,3.63,1.81,0,0,36.72,29.41,7.31,1.81,1.81,0,0,44.53,44.53,0,0,0,0,0,0,0,0,0,-1,NULL,-1,NULL,-1,NULL,-1,NULL,-1,NULL,-1,NULL,12,6,5,6,0,0,12,0,0,2.35,10,0,0,0,0,0,0,0,0,-2,-1,-1,-1,-1,-1,-1,-1,-1,-1,-1,-1,-1,-1,-1,-1,-1,-1,-1,-1,-1,0,-1
Unknown,Unknown,NULL,NULL,NULL,NULL,NULL,NULL,Unknown,2018-02-28 00:00:00.000,4,55595,2018-02-28 00:00:00.000,12:35:28.0000000,6.0.,0,0,Hydraulic,0,NULL,NULL,NULL,NULL,NULL,NULL,NULL,NULL,NULL,NULL,NULL,NULL,NULL,0,0,0,0,1165,TEALD,NULL,NULL,2138.53,173.69,50.03,21.17,11.55,0,0,37,5.61,2.36,18,15,12,7,4,4400,17,9,2134.15,719.46,169.31,42.55,31.92,30.14,8.87,8.87,3.55,0,0,0,0,0,1.77,1.77,0,0,28.16,28.16,0.01,0,0,0,0,0,0,0,5.32,5.32,0,0,29.74,28.86,0.74,12.41,3.55,0,0,37.7,24.04,5.91,0,0,0,0,0,0,0,0,-1,NULL,-1,NULL,-1,NULL,-1,NULL,-1,NULL,-1,NULL,9,6,6,7,0,0,9,0,0,0.51,11,0,0,0,0,0,0,0,0,-2,-1,-1,-1,-1,-1,-1,-1,-1,-1,-1,-1,-1,-1,-1,-1,-1,-1,-1,-1,-1,0,-1
Unknown,Unknown,NULL,NULL,NULL,NULL,NULL,NULL,Unknown,2018-02-28 00:00:00.000,5,55596,2018-02-28 00:00:00.000,12:42:00.0000000,6.0.,0,0,Hydraulic,0,NULL,NULL,NULL,NULL,NULL,NULL,NULL,NULL,NULL,NULL,NULL,NULL,NULL,0,0,0,0,1165,TEALD,NULL,NULL,907.63,205.33,82.74,42.33,32.71,3.85,1.92,146,7.35,6.42,17,15,13,10,NULL,100000,13,10,890.71,392.65,188.41,62.39,45.23,37.44,24.96,21.84,10.92,1.56,1.56,1.56,1.56,0,3.12,1.56,0,0,32.95,28.19,4.76,3.12,3.12,1.56,0,56.86,49.46,7.4,10.92,9.36,0,0,33.6,28.72,2.94,17.16,12.48,1.56,1.56,146.81,39.43,34.57,0,0,0,0,0,0,0,0,-1,NULL,-1,NULL,-1,NULL,-1,NULL,-1,NULL,-1,NULL,7,6,7,8,7,10,10,0,0,0.91,13,0,0,0,0,0,0,0,0,-2,-1,-1,-1,-1,-1,-1,-1,-1,-1,-1,-1,-1,-1,-1,-1,-1,-1,-1,-1,-1,0,-1
Unknown,Unknown,NULL,NULL,NULL,NULL,NULL,NULL,Unknown,2018-02-28 00:00:00.000,6,55596,2018-02-28 00:00:00.000,12:54:43.0000000,6.0.,0,0,Hydraulic,0,NULL,NULL,NULL,NULL,NULL,NULL,NULL,NULL,NULL,NULL,NULL,NULL,NULL,0,0,0,0,1165,TEALD,NULL,NULL,201.93,81.59,28.86,11.55,7.7,1.92,0,55,8.72,6.09,15,13,10,6,3,800,15,6,195.76,118.88,75.43,21.54,7.69,6.16,4.62,4.62,1.54,0,0,0,0,0,0,0,0,0,0,0,0,3.08,1.54,0,0,28.8,26.05,2.75,3.08,1.54,0,0,27.4,24.66,2.75,4.62,3.08,1.54,0,55.54,37.89,13.47,0,0,0,0,0,0,0,1.54,-1,NULL,-1,NULL,-1,NULL,-1,NULL,-1,NULL,-1,NULL,5,5,4,6,0,0,6,0,0,0.2,15,0,0,0,0,0,0,0,0,-2,-1,-1,-1,-1,-1,-1,-1,-1,-1,-1,-1,-1,-1,-1,-1,-1,-1,-1,-1,-1,0,-1
Unknown,Unknown,NULL,NULL,NULL,NULL,NULL,NULL,Unknown,2018-02-28 00:00:00.000,7,55596,2018-02-28 00:00:00.000,13:00:04.0000000,6.0.,0,0,Hydraulic,0,NULL,NULL,NULL,NULL,NULL,NULL,NULL,NULL,NULL,NULL,NULL,NULL,NULL,0,0,0,0,1165,TEALD,NULL,NULL,271.85,57.57,9.62,5.77,3.85,3.85,0,70,6.92,5.71,15,13,10,7,4,6300,15,7,265.69,118.38,51.41,13.85,6.16,3.08,3.08,3.08,3.08,1.54,1.54,0,0,0,0,0,0,0,0,0,0,3.08,1.54,1.54,0,67.1,45.71,21.39,0,0,0,0,0,0,0,1.54,1.54,1.54,0,70.17,70.17,0.01,0,0,0,0,0,0,0,1.54,-1,NULL,-1,NULL,-1,NULL,-1,NULL,-1,NULL,-1,NULL,6,5,4,6,7,0,7,0,0,0.38,15,0,0,0,0,0,0,0,0,-2,-1,-1,-1,-1,-1,-1,-1,-1,-1,-1,-1,-1,-1,-1,-1,-1,-1,-1,-1,-1,0,-1
Unknown,Unknown,NULL,NULL,NULL,NULL,NULL,NULL,Unknown,2018-02-28 00:00:00.000,8,55626,2018-02-28 00:00:00.000,13:06:56.0000000,6.0.,0,0,Hydraulic,0,NULL,NULL,NULL,NULL,NULL,NULL,NULL,NULL,NULL,NULL,NULL,NULL,NULL,0,0,0,0,1165,TEALD,NULL,NULL,2707.91,1130.14,548.39,375.22,280.93,57.73,3.85,153,10.43,8.97,19,17,15,11,NULL,NULL,17,11,2574.2,1491.16,996.43,463.2,281.61,250.83,160.04,138.5,100.03,27.7,10.77,3.08,0,0,36.93,20.01,1.54,0,59.74,29.28,9.07,47.7,32.32,1.54,0,54.17,29.49,7.73,41.55,18.47,3.08,0,71.81,29.14,13.53,160.04,141.57,33.85,1.54,143.71,40.62,17.35,15.39,12.31,6.16,1.54,153.91,58.7,38.73,12.31,-1,NULL,-1,NULL,-1,NULL,-1,NULL,-1,NULL,-1,NULL,9,9,10,11,11,11,11,0,0,9.83,NULL,0,67.72,37.25,13.93,3.85,0.55,0.55,0,-2,-1,-1,-1,-1,-1,-1,-1,-1,-1,-1,-1,-1,-1,-1,-1,-1,-1,-1,-1,-1,0,-1
Unknown,Unknown,NULL,NULL,NULL,NULL,NULL,NULL,Unknown,2018-03-05 00:00:00.000,0,55657,2018-03-05 00:00:00.000,09:40:05.0000000,6.0.,0,0,Hydraulic,0,NULL,NULL,NULL,NULL,NULL,NULL,NULL,NULL,NULL,NULL,NULL,NULL,NULL,0,0,0,0,1165,NULL,NULL,NULL,1538790,507980.4,60296.48,16424.17,8913.61,169.6,0,79,7.05,3.05,28,26,20,12,NULL,NULL,17,NULL,1513238,836402.4,482428.9,65273.28,9341.6,6520.5,1235.2,948.13,397.25,1.55,1.55,0,0,0,2752.82,1345.38,41.9,0,79.73,26.58,6.6,5612.72,3041.45,12.41,0,60.1,26.13,4.68,1815.56,217.25,0,0,35.21,22.48,2.16,3358.01,2371.09,80.69,0,77.56,30.34,8.44,687.43,280.87,1.55,0,58.21,26.75,6.83,918.64,-1,NULL,-1,NULL,-1,NULL,-1,NULL,-1,NULL,-1,NULL,NULL,NULL,NULL,NULL,7,0,NULL,0,0.02,430.97,NULL,0,0,0,0,0,0,0,0,-2,-1,-1,-1,-1,-1,-1,-1,-1,-1,-1,-1,-1,-1,-1,-1,-1,-1,-1,-1,-1,0,-1
Unknown,Unknown,NULL,NULL,NULL,NULL,NULL,NULL,Unknown,2018-03-05 00:00:00.000,1,55657,2018-03-05 00:00:00.000,09:46:57.0000000,6.0.,0,0,Hydraulic,0,NULL,NULL,NULL,NULL,NULL,NULL,NULL,NULL,NULL,NULL,NULL,NULL,NULL,0,0,0,0,1165,NULL,NULL,NULL,7970.28,1124.37,25.01,7.7,0,0,0,22,5.74,1.82,20,17,8,9,6,4400,17,10,7953.71,3146.86,1107.8,32.32,1.54,1.54,0,0,0,0,0,0,0,0,1.54,0,0,0,22.85,22.85,0,1.54,0,0,0,20.62,20.62,0,3.08,0,0,0,22.85,22.33,0.52,0,0,0,0,0,0,0,0,0,0,0,0,0,0,0,-1,NULL,-1,NULL,-1,NULL,-1,NULL,-1,NULL,-1,NULL,10,9,2,0,0,0,10,0,0,1.11,12,0,0,0,0,0,0,0,0,-2,-1,-1,-1,-1,-1,-1,-1,-1,-1,-1,-1,-1,-1,-1,-1,-1,-1,-1,-1,-1,0,-1
Unknown,Unknown,NULL,NULL,NULL,NULL,NULL,NULL,Unknown,2018-03-05 00:00:00.000,2,55661,2018-03-05 00:00:00.000,09:54:49.0000000,6.0.,0,0,Hydraulic,0,NULL,NULL,NULL,NULL,NULL,NULL,NULL,NULL,NULL,NULL,NULL,NULL,NULL,0,0,0,0,1165,NULL,NULL,NULL,22424.44,103.91,96.21,59.65,30.79,5.77,0,90,5.07,1.19,22,14,13,9,6,15000,17,12,22424.31,5683.91,103.78,98.02,51.89,42.28,17.3,15.38,5.77,5.77,1.92,0,0,0,9.61,3.84,0,0,39.9,26.46,7.41,21.14,9.61,0,0,30.55,25.16,2.33,3.84,0,0,0,22.09,22.09,0,19.22,15.38,3.84,0,70.64,40.53,15.93,5.77,1.92,1.92,0,90.82,44.87,32.51,1.92,-1,NULL,-1,NULL,-1,NULL,-1,NULL,-1,NULL,-1,NULL,12,6,7,8,9,0,12,0,0,3.47,16,0,0,0,0,0,0,0,0,-2,-1,-1,-1,-1,-1,-1,-1,-1,-1,-1,-1,-1,-1,-1,-1,-1,-1,-1,-1,-1,0,-1
Unknown,Unknown,NULL,NULL,NULL,NULL,NULL,NULL,Unknown,2018-03-05 00:00:00.000,3,55662,2018-03-05 00:00:00.000,10:01:44.0000000,6.0.,0,0,Hydraulic,0,NULL,NULL,NULL,NULL,NULL,NULL,NULL,NULL,NULL,NULL,NULL,NULL,NULL,0,0,0,0,1165,NULL,NULL,NULL,13535.35,50.03,32.71,7.7,3.85,0,0,39,5.04,0.63,21,13,11,6,3,4400,17,11,13534.29,3420.3,48.97,39.55,15.07,7.53,3.77,3.77,3.77,0,0,0,0,0,0,0,0,0,0,0,0,0,0,0,0,0,0,0,0,0,0,0,0,0,0,7.53,3.77,0,0,39.83,31.13,7.39,0,0,0,0,0,0,0,0,-1,NULL,-1,NULL,-1,NULL,-1,NULL,-1,NULL,-1,NULL,11,5,5,6,0,0,11,0,0,1.53,9,0,0,0,0,0,0,0,0,-2,-1,-1,-1,-1,-1,-1,-1,-1,-1,-1,-1,-1,-1,-1,-1,-1,-1,-1,-1,-1,0,-1
Unknown,Unknown,NULL,NULL,NULL,NULL,NULL,NULL,Unknown,2018-03-05 00:00:00.000,4,55663,2018-03-05 00:00:00.000,10:10:00.0000000,6.0.,0,0,Hydraulic,0,NULL,NULL,NULL,NULL,NULL,NULL,NULL,NULL,NULL,NULL,NULL,NULL,NULL,0,0,0,0,1165,NULL,NULL,NULL,12694.36,519.53,25.01,15.39,7.7,0,0,30,5.22,1.17,21,16,10,8,5,4400,17,11,12693.74,3714.8,518.91,28.24,7.53,7.53,1.88,1.88,0,0,0,0,0,0,3.77,1.88,0,0,30.38,25.81,4.57,5.65,3.77,0,0,30.55,27.22,4.23,1.88,0,0,0,24.7,24.7,0,3.77,1.88,0,0,26.6,24.83,1.78,0,0,0,0,0,0,0,3.77,-1,NULL,-1,NULL,-1,NULL,-1,NULL,-1,NULL,-1,NULL,11,8,4,5,0,0,11,0,0,1.45,17,0,0,0,0,0,0,0,0,-2,-1,-1,-1,-1,-1,-1,-1,-1,-1,-1,-1,-1,-1,-1,-1,-1,-1,-1,-1,-1,0,-1
Unknown,Unknown,NULL,NULL,NULL,NULL,NULL,NULL,Unknown,2018-03-05 00:00:00.000,5,55664,2018-03-05 00:00:00.000,10:17:06.0000000,6.0.,0,0,Hydraulic,0,NULL,NULL,NULL,NULL,NULL,NULL,NULL,NULL,NULL,NULL,NULL,NULL,NULL,0,0,0,0,1165,NULL,NULL,NULL,21141,215.51,150.09,88.51,57.73,9.62,0,50,5.13,1.58,22,15,14,11,NULL,100000,17,12,21140.83,5446.71,215.34,186.5,90.36,88.44,65.37,65.37,42.3,21.15,0,0,0,0,7.69,1.92,0,0,31.24,24.82,3.92,1.92,1.92,0,0,30.95,30.95,0,3.85,0,0,0,24.33,23.88,0.45,74.98,53.83,9.61,0,50.92,34.25,10.07,0,0,0,0,0,0,0,0,-1,NULL,-1,NULL,-1,NULL,-1,NULL,-1,NULL,-1,NULL,12,7,8,10,11,0,12,0,0,4.79,15,0,0,0,0,0,0,0,0,-2,-1,-1,-1,-1,-1,-1,-1,-1,-1,-1,-1,-1,-1,-1,-1,-1,-1,-1,-1,-1,0,-1
Unknown,Unknown,NULL,NULL,NULL,NULL,NULL,NULL,Unknown,2018-03-05 00:00:00.000,6,55664,2018-03-05 00:00:00.000,10:23:33.0000000,6.0.,0,0,Hydraulic,0,NULL,NULL,NULL,NULL,NULL,NULL,NULL,NULL,NULL,NULL,NULL,NULL,NULL,0,0,0,0,1165,NULL,NULL,NULL,16471.01,2074.27,142.39,73.12,53.88,3.85,0,53,5.72,2.19,21,18,14,10,NULL,100000,17,12,16468.61,6340.67,2071.87,175.27,106.69,102.88,59.06,55.25,34.29,0,0,0,0,0,5.72,3.81,0,0,31.44,28.7,3.73,0,0,0,0,0,0,0,7.62,0,0,0,22.09,21.35,0.43,57.15,49.53,3.81,0,53.95,31.09,7.21,1.91,0,0,0,22.37,22.37,0,0,-1,NULL,-1,NULL,-1,NULL,-1,NULL,-1,NULL,-1,NULL,12,10,8,10,0,0,12,0,0,3.65,13,0,0,0,0,0,0,0,0,-2,-1,-1,-1,-1,-1,-1,-1,-1,-1,-1,-1,-1,-1,-1,-1,-1,-1,-1,-1,-1,0,-1
Unknown,Unknown,NULL,NULL,NULL,NULL,NULL,NULL,Unknown,2018-03-05 00:00:00.000,7,55664,2018-03-05 00:00:00.000,10:30:15.0000000,6.0.,0,0,Hydraulic,0,NULL,NULL,NULL,NULL,NULL,NULL,NULL,NULL,NULL,NULL,NULL,NULL,NULL,0,0,0,0,1165,NULL,NULL,NULL,21504.04,2717.59,159.71,59.65,42.33,0,0,35,5.69,1.98,22,19,14,11,NULL,100000,17,12,21499.82,7874.99,2713.37,160.66,92.62,90.73,41.58,39.69,13.23,0,0,0,0,0,0,0,0,0,0,0,0,1.89,0,0,0,20.37,20.37,0,3.78,0,0,0,23.43,21.9,1.53,51.03,41.58,0,0,35.37,26.88,3.97,1.89,0,0,0,22.09,22.09,0,1.89,-1,NULL,-1,NULL,-1,NULL,-1,NULL,-1,NULL,-1,NULL,12,10,8,9,0,0,12,0,0,3.95,16,0,0,0,0,0,0,0,0,-2,-1,-1,-1,-1,-1,-1,-1,-1,-1,-1,-1,-1,-1,-1,-1,-1,-1,-1,-1,-1,0,-1
Unknown,Unknown,NULL,NULL,NULL,NULL,NULL,NULL,Unknown,2018-03-05 00:00:00.000,8,55678,2018-03-05 00:00:00.000,14:35:29.0000000,6.0.,0,0,Hydraulic,0,NULL,NULL,NULL,NULL,NULL,NULL,NULL,NULL,NULL,NULL,NULL,NULL,NULL,0,0,0,0,1165,NULL,NULL,NULL,1348.93,131.05,21.17,15.39,5.77,0,0,38,5.67,2.29,18,14,11,6,2,1300,12,8,1343.12,429.71,125.24,28.41,11.7,10.03,1.67,1.67,0,0,0,0,0,0,1.67,0,0,0,22.09,22.09,0,5.01,5.01,0,0,38.66,35.79,2.12,0,0,0,0,0,0,0,6.69,0,0,0,24.7,22.67,1.32,0,0,0,0,0,0,0,0,-1,NULL,-1,NULL,-1,NULL,-1,NULL,-1,NULL,-1,NULL,8,6,5,5,0,0,8,0,0,0.26,10,0,0,0,0,0,0,0,0,-2,-1,-1,-1,-1,-1,-1,-1,-1,-1,-1,-1,-1,-1,-1,-1,-1,-1,-1,-1,-1,0,-1
Unknown,Unknown,NULL,NULL,NULL,NULL,NULL,NULL,Unknown,2018-03-05 00:00:00.000,9,55679,2018-03-05 00:00:00.000,14:43:15.0000000,6.0.,0,0,Hydraulic,0,NULL,NULL,NULL,NULL,NULL,NULL,NULL,NULL,NULL,NULL,NULL,NULL,NULL,0,0,0,0,1165,NULL,NULL,NULL,341.73,100.67,15.39,5.77,3.85,0,0,39,6.92,3.32,16,14,9,6,2,400,11,6,337.5,176.79,96.44,13.85,3.08,3.08,0,0,0,0,0,0,0,0,0,0,0,0,0,0,0,0,0,0,0,0,0,0,1.54,0,0,0,21.1,21.1,0,3.08,3.08,0,0,39.83,37.07,2.76,0,0,0,0,0,0,0,0,-1,NULL,-1,NULL,-1,NULL,-1,NULL,-1,NULL,-1,NULL,6,5,3,0,0,0,6,0,0,0.1,10,0,0,0,0,0,0,0,0,-2,-1,-1,-1,-1,-1,-1,-1,-1,-1,-1,-1,-1,-1,-1,-1,-1,-1,-1,-1,-1,0,-1
Unknown,Unknown,NULL,NULL,NULL,NULL,NULL,NULL,Unknown,2018-03-12 00:00:00.000,0,FLUSH,2018-03-12 00:00:00.000,08:19:23.0000000,6.0.,0,0,Hydraulic,0,NULL,NULL,NULL,NULL,NULL,NULL,NULL,NULL,NULL,NULL,NULL,NULL,NULL,0,0,0,0,1165,TEALD,NULL,NULL,6886.47,2674.63,832.54,293.72,161.45,9.73,0,60,8.23,4.51,20,18,15,11,NULL,100000,17,11,6621.22,3823.36,2409.38,768.37,234.39,190.93,108.66,99.34,46.57,13.97,0,0,0,34.45,63.64,21.73,0,0,45.54,26.2,7.75,13.97,9.31,0,0,49,30.29,8.67,10.87,3.1,0,0,34.4,24.05,5,145.91,93.14,7.76,0,60.3,30.87,9.77,1.55,1.55,0,0,39.86,39.86,0,0,-1,NULL,-1,NULL,-1,NULL,-1,NULL,-1,NULL,-1,NULL,10,10,9,11,10,0,11,0,0,5.52,14,0,0,0,0,0,0,0,0,-2,-1,-1,-1,-1,-1,-1,-1,-1,-1,-1,-1,-1,-1,-1,-1,-1,-1,-1,-1,-1,0,-1
Unknown,Unknown,NULL,NULL,NULL,NULL,NULL,NULL,Unknown,2018-03-12 00:00:00.000,1,A,2018-03-12 00:00:00.000,08:28:24.0000000,6.0.,0,0,Hydraulic,0,NULL,NULL,NULL,NULL,NULL,NULL,NULL,NULL,NULL,NULL,NULL,NULL,NULL,0,0,0,0,1165,TEALD,NULL,NULL,635.38,635.38,28.86,0,0,0,0,17,11.14,3,16,16,11,8,5,1300,12,8,583.36,583.36,583.36,60.02,16.93,0,0,0,0,0,0,0,0,0,0,0,0,0,0,0,0,0,0,0,0,0,0,0,0,0,0,0,0,0,0,0,0,0,0,0,0,0,0,0,0,0,0,0,0,0,-1,NULL,-1,NULL,-1,NULL,-1,NULL,-1,NULL,-1,NULL,7,8,5,0,0,0,8,0,0,0.48,12,0,0,0,0,0,0,0,0,-2,-1,-1,-1,-1,-1,-1,-1,-1,-1,-1,-1,-1,-1,-1,-1,-1,-1,-1,-1,-1,0,-1
Unknown,Unknown,NULL,NULL,NULL,NULL,NULL,NULL,Unknown,2018-03-12 00:00:00.000,2,55681,2018-03-12 00:00:00.000,08:36:40.0000000,6.0.,0,0,Hydraulic,0,NULL,NULL,NULL,NULL,NULL,NULL,NULL,NULL,NULL,NULL,NULL,NULL,NULL,0,0,0,0,1165,TEALD,NULL,NULL,4578.57,1409.66,246.3,69.27,38.48,3.85,0,91,7.1,3.45,19,18,13,9,6,6300,17,10,4483,2320.26,1314.1,329.31,76.94,56.94,26.16,20.01,7.69,1.54,0,0,0,0,18.47,6.16,1.54,0,81.55,30.14,16.45,7.69,4.62,0,0,35.37,27.31,5.05,6.16,3.08,0,0,30.15,26.8,2.8,29.24,16.93,1.54,0,91.09,32.22,16.17,0,0,0,0,0,0,0,3.08,-1,NULL,-1,NULL,-1,NULL,-1,NULL,-1,NULL,-1,NULL,10,9,8,8,7,0,10,0,0,1.9,16,0,0,0,0,0,0,0,0,-2,-1,-1,-1,-1,-1,-1,-1,-1,-1,-1,-1,-1,-1,-1,-1,-1,-1,-1,-1,-1,0,-1
Unknown,Unknown,NULL,NULL,NULL,NULL,NULL,NULL,Unknown,2018-03-12 00:00:00.000,3,55670,2018-03-12 00:00:00.000,08:46:19.0000000,6.0.,0,0,Hydraulic,0,NULL,NULL,NULL,NULL,NULL,NULL,NULL,NULL,NULL,NULL,NULL,NULL,NULL,0,0,0,0,1165,TEALD,NULL,NULL,637984.3,127635,2661.15,852.41,432.94,34.64,9.62,168,6.04,2.16,26,24,17,12,NULL,NULL,17,NULL,637178,305171.6,126828.8,2266.84,836.53,731.39,296.88,272.14,176.28,32.47,15.46,9.28,3.09,12,46.39,15.46,0,0,31.24,24.21,3.41,102.05,21.65,0,0,39.83,23.09,3.53,156.17,89.68,3.09,0,52.74,27.81,6.91,380.38,218.02,21.65,4.64,136.05,30.63,15.36,4.64,4.64,3.09,3.09,168.61,120.16,65.08,1.55,-1,NULL,-1,NULL,-1,NULL,-1,NULL,-1,NULL,-1,NULL,NULL,NULL,11,12,11,12,NULL,0,0.01,109.36,16,0,0,0,0,0,0,0,0,-2,-1,-1,-1,-1,-1,-1,-1,-1,-1,-1,-1,-1,-1,-1,-1,-1,-1,-1,-1,-1,0,-1
Unknown,Unknown,NULL,NULL,NULL,NULL,NULL,NULL,Unknown,2018-03-12 00:00:00.000,4,55670,2018-03-12 00:00:00.000,08:57:51.0000000,6.0.,0,0,Hydraulic,0,NULL,NULL,NULL,NULL,NULL,NULL,NULL,NULL,NULL,NULL,NULL,NULL,NULL,0,0,0,0,1165,TEALD,NULL,NULL,673713.6,141751.3,3807.96,1187.22,609.97,17.32,7.7,149,6.1,2.22,27,24,17,12,NULL,NULL,17,NULL,672591.9,329651,140629.6,3183.89,1275.71,1080.28,443.19,401.64,218.52,15.39,6.16,6.16,4.62,28.22,64.63,23.08,0,0,33.6,24.15,3.34,92.33,9.23,0,0,45.8,22.76,4.41,275.45,136.96,3.08,0,50.82,26.91,6.55,517.06,318.54,10.77,6.16,149.29,29.32,13.62,1.54,0,0,0,23.43,23.43,0.01,9.23,-1,NULL,-1,NULL,-1,NULL,-1,NULL,-1,NULL,-1,NULL,NULL,NULL,12,NULL,10,12,NULL,0,0.01,115.21,NULL,0,0,0,0,0,0,0,0,-2,-1,-1,-1,-1,-1,-1,-1,-1,-1,-1,-1,-1,-1,-1,-1,-1,-1,-1,-1,-1,0,-1
Unknown,Unknown,NULL,NULL,NULL,NULL,NULL,NULL,Unknown,2018-03-12 00:00:00.000,6,55670,2018-03-12 00:00:00.000,09:37:42.0000000,6.0.,0,0,Hydraulic,0,NULL,NULL,NULL,NULL,NULL,NULL,NULL,NULL,NULL,NULL,NULL,NULL,NULL,0,0,0,0,1165,TEALD,NULL,NULL,772616.4,163916.9,1325.76,558.01,304.02,5.77,0,70,6.08,2.11,27,25,17,12,NULL,100000,17,NULL,772602.4,376529.2,163902.9,1656.34,796.65,781.37,294.21,275.1,137.55,7.64,3.82,0,0,7.95,38.21,9.55,0,0,28.16,23.31,2.43,5.73,3.82,0,0,41.4,31.93,8.31,106.98,45.85,0,0,31.63,24.67,3.44,393.55,238.8,5.73,0,70.21,27.61,7.28,9.55,3.82,0,0,28.16,24.19,3.37,1.91,-1,NULL,-1,NULL,-1,NULL,-1,NULL,-1,NULL,-1,NULL,NULL,NULL,11,12,9,0,NULL,0,0.01,124.24,16,0,0,0,0,0,0,0,0,-2,-1,-1,-1,-1,-1,-1,-1,-1,-1,-1,-1,-1,-1,-1,-1,-1,-1,-1,-1,-1,0,-1
Unknown,Unknown,NULL,NULL,NULL,NULL,NULL,NULL,Unknown,2018-03-12 00:00:00.000,8,55732,2018-03-12 00:00:00.000,10:32:18.0000000,6.0.,0,0,Hydraulic,0,NULL,NULL,NULL,NULL,NULL,NULL,NULL,NULL,NULL,NULL,NULL,NULL,NULL,0,0,0,0,1165,HARGISZP,NULL,NULL,25696.04,15244.52,5927.17,2449.48,1684.18,322.78,13.02,255,11.19,6.79,22,21,18,12,NULL,NULL,17,NULL,23568.52,17137.39,13117,5082.26,2126.43,1744.72,867.36,781.42,485.64,107.92,27.98,2,2,81.37,259.81,141.9,23.98,0,90.12,30.62,13.15,249.82,147.89,37.97,0,97,32.32,14.66,121.91,47.96,0,0,42.21,24.81,4.88,1197.12,913.33,171.87,4,107.24,35.78,14.76,77.94,43.97,13.99,6,997.04,61.04,154.22,199.85,-1,NULL,-1,NULL,-1,NULL,-1,NULL,-1,NULL,-1,NULL,12,NULL,12,NULL,NULL,10,NULL,0,0.01,46.44,NULL,0,0,0,0,0,0,0,0,-2,-1,-1,-1,-1,-1,-1,-1,-1,-1,-1,-1,-1,-1,-1,-1,-1,-1,-1,-1,-1,0,-1
Unknown,Unknown,NULL,NULL,NULL,NULL,NULL,NULL,Unknown,2018-03-12 00:00:00.000,9,55732,2018-03-12 00:00:00.000,10:41:38.0000000,6.0.,0,0,Hydraulic,0,NULL,NULL,NULL,NULL,NULL,NULL,NULL,NULL,NULL,NULL,NULL,NULL,NULL,0,0,0,0,1165,HARGISZP,NULL,NULL,16193.75,2899.9,229.07,117.42,84.7,50.05,21.17,168,6.17,4.49,21,19,14,12,NULL,NULL,17,NULL,16188.4,6956.56,2894.56,286.77,123.44,106.35,68.37,68.37,53.18,49.38,43.68,26.59,11.39,8.59,1.9,0,0,0,22.77,22.77,0,17.09,3.8,0,0,27.94,24.71,1.44,7.6,0,0,0,22.77,21.34,0.88,79.76,74.07,45.58,17.09,147.42,68.46,41.77,9.5,5.7,3.8,3.8,168.58,82.4,70.2,20.89,-1,NULL,-1,NULL,-1,NULL,-1,NULL,-1,NULL,-1,NULL,12,10,8,10,12,NULL,NULL,0,0,17.78,NULL,0,0,0,0,0,0,0,0,-2,-1,-1,-1,-1,-1,-1,-1,-1,-1,-1,-1,-1,-1,-1,-1,-1,-1,-1,-1,-1,0,-1
Unknown,Unknown,NULL,NULL,NULL,NULL,NULL,NULL,Unknown,2018-03-12 00:00:00.000,10,55732,2018-03-12 00:00:00.000,10:50:09.0000000,6.0.,0,0,Hydraulic,0,NULL,NULL,NULL,NULL,NULL,NULL,NULL,NULL,NULL,NULL,NULL,NULL,NULL,0,0,0,0,1165,HARGISZP,NULL,NULL,8429.21,152.01,109.68,28.86,19.24,1.92,0,72,5.19,1.6,20,14,12,7,4,4400,17,11,8423.93,2216.03,146.73,107.72,27.86,22.29,9.29,9.29,0,0,0,0,0,0,1.86,1.86,0,0,33.6,33.6,0,9.29,5.57,1.86,0,72.66,37.3,18.75,0,0,0,0,0,0,0,14.86,9.29,0,0,30.15,24.89,3,1.86,1.86,0,0,30.38,30.38,0.01,3.71,-1,NULL,-1,NULL,-1,NULL,-1,NULL,-1,NULL,-1,NULL,11,6,6,7,0,0,11,0,0,1.18,17,0,30.24,29.01,1.31,4.01,0,0,0,-2,-1,-1,-1,-1,-1,-1,-1,-1,-1,-1,-1,-1,-1,-1,-1,-1,-1,-1,-1,-1,0,-1
Unknown,Unknown,NULL,NULL,NULL,NULL,NULL,NULL,Unknown,2018-03-12 00:00:00.000,11,TEST,2018-03-12 00:00:00.000,12:20:08.0000000,6.0.,0,0,Hydraulic,0,NULL,NULL,NULL,NULL,NULL,NULL,NULL,NULL,NULL,NULL,NULL,NULL,NULL,0,0,0,0,1165,HARGISZP,NULL,NULL,20780.46,3358.77,954.4,831.25,719.64,425.24,30.79,134,7.03,7.63,22,19,16,12,NULL,NULL,17,12,20690.6,8289.41,3268.91,821.51,575.58,544.19,387.21,368.02,244.19,24.42,0,0,0,0,102.91,75,15.7,0,99.47,35.69,16.77,399.42,376.74,340.12,26.16,134.85,70.96,22.67,31.4,24.42,0,0,27.62,25.85,1.42,200.58,146.51,10.47,0,73.42,31.45,9.27,45.35,38.37,19.19,1.74,113.63,49.71,26.56,462.21,-1,NULL,-1,NULL,-1,NULL,-1,NULL,-1,NULL,-1,NULL,12,11,11,12,11,0,12,0,0,14.77,NULL,0,30.09,28.76,0.82,7.6,0,0,0,-2,-1,-1,-1,-1,-1,-1,-1,-1,-1,-1,-1,-1,-1,-1,-1,-1,-1,-1,-1,-1,0,-1
Unknown,Unknown,NULL,NULL,NULL,NULL,NULL,NULL,Unknown,2018-03-12 00:00:00.000,12,55732,2018-03-12 00:00:00.000,12:27:33.0000000,6.0.,0,0,Hydraulic,0,NULL,NULL,NULL,NULL,NULL,NULL,NULL,NULL,NULL,NULL,NULL,NULL,NULL,0,0,0,0,1165,HARGISZP,NULL,NULL,63851.15,3167.21,61.57,25.01,21.17,1.92,0,89,5.26,1.18,23,19,11,11,NULL,15000,17,NULL,63851.01,18338.05,3167.06,67.24,19.21,17.29,13.45,11.53,11.53,0,0,0,0,0,0,0,0,0,0,0,0,5.76,5.76,1.92,0,89.61,53.48,26.82,0,0,0,0,0,0,0,19.21,15.37,0,0,40.74,33.16,6.44,0,0,0,0,0,0,0,3.84,-1,NULL,-1,NULL,-1,NULL,-1,NULL,-1,NULL,-1,NULL,NULL,11,6,7,0,0,NULL,0,0,7.54,17,0,33.75,33.75,0,0.33,0,0,0,-2,-1,-1,-1,-1,-1,-1,-1,-1,-1,-1,-1,-1,-1,-1,-1,-1,-1,-1,-1,-1,0,-1
Unknown,Unknown,NULL,NULL,NULL,NULL,NULL,NULL,Unknown,2018-03-12 00:00:00.000,13,55733,2018-03-12 00:00:00.000,12:35:52.0000000,6.0.,0,0,Hydraulic,0,NULL,NULL,NULL,NULL,NULL,NULL,NULL,NULL,NULL,NULL,NULL,NULL,NULL,0,0,0,0,1165,HARGISZP,NULL,NULL,6298.28,315.98,59.65,28.86,28.86,0,0,49,5.35,1.78,20,15,12,9,5,100000,17,10,6288.44,1864.55,306.14,71.32,30.56,28.87,23.77,23.77,23.77,0,0,0,0,0,5.09,5.09,0,0,47.19,38.55,9.11,1.7,1.7,0,0,40.21,40.21,0.01,6.79,6.79,0,0,41.4,38.47,2.09,11.89,11.89,0,0,49.4,42.58,5.66,6.79,3.4,0,0,44.53,28.99,9.09,84.9,-1,NULL,-1,NULL,-1,NULL,-1,NULL,-1,NULL,-1,NULL,10,7,6,8,0,0,10,0,0,1.57,NULL,0,0,0,0,0,0,0,0,-2,-1,-1,-1,-1,-1,-1,-1,-1,-1,-1,-1,-1,-1,-1,-1,-1,-1,-1,-1,-1,0,-1
Unknown,Unknown,NULL,NULL,NULL,NULL,NULL,NULL,Unknown,2018-03-12 00:00:00.000,14,55733,2018-03-12 00:00:00.000,12:58:04.0000000,6.0.,0,0,Hydraulic,0,NULL,NULL,NULL,NULL,NULL,NULL,NULL,NULL,NULL,NULL,NULL,NULL,NULL,0,0,0,0,1165,HARGISZP,NULL,NULL,1435.98,806.54,330.96,155.86,101.98,0,0,43,10.62,5.31,18,17,14,10,6,100000,12,9,1332.46,867.08,703.02,298.63,143.16,107.75,49.26,46.18,15.39,0,0,0,0,0,13.85,6.16,0,0,39.05,26.13,5.52,29.25,20.01,0,0,40.45,29.44,6.53,16.93,4.62,0,0,27.28,23.57,2.42,63.11,49.26,0,0,43.92,28.96,5.92,1.54,1.54,0,0,25.79,25.79,0,0,-1,NULL,-1,NULL,-1,NULL,-1,NULL,-1,NULL,-1,NULL,8,8,9,9,0,0,9,0,0,1.85,13,0,30.36,30.36,0,0.75,0,0,0,-2,-1,-1,-1,-1,-1,-1,-1,-1,-1,-1,-1,-1,-1,-1,-1,-1,-1,-1,-1,-1,0,-1
Unknown,Unknown,NULL,NULL,NULL,NULL,NULL,NULL,Unknown,2018-03-12 00:00:00.000,15,55732,2018-03-12 00:00:00.000,13:08:33.0000000,6.0.,0,0,Hydraulic,0,NULL,NULL,NULL,NULL,NULL,NULL,NULL,NULL,NULL,NULL,NULL,NULL,NULL,0,0,0,0,1165,HARGISZP,NULL,NULL,1590.25,507.2,69.27,17.32,0,0,0,22,7.01,2.88,18,16,12,8,5,2000,17,8,1557.5,751.9,474.45,55.4,21.54,18.47,0,0,0,0,0,0,0,0,0,0,0,0,0,0,0,0,0,0,0,0,0,0,0,0,0,0,0,0,0,13.85,0,0,0,22.09,21.27,0.5,0,0,0,0,0,0,0,0,-1,NULL,-1,NULL,-1,NULL,-1,NULL,-1,NULL,-1,NULL,8,8,6,0,0,0,8,0,0,0.51,12,0,0,0,0,0,0,0,0,-2,-1,-1,-1,-1,-1,-1,-1,-1,-1,-1,-1,-1,-1,-1,-1,-1,-1,-1,-1,-1,0,-1
Unknown,Unknown,NULL,NULL,NULL,NULL,NULL,NULL,Unknown,2018-03-12 00:00:00.000,16,55734,2018-03-12 00:00:00.000,13:16:15.0000000,6.0.,0,0,Hydraulic,0,NULL,NULL,NULL,NULL,NULL,NULL,NULL,NULL,NULL,NULL,NULL,NULL,NULL,0,0,0,0,1165,HARGISZP,NULL,NULL,235.84,168.99,40.41,1.92,1.92,0,0,28,9.98,2.97,15,14,9,6,3,800,10,6,225.06,188.29,158.2,29.24,4.62,1.54,0,0,0,0,0,0,0,0,0,0,0,0,0,0,0,1.54,1.54,0,0,28.11,28.11,0,0,0,0,0,0,0,0,0,0,0,0,0,0,0,0,0,0,0,0,0,0,0,-1,NULL,-1,NULL,-1,NULL,-1,NULL,-1,NULL,-1,NULL,5,6,4,0,0,0,6,0,0,0.14,10,0,0,0,0,0,0,0,0,-2,-1,-1,-1,-1,-1,-1,-1,-1,-1,-1,-1,-1,-1,-1,-1,-1,-1,-1,-1,-1,0,-1
Unknown,Unknown,NULL,NULL,NULL,NULL,NULL,NULL,Unknown,2018-03-12 00:00:00.000,17,55735,2018-03-12 00:00:00.000,13:24:52.0000000,6.0.,0,0,Hydraulic,0,NULL,NULL,NULL,NULL,NULL,NULL,NULL,NULL,NULL,NULL,NULL,NULL,NULL,0,0,0,0,1165,HARGISZP,NULL,NULL,3431.94,344.37,84.66,25.01,15.39,3.85,0,82,5.73,2.7,19,16,12,7,4,4400,17,9,3420.45,1153.02,332.88,72.66,25.34,23.66,3.38,1.69,0,0,0,0,0,0,5.07,5.07,0,0,31.24,30.78,0.66,3.38,3.38,3.38,0,82.06,69.73,12.32,0,0,0,0,0,0,0,13.52,5.07,0,0,26.72,24.25,1.98,0,0,0,0,0,0,0,8.45,-1,NULL,-1,NULL,-1,NULL,-1,NULL,-1,NULL,-1,NULL,9,7,6,5,0,0,9,0,0,0.68,NULL,0,0,0,0,0,0,0,0,-2,-1,-1,-1,-1,-1,-1,-1,-1,-1,-1,-1,-1,-1,-1,-1,-1,-1,-1,-1,-1,0,-1
Unknown,Unknown,NULL,NULL,NULL,NULL,NULL,NULL,Unknown,2018-03-12 00:00:00.000,18,55783,2018-03-12 00:00:00.000,13:32:42.0000000,6.0.,0,0,Hydraulic,0,NULL,NULL,NULL,NULL,NULL,NULL,NULL,NULL,NULL,NULL,NULL,NULL,NULL,0,0,0,0,1165,HARGISZP,NULL,NULL,13452.2,207.05,5.77,1.92,0,0,0,22,5.08,0.65,21,15,NULL,7,3,4400,17,11,13451.39,3609.51,206.24,18.57,0,0,0,0,0,0,0,0,0,0,0,0,0,0,0,0,0,1.86,0,0,0,22.09,22.09,0,0,0,0,0,0,0,0,0,0,0,0,0,0,0,0,0,0,0,0,0,0,5.57,-1,NULL,-1,NULL,-1,NULL,-1,NULL,-1,NULL,-1,NULL,11,7,0,0,0,0,11,0,0,1.35,17,0,0,0,0,0,0,0,0,-2,-1,-1,-1,-1,-1,-1,-1,-1,-1,-1,-1,-1,-1,-1,-1,-1,-1,-1,-1,-1,0,-1
Unknown,Unknown,NULL,NULL,NULL,NULL,NULL,NULL,Unknown,2018-03-12 00:00:00.000,19,55783,2018-03-12 00:00:00.000,13:39:32.0000000,6.0.,0,0,Hydraulic,0,NULL,NULL,NULL,NULL,NULL,NULL,NULL,NULL,NULL,NULL,NULL,NULL,NULL,0,0,0,0,1165,HARGISZP,NULL,NULL,4755.35,27.41,9.79,0,0,0,0,18,5.04,0.53,19,12,8,4,2,2000,17,10,4752.92,1206.96,24.98,16.06,1.78,0,0,0,0,0,0,0,0,0,0,0,0,0,0,0,0,0,0,0,0,0,0,0,0,0,0,0,0,0,0,0,0,0,0,0,0,0,0,0,0,0,0,0,0,12.49,-1,NULL,-1,NULL,-1,NULL,-1,NULL,-1,NULL,-1,NULL,10,4,2,0,0,0,10,0,0,0.49,NULL,0,0,0,0,0,0,0,0,-2,-1,-1,-1,-1,-1,-1,-1,-1,-1,-1,-1,-1,-1,-1,-1,-1,-1,-1,-1,-1,0,-1
Unknown,Unknown,NULL,NULL,NULL,NULL,NULL,NULL,Unknown,2018-03-12 00:00:00.000,20,55783,2018-03-12 00:00:00.000,13:46:19.0000000,6.0.,0,0,Hydraulic,0,NULL,NULL,NULL,NULL,NULL,NULL,NULL,NULL,NULL,NULL,NULL,NULL,NULL,0,0,0,0,1165,HARGISZP,NULL,NULL,1584.36,14.95,0,0,0,0,0,10,5.05,0.48,18,11,NULL,3,0,1300,12,8,1584.36,414.77,14.95,0,0,0,0,0,0,0,0,0,0,0,0,0,0,0,0,0,0,0,0,0,0,0,0,0,0,0,0,0,0,0,0,0,0,0,0,0,0,0,0,0,0,0,0,0,0,0,-1,NULL,-1,NULL,-1,NULL,-1,NULL,-1,NULL,-1,NULL,8,3,0,0,0,0,8,0,0,0.15,7,0,27.97,27.97,0,1.53,0,0,0,-2,-1,-1,-1,-1,-1,-1,-1,-1,-1,-1,-1,-1,-1,-1,-1,-1,-1,-1,-1,-1,0,-1
Unknown,Unknown,NULL,NULL,NULL,NULL,NULL,NULL,Unknown,2018-03-12 00:00:00.000,21,55783,2018-03-12 00:00:00.000,13:54:37.0000000,6.0.,0,0,Hydraulic,0,NULL,NULL,NULL,NULL,NULL,NULL,NULL,NULL,NULL,NULL,NULL,NULL,NULL,0,0,0,0,1165,HARGISZP,NULL,NULL,8903.57,79.18,12.25,4.08,0,0,0,23,5.05,0.61,20,13,9,5,2,4400,17,11,8902.83,2316.98,78.44,7.74,3.87,1.94,1.94,0,0,0,0,0,0,0,0,0,0,0,0,0,0,0,0,0,0,0,0,0,0,0,0,0,0,0,0,3.87,0,0,0,23.43,22.34,1.09,0,0,0,0,0,0,0,0,-1,NULL,-1,NULL,-1,NULL,-1,NULL,-1,NULL,-1,NULL,11,5,3,0,0,0,11,0,0,0.9,9,0,0,0,0,0,0,0,0,-2,-1,-1,-1,-1,-1,-1,-1,-1,-1,-1,-1,-1,-1,-1,-1,-1,-1,-1,-1,-1,0,-1
Unknown,Unknown,NULL,NULL,NULL,NULL,NULL,NULL,Unknown,2018-03-12 00:00:00.000,22,55790,2018-03-12 00:00:00.000,14:02:55.0000000,6.0.,0,0,Hydraulic,0,NULL,NULL,NULL,NULL,NULL,NULL,NULL,NULL,NULL,NULL,NULL,NULL,NULL,0,0,0,0,1165,HARGISZP,NULL,NULL,9907.34,297.11,14.04,4.01,4.01,0,0,39,5.16,0.97,20,15,9,7,4,4400,17,11,9905.9,2698.22,295.67,25.22,3.88,3.88,1.94,0,0,0,0,0,0,0,1.94,1.94,0,0,39.05,39.05,0,0,0,0,0,0,0,0,0,0,0,0,0,0,0,1.94,1.94,0,0,30.15,30.15,0.01,0,0,0,0,0,0,0,0,-1,NULL,-1,NULL,-1,NULL,-1,NULL,-1,NULL,-1,NULL,11,7,3,0,0,0,11,0,0,1.12,11,0,0,0,0,0,0,0,0,-2,-1,-1,-1,-1,-1,-1,-1,-1,-1,-1,-1,-1,-1,-1,-1,-1,-1,-1,-1,-1,0,-1
Unknown,Unknown,NULL,NULL,NULL,NULL,NULL,NULL,Unknown,2018-03-12 00:00:00.000,23,55791,2018-03-12 00:00:00.000,14:10:41.0000000,6.0.,0,0,Hydraulic,0,NULL,NULL,NULL,NULL,NULL,NULL,NULL,NULL,NULL,NULL,NULL,NULL,NULL,0,0,0,0,1165,HARGISZP,NULL,NULL,6687.32,50.34,13.47,3.85,0,0,0,21,5.05,0.64,20,13,NULL,5,2,2000,17,10,6685.9,1708.17,48.93,14.26,0,0,0,0,0,0,0,0,0,0,0,0,0,0,0,0,0,0,0,0,0,0,0,0,0,0,0,0,0,0,0,3.57,0,0,0,21.1,21.1,0,0,0,0,0,0,0,0,5.35,-1,NULL,-1,NULL,-1,NULL,-1,NULL,-1,NULL,-1,NULL,10,5,0,0,0,0,10,0,0,0.67,17,0,0,0,0,0,0,0,0,-2,-1,-1,-1,-1,-1,-1,-1,-1,-1,-1,-1,-1,-1,-1,-1,-1,-1,-1,-1,-1,0,-1
Unknown,Unknown,NULL,NULL,NULL,NULL,NULL,NULL,Unknown,2018-03-12 00:00:00.000,24,55791,2018-03-12 00:00:00.000,14:18:48.0000000,6.0.,0,0,Hydraulic,0,NULL,NULL,NULL,NULL,NULL,NULL,NULL,NULL,NULL,NULL,NULL,NULL,NULL,0,0,0,0,1165,HARGISZP,NULL,NULL,1778.59,11.55,1.92,1.92,0,0,0,20,5.05,0.6,18,11,8,2,1,1300,12,8,1777.13,451.85,10.09,6.73,1.68,1.68,0,0,0,0,0,0,0,0,0,0,0,0,0,0,0,0,0,0,0,0,0,0,0,0,0,0,0,0,0,1.68,0,0,0,20.37,20.37,0,0,0,0,0,0,0,0,0,-1,NULL,-1,NULL,-1,NULL,-1,NULL,-1,NULL,-1,NULL,8,2,2,0,0,0,8,0,0,0.19,7,0,42.22,31.34,3.81,12.05,1.1,0,0,-2,-1,-1,-1,-1,-1,-1,-1,-1,-1,-1,-1,-1,-1,-1,-1,-1,-1,-1,-1,-1,0,-1
Unknown,Unknown,NULL,NULL,NULL,NULL,NULL,NULL,Unknown,2018-03-12 00:00:00.000,25,55791,2018-03-12 00:00:00.000,14:27:17.0000000,6.0.,0,0,Hydraulic,0,NULL,NULL,NULL,NULL,NULL,NULL,NULL,NULL,NULL,NULL,NULL,NULL,NULL,0,0,0,0,1165,HARGISZP,NULL,NULL,8356.49,52.72,3.85,1.93,1.93,0,0,45,5.04,0.51,20,13,8,5,2,4400,17,11,8358.14,2130.31,54.37,3.67,1.83,0,0,0,0,0,0,0,0,0,1.83,1.83,0,0,45.4,45.4,0.01,0,0,0,0,0,0,0,0,0,0,0,0,0,0,1.83,0,0,0,21.16,21.16,0,0,0,0,0,0,0,0,9.17,-1,NULL,-1,NULL,-1,NULL,-1,NULL,-1,NULL,-1,NULL,11,5,2,0,0,0,11,0,0,0.82,NULL,0,0,0,0,0,0,0,0,-2,-1,-1,-1,-1,-1,-1,-1,-1,-1,-1,-1,-1,-1,-1,-1,-1,-1,-1,-1,-1,0,-1
Unknown,Unknown,NULL,NULL,NULL,NULL,NULL,NULL,Unknown,2018-03-12 00:00:00.000,26,55792,2018-03-12 00:00:00.000,14:34:22.0000000,6.0.,0,0,Hydraulic,0,NULL,NULL,NULL,NULL,NULL,NULL,NULL,NULL,NULL,NULL,NULL,NULL,NULL,0,0,0,0,1165,HARGISZP,NULL,NULL,6289.38,201.96,9.62,3.85,0,0,0,23,5.17,0.98,20,15,8,7,3,2000,17,10,6286.73,1759.22,199.32,12.38,1.77,1.77,0,0,0,0,0,0,0,0,1.77,0,0,0,23.3,23.3,0,0,0,0,0,0,0,0,0,0,0,0,0,0,0,0,0,0,0,0,0,0,3.54,0,0,0,22.74,21.56,1.19,5.31,-1,NULL,-1,NULL,-1,NULL,-1,NULL,-1,NULL,-1,NULL,10,7,2,0,0,0,10,0,0,0.69,17,0,0,0,0,0,0,0,0,-2,-1,-1,-1,-1,-1,-1,-1,-1,-1,-1,-1,-1,-1,-1,-1,-1,-1,-1,-1,-1,0,-1
Unknown,Unknown,NULL,NULL,NULL,NULL,NULL,NULL,Unknown,2018-03-12 00:00:00.000,27,55793,2018-03-12 00:00:00.000,14:41:38.0000000,6.0.,0,0,Hydraulic,0,NULL,NULL,NULL,NULL,NULL,NULL,NULL,NULL,NULL,NULL,NULL,NULL,NULL,0,0,0,0,1165,HARGISZP,NULL,NULL,8723.45,738.09,169.33,130.84,92.36,19.24,1.92,103,5.72,3.45,20,17,14,11,NULL,100000,17,11,8707.05,2790.19,721.69,165.51,122.33,111.54,84.55,70.16,37.78,17.99,5.4,1.8,0,0,21.59,12.59,0,0,33.6,26.46,3.53,3.6,3.6,0,0,35.5,30.35,5.15,43.18,30.58,12.59,0,78.74,39.88,17.88,48.57,35.98,5.4,1.8,103.21,34.28,17.04,5.4,3.6,0,0,47.45,32.74,10.56,0,-1,NULL,-1,NULL,-1,NULL,-1,NULL,-1,NULL,-1,NULL,11,8,8,10,11,10,11,0,0,5.43,15,0,0,0,0,0,0,0,0,-2,-1,-1,-1,-1,-1,-1,-1,-1,-1,-1,-1,-1,-1,-1,-1,-1,-1,-1,-1,-1,0,-1
Unknown,Unknown,NULL,NULL,NULL,NULL,NULL,NULL,Unknown,2018-03-14 00:00:00.000,0,TESTA,2018-03-14 00:00:00.000,12:45:44.0000000,6.0.,0,0,Hydraulic,0,NULL,NULL,NULL,NULL,NULL,NULL,NULL,NULL,NULL,NULL,NULL,NULL,NULL,0,0,0,0,1165,TYNANCS,NULL,NULL,3474.38,470.08,78.95,30.81,17.33,0,0,31,5.9,2.48,19,16,12,8,5,4400,17,9,3452.17,1311.04,447.86,78.65,39.33,23.6,1.57,1.57,0,0,0,0,0,0,1.57,1.57,0,0,25.95,25.95,0,14.16,7.87,0,0,27.4,25.3,1.6,6.29,3.15,0,0,27.31,24.11,2.89,4.72,3.15,0,0,31.34,26.78,3.44,0,0,0,0,0,0,0,23.6,-1,NULL,-1,NULL,-1,NULL,-1,NULL,-1,NULL,-1,NULL,9,8,7,5,0,0,9,0,0,0.67,NULL,0,0,0,0,0,0,0,0,-2,-1,-1,-1,-1,-1,-1,-1,-1,-1,-1,-1,-1,-1,-1,-1,-1,-1,-1,-1,-1,0,-1
Unknown,Unknown,NULL,NULL,NULL,NULL,NULL,NULL,Unknown,2018-03-14 00:00:00.000,1,TESTB,2018-03-14 00:00:00.000,13:33:26.0000000,6.0.,0,0,Hydraulic,0,NULL,NULL,NULL,NULL,NULL,NULL,NULL,NULL,NULL,NULL,NULL,NULL,NULL,0,0,0,0,1165,TYNANCS,NULL,NULL,4567.7,1119.92,215.59,142.45,113.57,23.1,0,76,6.93,4.73,19,17,14,10,NULL,100000,17,10,4526.58,2262.68,1078.81,235.38,135.93,117.69,59.67,49.73,21.55,11.6,0,0,0,0,21.55,21.55,9.95,0,74.14,46.42,17.77,31.5,23.21,1.66,0,53.21,29.99,7.86,18.23,6.63,0,0,32.83,24.78,3.98,53.04,48.07,8.29,0,76.09,37.02,15.25,0,0,0,0,0,0,0,6.63,-1,NULL,-1,NULL,-1,NULL,-1,NULL,-1,NULL,-1,NULL,10,9,8,10,10,0,10,0,0,3.08,NULL,0,0,0,0,0,0,0,0,-2,-1,-1,-1,-1,-1,-1,-1,-1,-1,-1,-1,-1,-1,-1,-1,-1,-1,-1,-1,-1,0,-1
Unknown,Unknown,NULL,NULL,NULL,NULL,NULL,NULL,Unknown,2018-03-14 00:00:00.000,2,TESTC,2018-03-14 00:00:00.000,13:43:24.0000000,6.0.,0,0,Hydraulic,0,NULL,NULL,NULL,NULL,NULL,NULL,NULL,NULL,NULL,NULL,NULL,NULL,NULL,0,0,0,0,1165,SALAZARJL,NULL,NULL,1261.21,338.62,25.01,23.09,23.09,0,0,36,6.7,3.26,17,16,11,8,5,100000,12,8,1246.19,674.58,323.59,50.78,18.47,18.47,18.47,18.47,18.47,0,0,0,0,0,0,0,0,0,0,0,0,0,0,0,0,0,0,0,0,0,0,0,0,0,0,18.47,18.47,0,0,36.72,34.92,1.31,0,0,0,0,0,0,0,0,-1,NULL,-1,NULL,-1,NULL,-1,NULL,-1,NULL,-1,NULL,8,7,6,8,0,0,8,0,0,0.59,12,0,0,0,0,0,0,0,0,-2,-1,-1,-1,-1,-1,-1,-1,-1,-1,-1,-1,-1,-1,-1,-1,-1,-1,-1,-1,-1,0,-1
Unknown,Unknown,NULL,NULL,NULL,NULL,NULL,NULL,Unknown,2018-03-15 00:00:00.000,0,TEST,2018-03-15 00:00:00.000,09:20:54.0000000,6.0.,0,0,Hydraulic,0,NULL,NULL,NULL,NULL,NULL,NULL,NULL,NULL,NULL,NULL,NULL,NULL,NULL,0,0,0,0,1165,TEALD,NULL,NULL,7006.63,3106.11,761.98,253.99,161.63,17.32,0,60,8.38,4.54,20,19,15,11,NULL,100000,17,10,6789.19,4273.95,2888.68,785.71,218.07,186,73.76,62.54,41.69,6.41,0,0,0,0,32.07,20.85,1.6,0,52.51,27.61,6.91,32.07,24.05,6.41,0,58.71,34.38,13.45,48.1,17.64,4.81,0,60.42,28.89,12.1,102.62,73.76,1.6,0,56.43,28.66,6.4,3.21,0,0,0,23.43,23.29,0.14,24.05,-1,NULL,-1,NULL,-1,NULL,-1,NULL,-1,NULL,-1,NULL,10,10,9,10,9,0,10,0,0,4.97,NULL,0,0,0,0,0,0,0,0,-2,-1,-1,-1,-1,-1,-1,-1,-1,-1,-1,-1,-1,-1,-1,-1,-1,-1,-1,-1,-1,0,-1
Unknown,Unknown,NULL,NULL,NULL,NULL,NULL,NULL,Unknown,2018-03-19 00:00:00.000,0,55790,2018-03-19 00:00:00.000,07:39:06.0000000,6.0.,0,0,Hydraulic,0,NULL,NULL,NULL,NULL,NULL,NULL,NULL,NULL,NULL,NULL,NULL,NULL,NULL,0,0,0,0,NULL,HARGISZP,NULL,NULL,9203.16,837.75,82.71,11.54,7.69,3.85,1.92,255,5.54,2.26,20,17,10,10,NULL,100000,17,11,9193.65,3097.16,828.24,106.38,8.87,8.87,7.09,5.32,3.55,1.77,1.77,1.77,1.77,0,0,0,0,0,0,0,0,0,0,0,0,0,0,0,0,0,0,0,0,0,0,8.87,5.32,1.77,0,52.69,32.02,11.94,3.55,1.77,1.77,1.77,303.42,162.33,141.08,1.77,-1,NULL,-1,NULL,-1,NULL,-1,NULL,-1,NULL,-1,NULL,11,9,5,6,7,10,11,0,0,1.61,16,0,0,0,0,0,0,0,0,0,-1,-1,-1,-1,-1,-1,-1,-1,-1,-1,-1,-1,-1,-1,-1,-1,-1,-1,-1,-1,0,-1
Unknown,Unknown,NULL,NULL,NULL,NULL,NULL,NULL,Unknown,2018-03-19 00:00:00.000,1,55790,2018-03-19 00:00:00.000,07:53:37.0000000,6.0.,0,0,Hydraulic,0,NULL,NULL,NULL,NULL,NULL,NULL,NULL,NULL,NULL,NULL,NULL,NULL,NULL,0,0,0,0,1165,HARGISZP,NULL,NULL,3193.56,840.28,15.39,13.47,1.92,0,0,27,6.4,2.35,19,17,11,9,5,2000,17,9,3176.6,1552.04,823.32,40.01,10.77,10.77,1.54,0,0,0,0,0,0,0,0,0,0,0,0,0,0,0,0,0,0,0,0,0,0,0,0,0,0,0,0,10.77,1.54,0,0,27.62,23.78,1.63,0,0,0,0,0,0,0,0,-1,NULL,-1,NULL,-1,NULL,-1,NULL,-1,NULL,-1,NULL,9,9,5,0,0,0,9,0,0,0.68,12,0,0,0,0,0,0,0,0,-2,-1,-1,-1,-1,-1,-1,-1,-1,-1,-1,-1,-1,-1,-1,-1,-1,-1,-1,-1,-1,0,-1
Unknown,Unknown,NULL,NULL,NULL,NULL,NULL,NULL,Unknown,2018-03-22 00:00:00.000,0,TEST,2018-03-22 00:00:00.000,08:59:25.0000000,6.0.,0,0,Hydraulic,0,NULL,NULL,NULL,NULL,NULL,NULL,NULL,NULL,NULL,NULL,NULL,NULL,NULL,0,0,0,0,1165,NULL,NULL,NULL,5218.23,1495.17,92.36,23.09,9.62,1.92,0,69,6.65,2.65,20,18,12,10,NULL,4400,17,10,5148.96,2597.73,1425.9,118.53,21.55,15.39,6.16,6.16,4.62,0,0,0,0,0,1.54,0,0,0,24.33,24.33,0.01,4.62,1.54,0,0,25.43,22.55,2.04,6.16,0,0,0,24.33,22.45,1.33,4.62,4.62,0,0,34.31,33.45,0.63,1.54,1.54,1.54,0,69.56,69.56,0.01,0,-1,NULL,-1,NULL,-1,NULL,-1,NULL,-1,NULL,-1,NULL,10,9,6,7,0,0,10,0,0,1.34,12,0,0,0,0,0,0,0,0,-3,-1,-1,-1,-1,-1,-1,-1,-1,-1,-1,-1,-1,-1,-1,-1,-1,-1,-1,-1,-1,0,-1
Unknown,Unknown,NULL,NULL,NULL,NULL,NULL,NULL,Unknown,2018-03-22 00:00:00.000,1,TEST1,2018-03-22 00:00:00.000,09:43:22.0000000,6.0.,0,0,Hydraulic,0,NULL,NULL,NULL,NULL,NULL,NULL,NULL,NULL,NULL,NULL,NULL,NULL,NULL,0,0,0,0,1165,NULL,NULL,NULL,1019.59,457.11,130.84,80.82,57.73,1.92,0,82,8.9,5.4,17,16,13,9,5,100000,12,9,986.49,638.29,424.01,116.99,63.11,60.03,30.79,27.71,13.85,0,0,0,0,0,6.16,3.08,0,0,31.66,25.44,4.43,6.16,6.16,1.54,0,82.06,43.53,22.69,15.39,7.7,0,0,36.21,26.26,5.59,33.87,26.17,0,0,46.6,31.88,7.02,3.08,3.08,0,0,26.6,26.01,0.58,0,-1,NULL,-1,NULL,-1,NULL,-1,NULL,-1,NULL,-1,NULL,7,8,7,9,0,0,9,0,0,1.03,12,0,29.8,29.8,0,0.46,0,0,0,-2,-1,-1,-1,-1,-1,-1,-1,-1,-1,-1,-1,-1,-1,-1,-1,-1,-1,-1,-1,-1,0,-1
Unknown,Unknown,NULL,NULL,NULL,NULL,NULL,NULL,Unknown,2018-03-22 00:00:00.000,2,TEST2,2018-03-22 00:00:00.000,12:07:28.0000000,6.2.,0,0,Hydraulic,0,NULL,NULL,NULL,NULL,NULL,NULL,NULL,NULL,NULL,NULL,NULL,NULL,NULL,0,0,0,0,1165,NULL,NULL,NULL,2954,319.93,129.08,65.5,46.24,5.78,0,82,6.07,3.66,19,15,13,8,5,100000,17,9,2918.86,956.68,284.79,118.61,58.53,52.37,24.65,20.02,13.86,3.08,0,0,0,0,9.24,6.16,0,0,31.66,26.09,4.06,7.7,6.16,0,0,38.07,30.23,6.95,9.24,6.16,0,0,34.4,27.19,3.65,29.27,18.48,4.62,0,82.55,36.6,16.64,21.56,3.08,0,0,27.67,22.86,2.33,30.81,-1,NULL,-1,NULL,-1,NULL,-1,NULL,-1,NULL,-1,NULL,9,7,7,8,8,0,9,0,0,1.1,NULL,0,34.52,30.38,3.84,1.13,0,0,0,2,-1,-1,-1,-1,-1,-1,-1,-1,-1,-1,-1,-1,-1,-1,-1,-1,-1,-1,-1,-1,0,-1
Unknown,Unknown,NULL,NULL,NULL,NULL,NULL,NULL,Unknown,2018-03-26 00:00:00.000,0,TEST,2018-03-26 00:00:00.000,12:22:18.0000000,6.2.,0,0,Hydraulic,0,NULL,NULL,NULL,NULL,NULL,NULL,NULL,NULL,NULL,NULL,NULL,NULL,NULL,0,0,0,0,1165,SALAZARJL,NULL,NULL,33501.79,17055.55,5028.5,1761.71,949.36,109.99,69.47,255,9.33,6.18,22,21,18,12,NULL,NULL,17,NULL,31925.09,21997.18,15478.85,4788.87,2364.36,1853.85,647.77,504.33,160.4,77.12,60.15,47.81,27.76,9.91,212.84,131.1,0,0,34.31,26.22,3.26,81.74,40.1,12.34,4.63,209.7,37.84,34.77,508.96,260.65,33.93,23.13,188.01,31.11,25.2,538.27,272.99,9.25,0,82.85,25.92,6.14,81.74,55.52,32.39,27.76,703.22,120.91,152.53,46.27,-1,NULL,-1,NULL,-1,NULL,-1,NULL,-1,NULL,-1,NULL,12,NULL,NULL,NULL,NULL,NULL,NULL,0,0,41.21,NULL,0,43.46,41.05,2.56,0.4,0.3,0,0,2,-1,-1,-1,-1,-1,-1,-1,-1,-1,-1,-1,-1,-1,-1,-1,-1,-1,-1,-1,-1,0,-1
Unknown,Unknown,NULL,NULL,NULL,NULL,NULL,NULL,Unknown,2018-03-26 00:00:00.000,1,55819,2018-03-26 00:00:00.000,12:35:24.0000000,6.2.,0,0,Hydraulic,0,NULL,NULL,NULL,NULL,NULL,NULL,NULL,NULL,NULL,NULL,NULL,NULL,NULL,0,0,0,0,1165,SALAZARJL,NULL,NULL,6835.7,605.25,76.97,21.17,15.39,0,0,34,5.54,1.87,20,16,12,8,5,4400,17,10,6818.12,2302.62,587.67,107.83,26.09,19.13,6.96,5.22,0,0,0,0,0,0,8.7,6.96,0,0,34.4,28.07,4.72,0,0,0,0,0,0,0,3.48,3.48,0,0,26.72,25.91,0.8,6.96,3.48,0,0,26.72,24.26,2.18,0,0,0,0,0,0,0,0,-1,NULL,-1,NULL,-1,NULL,-1,NULL,-1,NULL,-1,NULL,10,8,6,6,0,0,10,0,0,0.87,12,0,0,0,0,0,0,0,0,2,-1,-1,-1,-1,-1,-1,-1,-1,-1,-1,-1,-1,-1,-1,-1,-1,-1,-1,-1,-1,0,-1
Unknown,Unknown,NULL,NULL,NULL,NULL,NULL,NULL,Unknown,2018-03-26 00:00:00.000,2,55829,2018-03-26 00:00:00.000,12:50:38.0000000,6.2.,0,0,Hydraulic,0,NULL,NULL,NULL,NULL,NULL,NULL,NULL,NULL,NULL,NULL,NULL,NULL,NULL,0,0,0,0,1165,SALAZARJL,NULL,NULL,866.82,275.66,67.35,17.32,5.77,0,0,42,7.35,3.41,17,15,12,7,4,2000,15,7,838.41,435.35,247.26,84.72,21.56,12.32,6.16,3.08,1.54,0,0,0,0,0,3.08,0,0,0,23.95,23.69,0.26,0,0,0,0,0,0,0,1.54,1.54,0,0,25.43,25.43,0,7.7,3.08,0,0,42.21,27.67,7.83,1.54,0,0,0,20.37,20.37,0,1.54,-1,NULL,-1,NULL,-1,NULL,-1,NULL,-1,NULL,-1,NULL,7,7,6,6,0,0,7,0,0,0.31,15,0,0,0,0,0,0,0,0,2,-1,-1,-1,-1,-1,-1,-1,-1,-1,-1,-1,-1,-1,-1,-1,-1,-1,-1,-1,-1,0,-1
Unknown,Unknown,NULL,NULL,NULL,NULL,NULL,NULL,Unknown,2018-03-26 00:00:00.000,3,55819,2018-03-26 00:00:00.000,12:59:41.0000000,6.2.,0,0,Hydraulic,0,NULL,NULL,NULL,NULL,NULL,NULL,NULL,NULL,NULL,NULL,NULL,NULL,NULL,0,0,0,0,1165,TYNANCS,NULL,NULL,394.67,127.25,28.86,15.39,9.62,5.77,0,61,7.85,6.23,16,14,10,7,3,2000,16,7,385.04,197.85,117.62,29.24,6.16,6.16,6.16,6.16,4.62,0,0,0,0,0,0,0,0,0,0,0,0,1.54,0,0,0,20.62,20.62,0,0,0,0,0,0,0,0,10.77,7.69,4.62,0,61,40.4,15.73,0,0,0,0,0,0,0,3.08,-1,NULL,-1,NULL,-1,NULL,-1,NULL,-1,NULL,-1,NULL,6,6,4,7,0,0,7,0,0,0.19,16,0,0,0,0,0,0,0,0,-2,-1,-1,-1,-1,-1,-1,-1,-1,-1,-1,-1,-1,-1,-1,-1,-1,-1,-1,-1,-1,0,-1
Unknown,Unknown,NULL,NULL,NULL,NULL,NULL,NULL,Unknown,2018-03-26 00:00:00.000,4,55819,2018-03-26 00:00:00.000,13:05:29.0000000,6.2.,0,0,Hydraulic,0,NULL,NULL,NULL,NULL,NULL,NULL,NULL,NULL,NULL,NULL,NULL,NULL,NULL,0,0,0,0,1165,TYNANCS,NULL,NULL,1278.42,224.4,21.17,5.77,3.85,0,0,35,6.02,2.37,17,15,10,7,3,2000,12,8,1273.3,529.28,219.27,18.99,7.91,7.91,3.16,3.16,3.16,0,0,0,0,0,0,0,0,0,0,0,0,0,0,0,0,0,0,0,0,0,0,0,0,0,0,4.75,3.16,0,0,35.37,29.97,5.01,0,0,0,0,0,0,0,0,-1,NULL,-1,NULL,-1,NULL,-1,NULL,-1,NULL,-1,NULL,8,7,4,6,0,0,8,0,0,0.24,11,0,0,0,0,0,0,0,0,2,-1,-1,-1,-1,-1,-1,-1,-1,-1,-1,-1,-1,-1,-1,-1,-1,-1,-1,-1,-1,0,-1
Unknown,Unknown,NULL,NULL,NULL,NULL,NULL,NULL,Unknown,2018-03-26 00:00:00.000,5,55793,2018-03-26 00:00:00.000,13:14:46.0000000,6.2.,0,0,Hydraulic,0,NULL,NULL,NULL,NULL,NULL,NULL,NULL,NULL,NULL,NULL,NULL,NULL,NULL,0,0,0,0,1165,SALAZARJL,NULL,NULL,911.78,229.86,82.77,40.42,19.25,3.85,0,70,7.35,4.88,17,15,12,8,4,4400,12,8,886.33,408.32,204.41,73.89,35.4,29.25,13.85,12.31,7.7,1.54,0,0,0,0,3.08,0,0,0,24.7,23.4,1.3,1.54,0,0,0,20.37,20.37,0,6.16,4.62,0,0,39.14,30.32,6.57,20.01,9.24,1.54,0,52.34,27.38,7.98,1.54,1.54,1.54,0,70.77,70.77,0.01,0,-1,NULL,-1,NULL,-1,NULL,-1,NULL,-1,NULL,-1,NULL,7,7,7,8,7,0,8,0,0,0.57,11,0,0,0,0,0,0,0,0,2,-1,-1,-1,-1,-1,-1,-1,-1,-1,-1,-1,-1,-1,-1,-1,-1,-1,-1,-1,-1,0,-1
Unknown,Unknown,NULL,NULL,NULL,NULL,NULL,NULL,Unknown,2018-03-26 00:00:00.000,6,55793,2018-03-26 00:00:00.000,13:21:30.0000000,6.2.,0,0,Hydraulic,0,NULL,NULL,NULL,NULL,NULL,NULL,NULL,NULL,NULL,NULL,NULL,NULL,NULL,0,0,0,0,1165,TYNANCS,NULL,NULL,1574.69,408.11,117.38,59.65,36.56,3.85,0,55,7.17,4.49,18,16,13,8,5,6300,16,8,1544.86,720.97,378.29,101.72,45.38,43.82,17.21,17.21,12.52,3.13,0,0,0,0,9.39,4.69,0,0,36.72,26.7,5.33,4.69,3.13,0,0,33.51,27.12,5.02,3.13,3.13,0,0,29.72,27.93,1.79,31.3,18.78,3.13,0,56,32.02,11.24,0,0,0,0,0,0,0,3.13,-1,NULL,-1,NULL,-1,NULL,-1,NULL,-1,NULL,-1,NULL,8,7,7,8,8,0,8,0,0,0.89,16,0,0,0,0,0,0,0,0,2,-1,-1,-1,-1,-1,-1,-1,-1,-1,-1,-1,-1,-1,-1,-1,-1,-1,-1,-1,-1,0,-1
Unknown,Unknown,NULL,NULL,NULL,NULL,NULL,NULL,Unknown,2018-03-26 00:00:00.000,7,55793,2018-03-26 00:00:00.000,14:10:27.0000000,6.2.,0,0,Hydraulic,0,NULL,NULL,NULL,NULL,NULL,NULL,NULL,NULL,NULL,NULL,NULL,NULL,NULL,0,0,0,0,1165,TYNANCS,NULL,NULL,1021.66,219.4,98.13,40.41,15.39,0,0,48,7.03,3.98,17,15,12,8,4,4400,12,7,991.6,403.28,189.34,87.71,36.93,27.7,12.31,10.77,7.69,0,0,0,0,0,6.16,0,0,0,23.3,21.76,0.89,1.54,1.54,0,0,26.72,26.72,0,4.62,3.08,0,0,43.92,31.88,9.36,18.47,7.69,0,0,48.23,28.92,9.45,1.54,0,0,0,23.3,23.3,0,0,-1,NULL,-1,NULL,-1,NULL,-1,NULL,-1,NULL,-1,NULL,7,6,7,7,0,0,7,0,0,0.52,11,0,0,0,0,0,0,0,0,2,-1,-1,-1,-1,-1,-1,-1,-1,-1,-1,-1,-1,-1,-1,-1,-1,-1,-1,-1,-1,0,-1
Unknown,Unknown,NULL,NULL,NULL,NULL,NULL,NULL,Unknown,2018-03-26 00:00:00.000,8,55820,2018-03-26 00:00:00.000,14:18:47.0000000,6.2.,0,0,Hydraulic,0,NULL,NULL,NULL,NULL,NULL,NULL,NULL,NULL,NULL,NULL,NULL,NULL,NULL,0,0,0,0,1165,TYNANCS,NULL,NULL,1998.79,1891.82,1818.35,1235.33,442.56,57.73,0,89,23.49,5.97,18,18,14,10,NULL,100000,17,10,1633.88,1573.71,1526.92,926.39,144.65,103.1,80.02,56.94,41.55,0,0,0,0,0,53.86,53.86,0,0,31.66,26.67,1.8,49.24,0,0,0,21.25,21.25,0.01,0,0,0,0,0,0,0,343.16,297,44.63,0,55.49,31.67,9.8,618.62,3.08,1.54,0,89.2,23.43,3.72,520.13,-1,NULL,-1,NULL,-1,NULL,-1,NULL,-1,NULL,-1,NULL,8,9,9,10,0,0,10,0,0,2.51,NULL,0,0,0,0,0,0,0,0,1,-1,-1,-1,-1,-1,-1,-1,-1,-1,-1,-1,-1,-1,-1,-1,-1,-1,-1,-1,-1,0,-1
Unknown,Unknown,NULL,NULL,NULL,NULL,NULL,NULL,Unknown,2018-03-26 00:00:00.000,9,55820,2018-03-26 00:00:00.000,14:25:08.0000000,6.2.,0,0,Hydraulic,0,NULL,NULL,NULL,NULL,NULL,NULL,NULL,NULL,NULL,NULL,NULL,NULL,NULL,0,0,0,0,1165,TYNANCS,NULL,NULL,254.84,53.95,9.62,7.7,5.77,0,0,36,6.6,3.63,15,13,10,5,1,800,10,6,251.38,114.1,50.49,9.24,6.16,6.16,1.54,1.54,1.54,0,0,0,0,0,0,0,0,0,0,0,0,3.08,3.08,0,0,27.62,26.7,0.91,1.54,0,0,0,24.33,24.33,0.01,1.54,1.54,0,0,36.21,36.21,0.01,1.54,0,0,0,24.82,24.82,0.01,0,-1,NULL,-1,NULL,-1,NULL,-1,NULL,-1,NULL,-1,NULL,6,5,4,5,0,0,6,0,0,0.08,9,0,0,0,0,0,0,0,0,2,-1,-1,-1,-1,-1,-1,-1,-1,-1,-1,-1,-1,-1,-1,-1,-1,-1,-1,-1,-1,0,-1
Unknown,Unknown,NULL,NULL,NULL,NULL,NULL,NULL,Unknown,2018-03-26 00:00:00.000,10,55820,2018-03-26 00:00:00.000,14:31:45.0000000,6.2.,0,0,Hydraulic,0,NULL,NULL,NULL,NULL,NULL,NULL,NULL,NULL,NULL,NULL,NULL,NULL,NULL,0,0,0,0,1165,TYNANCS,NULL,NULL,161.62,27.91,3.85,1.92,1.92,0,0,25,6.19,2.83,14,12,8,4,0,400,9,5,159.31,59.03,25.6,4.62,1.54,1.54,0,0,0,0,0,0,0,0,0,0,0,0,0,0,0,1.54,1.54,0,0,25.79,25.79,0,0,0,0,0,0,0,0,0,0,0,0,0,0,0,0,0,0,0,0,0,0,0,-1,NULL,-1,NULL,-1,NULL,-1,NULL,-1,NULL,-1,NULL,5,4,2,0,0,0,5,0,0,0.03,8,0,0,0,0,0,0,0,0,2,-1,-1,-1,-1,-1,-1,-1,-1,-1,-1,-1,-1,-1,-1,-1,-1,-1,-1,-1,-1,0,-1
Unknown,Unknown,NULL,NULL,NULL,NULL,NULL,NULL,Unknown,2018-03-26 00:00:00.000,11,55820,2018-03-26 00:00:00.000,14:37:44.0000000,6.2.,0,0,Hydraulic,0,NULL,NULL,NULL,NULL,NULL,NULL,NULL,NULL,NULL,NULL,NULL,NULL,NULL,0,0,0,0,1165,TYNANCS,NULL,NULL,111.23,44.37,17.32,5.77,1.92,0,0,39,8.44,4.42,14,13,9,5,1,800,9,5,106.99,63.53,40.13,13.85,3.08,3.08,3.08,1.54,1.54,0,0,0,0,0,1.54,0,0,0,21.1,21.1,0,0,0,0,0,0,0,0,1.54,1.54,0,0,39.14,39.14,0,1.54,0,0,0,24.33,24.33,0.01,0,0,0,0,0,0,0,0,-1,NULL,-1,NULL,-1,NULL,-1,NULL,-1,NULL,-1,NULL,4,4,3,5,0,0,5,0,0,0.08,8,0,0,0,0,0,0,0,0,2,-1,-1,-1,-1,-1,-1,-1,-1,-1,-1,-1,-1,-1,-1,-1,-1,-1,-1,-1,-1,0,-1
Unknown,Unknown,NULL,NULL,NULL,NULL,NULL,NULL,Unknown,2018-03-27 00:00:00.000,0,55660,2018-03-27 00:00:00.000,09:39:14.0000000,6.2.,0,0,Hydraulic,0,NULL,NULL,NULL,NULL,NULL,NULL,NULL,NULL,NULL,NULL,NULL,NULL,NULL,0,0,0,0,1165,REESESA,NULL,NULL,68045.56,6860.21,348.42,105.87,57.75,3.85,0,59,5.56,1.73,23,20,14,12,NULL,100000,17,NULL,67893.62,23903.27,6708.26,401.77,90.82,72.35,26.17,23.09,13.85,0,0,0,0,0,21.55,18.47,1.54,0,57.12,32.18,8.74,10.78,4.62,1.54,0,59.38,29.52,12.68,26.17,13.85,0,0,46.6,28.52,7.99,27.71,10.78,0,0,43.92,27.92,8.03,0,0,0,0,0,0,0,4.62,-1,NULL,-1,NULL,-1,NULL,-1,NULL,-1,NULL,-1,NULL,NULL,12,8,8,0,0,NULL,0,0,7.51,17,58.27,77.89,35.23,12.84,7.6,1.9,0.76,0,2,-1,-1,-1,-1,-1,-1,-1,-1,-1,-1,-1,-1,-1,-1,-1,-1,-1,-1,-1,-1,0,-1
Unknown,Unknown,NULL,NULL,NULL,NULL,NULL,NULL,Unknown,2018-04-02 00:00:00.000,0,55868,2018-04-02 00:00:00.000,13:43:03.0000000,6.2.,0,0,Hydraulic,0,NULL,NULL,NULL,NULL,NULL,NULL,NULL,NULL,NULL,NULL,NULL,NULL,NULL,0,0,0,0,1165,TEALD,NULL,NULL,39085.94,25.01,11.55,3.85,3.85,0,0,33,5.01,0.26,22,12,10,6,3,15000,17,NULL,39085.91,9790.22,24.98,19.22,5.77,5.77,3.84,3.84,1.92,0,0,0,0,0,0,0,0,0,0,0,0,0,0,0,0,0,0,0,3.84,3.84,0,0,33.23,29.97,3.26,0,0,0,0,0,0,0,0,0,0,0,0,0,0,0,-1,NULL,-1,NULL,-1,NULL,-1,NULL,-1,NULL,-1,NULL,NULL,4,4,6,0,0,NULL,0,0,3.01,9,0,0,0,0,0,0,0,0,-2113658336,-1,-1,-1,-1,-1,-1,-1,-1,-1,-1,-1,-1,-1,-1,-1,-1,-1,-1,-1,-1,0,-1
Unknown,Unknown,NULL,NULL,NULL,NULL,NULL,NULL,Unknown,2018-04-03 00:00:00.000,0,TEST,2018-04-03 00:00:00.000,10:27:07.0000000,6.2.,0,0,Hydraulic,0,NULL,NULL,NULL,NULL,NULL,NULL,NULL,NULL,NULL,NULL,NULL,NULL,NULL,0,0,0,0,1165,TEALD,NULL,NULL,318.18,63.73,7.7,3.85,3.85,1.92,0,50,6.46,4.25,15,13,9,7,4,2000,16,7,314.72,137.27,60.27,7.7,3.08,3.08,3.08,3.08,3.08,1.54,0,0,0,0,0,0,0,0,0,0,0,0,0,0,0,0,0,0,0,0,0,0,0,0,0,3.08,3.08,1.54,0,50.87,50.1,0.77,0,0,0,0,0,0,0,3.08,-1,NULL,-1,NULL,-1,NULL,-1,NULL,-1,NULL,-1,NULL,6,5,3,6,7,0,7,0,0,0.21,16,0,0,0,0,0,0,0,0,2,-1,-1,-1,-1,-1,-1,-1,-1,-1,-1,-1,-1,-1,-1,-1,-1,-1,-1,-1,-1,0,-1
Unknown,Unknown,NULL,NULL,NULL,NULL,NULL,NULL,Unknown,2018-04-03 00:00:00.000,1,55868,2018-04-03 00:00:00.000,10:36:09.0000000,6.2.,0,0,Hydraulic,0,NULL,NULL,NULL,NULL,NULL,NULL,NULL,NULL,NULL,NULL,NULL,NULL,NULL,0,0,0,0,1165,TEALD,NULL,NULL,234.25,33.69,9.62,3.85,3.85,1.92,0,67,6.39,4.8,15,12,9,5,1,400,16,5,230.78,80.36,30.22,12.31,4.62,3.08,1.54,1.54,0,0,0,0,0,0,3.08,3.08,1.54,0,67.96,50.78,17.18,0,0,0,0,0,0,0,0,0,0,0,0,0,0,0,0,0,0,0,0,0,0,0,0,0,0,0,0,3.08,-1,NULL,-1,NULL,-1,NULL,-1,NULL,-1,NULL,-1,NULL,5,4,4,5,0,0,5,0,0,0.06,16,0,0,0,0,0,0,0,0,2,-1,-1,-1,-1,-1,-1,-1,-1,-1,-1,-1,-1,-1,-1,-1,-1,-1,-1,-1,-1,0,-1
Unknown,Unknown,NULL,NULL,NULL,NULL,NULL,NULL,Unknown,2018-04-04 00:00:00.000,0,55904,2018-04-04 00:00:00.000,11:34:29.0000000,6.2.,0,0,Hydraulic,0,NULL,NULL,NULL,NULL,NULL,NULL,NULL,NULL,NULL,NULL,NULL,NULL,NULL,0,0,0,0,1165,NULL,NULL,NULL,3880.66,63.29,40.41,23.09,19.24,1.92,0,52,5.21,1.88,19,13,12,7,4,4400,17,9,3876.63,1013.6,59.26,42.15,22.83,19.32,8.78,8.78,7.03,0,0,0,0,0,3.51,1.76,1.76,0,52.8,38.56,14.24,7.03,5.27,0,0,41.11,31.6,6.7,1.76,1.76,0,0,34.99,34.99,0.01,8.78,8.78,0,0,35.96,31.34,3.69,0,0,0,0,0,0,0,0,-1,NULL,-1,NULL,-1,NULL,-1,NULL,-1,NULL,-1,NULL,9,5,6,7,0,0,9,0,0,0.52,11,0,0,0,0,0,0,0,0,2,-1,-1,-1,-1,-1,-1,-1,-1,-1,-1,-1,-1,-1,-1,-1,-1,-1,-1,-1,-1,0,-1
Unknown,Unknown,NULL,NULL,NULL,NULL,NULL,NULL,Unknown,2018-04-05 00:00:00.000,0,55911,2018-04-05 00:00:00.000,12:13:36.0000000,6.2.,0,0,Hydraulic,0,NULL,NULL,NULL,NULL,NULL,NULL,NULL,NULL,NULL,NULL,NULL,NULL,NULL,0,0,0,0,1165,TEALD,NULL,NULL,4199.38,384.13,15.4,3.85,1.92,0,0,25,5.49,1.58,19,16,10,8,5,2000,17,10,4197.4,1491.69,382.15,17.72,5.32,5.32,0,0,0,0,0,0,0,0,0,0,0,0,0,0,0,0,0,0,0,0,0,0,1.77,1.77,0,0,25.79,25.79,0,1.77,0,0,0,24.33,24.33,0.01,0,0,0,0,0,0,0,0,-1,NULL,-1,NULL,-1,NULL,-1,NULL,-1,NULL,-1,NULL,10,7,4,0,0,0,10,0,0,0.42,12,0,0,0,0,0,0,0,0,-2113658336,-1,-1,-1,-1,-1,-1,-1,-1,-1,-1,-1,-1,-1,-1,-1,-1,-1,-1,-1,-1,0,-1
Unknown,Unknown,NULL,NULL,NULL,NULL,NULL,NULL,Unknown,2018-04-05 00:00:00.000,1,55911,2018-04-05 00:00:00.000,12:20:46.0000000,6.2.,0,0,Hydraulic,0,NULL,NULL,NULL,NULL,NULL,NULL,NULL,NULL,NULL,NULL,NULL,NULL,NULL,0,0,0,0,1165,TEALD,NULL,NULL,9188.69,17.32,9.62,3.85,3.85,0,0,30,5.02,0.49,20,11,9,5,1,4400,17,11,9186.32,2307.79,14.94,9.96,3.32,3.32,1.66,1.66,0,0,0,0,0,0,0,0,0,0,0,0,0,0,0,0,0,0,0,0,3.32,3.32,0,0,30.55,29.36,1.19,0,0,0,0,0,0,0,0,0,0,0,0,0,0,8.3,-1,NULL,-1,NULL,-1,NULL,-1,NULL,-1,NULL,-1,NULL,11,3,3,5,0,0,11,0,0,0.72,NULL,0,0,0,0,0,0,0,0,-2113658336,-1,-1,-1,-1,-1,-1,-1,-1,-1,-1,-1,-1,-1,-1,-1,-1,-1,-1,-1,-1,0,-1
Unknown,Unknown,NULL,NULL,NULL,NULL,NULL,NULL,Unknown,2018-04-05 00:00:00.000,2,55911,2018-04-05 00:00:00.000,12:32:20.0000000,6.2.,0,0,Hydraulic,0,NULL,NULL,NULL,NULL,NULL,NULL,NULL,NULL,NULL,NULL,NULL,NULL,NULL,0,0,0,0,1165,TEALD,NULL,NULL,19266.46,366.01,1.92,1.92,0,0,0,22,5.1,0.7,21,16,NULL,8,5,6300,17,12,19266.11,5180.78,365.66,1.86,0,0,0,0,0,0,0,0,0,0,1.86,0,0,0,22.09,22.09,0,0,0,0,0,0,0,0,0,0,0,0,0,0,0,0,0,0,0,0,0,0,0,0,0,0,0,0,0,0,-1,NULL,-1,NULL,-1,NULL,-1,NULL,-1,NULL,-1,NULL,12,7,0,0,0,0,12,0,0,1.53,12,0,0,0,0,0,0,0,0,-2113658336,-1,-1,-1,-1,-1,-1,-1,-1,-1,-1,-1,-1,-1,-1,-1,-1,-1,-1,-1,-1,0,-1
Unknown,Unknown,NULL,NULL,NULL,NULL,NULL,NULL,Unknown,2018-04-05 00:00:00.000,3,TEST,2018-04-05 00:00:00.000,12:38:28.0000000,6.2.,0,0,Hydraulic,0,NULL,NULL,NULL,NULL,NULL,NULL,NULL,NULL,NULL,NULL,NULL,NULL,NULL,0,0,0,0,1165,TEALD,NULL,NULL,196.37,49.29,15.39,5.77,1.92,1.92,1.92,104,7.76,9.81,15,13,9,10,NULL,6300,11,10,191.75,81.44,44.67,16.93,4.62,4.62,1.54,1.54,1.54,1.54,1.54,1.54,0,0,0,0,0,0,0,0,0,1.54,0,0,0,24.33,24.33,0.01,3.08,1.54,1.54,1.54,104.79,62.95,41.84,0,0,0,0,0,0,0,0,0,0,0,0,0,0,0,-1,NULL,-1,NULL,-1,NULL,-1,NULL,-1,NULL,-1,NULL,5,4,4,5,7,10,10,0,0,0.64,13,0,0,0,0,0,0,0,0,-2113658336,-1,-1,-1,-1,-1,-1,-1,-1,-1,-1,-1,-1,-1,-1,-1,-1,-1,-1,-1,-1,0,-1
Unknown,Unknown,NULL,NULL,NULL,NULL,NULL,NULL,Unknown,2018-04-05 00:00:00.000,4,TEST,2018-04-05 00:00:00.000,12:45:28.0000000,6.2.,0,0,Hydraulic,0,NULL,NULL,NULL,NULL,NULL,NULL,NULL,NULL,NULL,NULL,NULL,NULL,NULL,0,0,0,0,1165,TEALD,NULL,NULL,225.64,38.6,5.77,3.85,3.85,0,0,28,6.21,3.12,15,12,9,4,1,400,10,5,223.6,91.11,36.56,7.92,3.17,3.17,0,0,0,0,0,0,0,0,3.17,3.17,0,0,28.16,27.38,0.78,0,0,0,0,0,0,0,0,0,0,0,0,0,0,0,0,0,0,0,0,0,0,0,0,0,0,0,0,0,-1,NULL,-1,NULL,-1,NULL,-1,NULL,-1,NULL,-1,NULL,5,4,3,0,0,0,5,0,0,0.04,8,0,0,0,0,0,0,0,0,-2113658336,-1,-1,-1,-1,-1,-1,-1,-1,-1,-1,-1,-1,-1,-1,-1,-1,-1,-1,-1,-1,0,-1
Unknown,Unknown,NULL,NULL,NULL,NULL,NULL,NULL,Unknown,2018-04-05 00:00:00.000,5,55911,2018-04-05 00:00:00.000,13:04:56.0000000,6.2.,0,0,Hydraulic,0,NULL,NULL,NULL,NULL,NULL,NULL,NULL,NULL,NULL,NULL,NULL,NULL,NULL,0,0,0,0,1165,TEALD,NULL,NULL,7531.74,120.24,3.85,0,0,0,0,18,5.08,0.65,20,14,8,6,3,4400,17,10,7530.94,2027.62,119.44,5.29,1.76,1.76,0,0,0,0,0,0,0,0,0,0,0,0,0,0,0,0,0,0,0,0,0,0,0,0,0,0,0,0,0,0,0,0,0,0,0,0,0,0,0,0,0,0,0,0,-1,NULL,-1,NULL,-1,NULL,-1,NULL,-1,NULL,-1,NULL,10,6,2,0,0,0,10,0,0,0.59,10,0,0,0,0,0,0,0,0,-2113658336,-1,-1,-1,-1,-1,-1,-1,-1,-1,-1,-1,-1,-1,-1,-1,-1,-1,-1,-1,-1,0,-1
Unknown,Unknown,NULL,NULL,NULL,NULL,NULL,NULL,Unknown,2018-04-08 00:00:00.000,0,55944,2018-04-08 00:00:00.000,13:53:29.0000000,6.2.,0,0,Hydraulic,0,NULL,NULL,NULL,NULL,NULL,NULL,NULL,NULL,NULL,NULL,NULL,NULL,NULL,0,0,0,0,1165,NULL,NULL,NULL,4638.03,643.16,175.1,88.51,59.65,11.55,0,68,6.14,3.69,19,16,14,10,6,100000,17,10,4611.65,1697.03,616.78,178.17,92.51,77.09,44.54,39.4,25.7,8.57,0,0,0,0,5.14,1.71,0,0,25.79,23.09,1.98,6.85,3.43,1.71,0,68.63,35.61,19.11,34.26,23.98,5.14,0,64.12,32.87,13.29,27.41,18.84,1.71,0,57.87,30.51,8.97,5.14,5.14,1.71,0,63.26,43.91,14.1,1.71,-1,NULL,-1,NULL,-1,NULL,-1,NULL,-1,NULL,-1,NULL,10,8,8,9,10,0,10,0,0,2.05,16,0,35.14,29.82,3.71,1.64,0,0,0,2,-1,-1,-1,-1,-1,-1,-1,-1,-1,-1,-1,-1,-1,-1,-1,-1,-1,-1,-1,-1,0,-1
Unknown,Unknown,NULL,NULL,NULL,NULL,NULL,NULL,Unknown,2018-04-08 00:00:00.000,1,55944,2018-04-08 00:00:00.000,14:02:13.0000000,6.2.,0,0,Hydraulic,0,NULL,NULL,NULL,NULL,NULL,NULL,NULL,NULL,NULL,NULL,NULL,NULL,NULL,0,0,0,0,1165,NULL,NULL,NULL,4964.79,792.41,217.43,128.92,100.06,13.47,3.85,255,6.4,4.68,19,17,14,11,NULL,NULL,17,11,4930.55,1941.19,758.17,210.85,119.03,107.13,73.12,57.81,39.11,10.2,6.8,3.4,3.4,0,11.9,6.8,0,0,35.11,25.89,4.67,6.8,5.1,0,0,29.72,26.09,3.12,62.92,52.71,8.5,1.7,147.75,38.64,22.66,32.31,23.81,3.4,1.7,527.47,58.88,110.91,5.1,0,0,0,23.05,22.24,1.15,0,-1,NULL,-1,NULL,-1,NULL,-1,NULL,-1,NULL,-1,NULL,10,8,8,10,10,11,11,0,0,2.95,14,0,47.48,41.19,8.9,1.03,0.52,0,0,2,-1,-1,-1,-1,-1,-1,-1,-1,-1,-1,-1,-1,-1,-1,-1,-1,-1,-1,-1,-1,0,-1
Unknown,Unknown,NULL,NULL,NULL,NULL,NULL,NULL,Unknown,2018-04-08 00:00:00.000,2,55944,2018-04-08 00:00:00.000,14:14:30.0000000,6.2.,0,0,Hydraulic,0,NULL,NULL,NULL,NULL,NULL,NULL,NULL,NULL,NULL,NULL,NULL,NULL,NULL,0,0,0,0,1165,NULL,NULL,NULL,2936.52,500.75,155.86,92.36,65.42,11.55,3.85,194,6.65,5.39,19,16,13,10,NULL,100000,17,10,2893.48,1162.61,457.71,147.43,79.99,73.72,45.49,37.64,26.66,9.41,3.14,1.57,1.57,0,7.84,0,0,0,24.33,23.35,1.13,3.14,1.57,1.57,1.57,124.12,73.78,50.34,29.8,28.23,4.71,0,71.93,37.27,13.35,32.94,21.96,3.14,1.57,194.5,36.63,36.09,1.57,1.57,0,0,44.53,44.53,0,7.84,-1,NULL,-1,NULL,-1,NULL,-1,NULL,-1,NULL,-1,NULL,9,8,8,9,10,10,10,0,0,1.94,NULL,0,31.93,29.02,1.7,3.37,0,0,0,2,-1,-1,-1,-1,-1,-1,-1,-1,-1,-1,-1,-1,-1,-1,-1,-1,-1,-1,-1,-1,0,-1
Unknown,Unknown,NULL,NULL,NULL,NULL,NULL,NULL,Unknown,2018-04-08 00:00:00.000,3,55945,2018-04-08 00:00:00.000,14:21:36.0000000,6.2.,0,0,Hydraulic,0,NULL,NULL,NULL,NULL,NULL,NULL,NULL,NULL,NULL,NULL,NULL,NULL,NULL,0,0,0,0,1165,NULL,NULL,NULL,11257.3,17.32,15.39,11.55,11.55,3.85,1.92,255,5.04,1.48,21,11,10,10,NULL,100000,17,11,11257.06,2827.07,17.08,15.18,7.59,7.59,1.9,1.9,1.9,1.9,1.9,1.9,1.9,0,3.8,3.8,1.9,0,53.55,41.64,11.92,1.9,1.9,0,0,30.55,30.55,0,0,0,0,0,0,0,0,3.8,3.8,1.9,1.9,892.86,461.16,431.69,1.9,1.9,0,0,48.51,48.51,0.01,5.69,-1,NULL,-1,NULL,-1,NULL,-1,NULL,-1,NULL,-1,NULL,11,3,4,5,7,10,11,0,0,0.88,17,0,0,0,0,0,0,0,0,2,-1,-1,-1,-1,-1,-1,-1,-1,-1,-1,-1,-1,-1,-1,-1,-1,-1,-1,-1,-1,0,-1
Unknown,Unknown,NULL,NULL,NULL,NULL,NULL,NULL,Unknown,2018-04-08 00:00:00.000,4,55945,2018-04-08 00:00:00.000,14:27:49.0000000,6.2.,0,0,Hydraulic,0,NULL,NULL,NULL,NULL,NULL,NULL,NULL,NULL,NULL,NULL,NULL,NULL,NULL,0,0,0,0,1165,NULL,NULL,NULL,987.84,152.26,36.56,26.94,19.24,0,0,37,6.26,3.43,17,14,12,8,4,4400,15,7,977.32,379.44,141.74,32.79,20.3,20.3,10.93,10.93,0,0,0,0,0,0,1.56,0,0,0,21.25,21.25,0,4.68,4.68,0,0,35.11,32.01,3.84,6.25,6.25,0,0,37.18,30.86,4.93,9.37,4.68,0,0,37.7,28.99,6.51,1.56,1.56,0,0,27.67,27.67,0,1.56,-1,NULL,-1,NULL,-1,NULL,-1,NULL,-1,NULL,-1,NULL,7,6,6,7,0,0,7,0,0,0.27,15,0,59.25,59.25,0,0.08,0.08,0.08,0,2,-1,-1,-1,-1,-1,-1,-1,-1,-1,-1,-1,-1,-1,-1,-1,-1,-1,-1,-1,-1,0,-1
Unknown,Unknown,NULL,NULL,NULL,NULL,NULL,NULL,Unknown,2018-04-08 00:00:00.000,5,55946,2018-04-08 00:00:00.000,14:35:30.0000000,6.2.,0,0,Hydraulic,0,NULL,NULL,NULL,NULL,NULL,NULL,NULL,NULL,NULL,NULL,NULL,NULL,NULL,0,0,0,0,1165,NULL,NULL,NULL,24322,5386.14,2439.86,1662.49,1081.39,165.48,19.24,255,7.54,6.32,22,19,17,12,NULL,NULL,17,NULL,23819.54,9974.41,4883.68,1424.58,649.64,457.84,239.75,202.63,171.69,120.65,21.65,15.47,12.37,0,119.1,80.43,0,0,36.14,26.55,3.45,51.04,51.04,0,0,41.4,28.59,2.3,17.01,6.19,3.09,0,82.91,32.54,20.47,1096.66,750.18,126.84,12.37,522.31,33.92,27.14,91.26,3.09,3.09,3.09,319.74,30.73,51.55,256.76,-1,NULL,-1,NULL,-1,NULL,-1,NULL,-1,NULL,-1,NULL,12,11,11,12,NULL,NULL,NULL,0,0,17.6,NULL,0,32.08,29.25,1.7,3.39,0,0,0,2,-1,-1,-1,-1,-1,-1,-1,-1,-1,-1,-1,-1,-1,-1,-1,-1,-1,-1,-1,-1,0,-1
Unknown,Unknown,NULL,NULL,NULL,NULL,NULL,NULL,Unknown,2018-04-08 00:00:00.000,6,55946,2018-04-08 00:00:00.000,14:41:51.0000000,6.2.,0,0,Hydraulic,0,NULL,NULL,NULL,NULL,NULL,NULL,NULL,NULL,NULL,NULL,NULL,NULL,NULL,0,0,0,0,1165,NULL,NULL,NULL,36644.1,7491.62,4598.63,2955.99,1417.33,21.18,11.55,255,7.36,5.39,22,20,18,12,NULL,NULL,17,NULL,36212.11,15222.96,7059.63,2874.78,1400.8,883.34,116.73,69.69,26.13,13.94,13.94,10.45,8.71,0,461.71,277.02,5.23,0,93.01,28.38,7.57,554.05,73.18,0,0,40.51,22.69,3.49,543.59,13.94,0,0,40.51,22.16,1.74,791,395.5,10.45,6.97,790.9,31.35,39.25,1639.49,979.17,3.48,3.48,271.53,26.84,11.2,1702.22,-1,NULL,-1,NULL,-1,NULL,-1,NULL,-1,NULL,-1,NULL,NULL,12,12,10,10,NULL,NULL,0,0,14.12,NULL,0,57.34,39.31,13.43,38.45,19.22,9.61,0,2,-1,-1,-1,-1,-1,-1,-1,-1,-1,-1,-1,-1,-1,-1,-1,-1,-1,-1,-1,-1,0,-1
Unknown,Unknown,NULL,NULL,NULL,NULL,NULL,NULL,Unknown,2018-04-08 00:00:00.000,7,55946,2018-04-08 00:00:00.000,14:50:22.0000000,6.2.,0,0,Hydraulic,0,NULL,NULL,NULL,NULL,NULL,NULL,NULL,NULL,NULL,NULL,NULL,NULL,NULL,0,0,0,0,1165,NULL,NULL,NULL,25258.25,4767.56,3444.29,2911.29,1772.17,9.62,1.92,255,7.78,5.96,22,19,17,12,NULL,NULL,17,12,24558.37,9523.27,4067.69,2590.48,1208.79,1026.62,26.24,23.16,12.35,3.09,3.09,1.54,1.54,0,683.9,288.69,0,0,34.31,24.46,2.69,1218.05,793.51,0,0,38.58,27.54,4,18.53,15.44,0,0,37.05,29.44,3.67,379.77,318.02,3.09,1.54,397.74,28.92,23.86,58.66,9.26,4.63,0,65.64,25.72,11.32,135.85,-1,NULL,-1,NULL,-1,NULL,-1,NULL,-1,NULL,-1,NULL,12,11,12,8,8,10,12,0,0,8.96,NULL,0,71.65,39.55,21.48,1.06,0.26,0.26,0,2,-1,-1,-1,-1,-1,-1,-1,-1,-1,-1,-1,-1,-1,-1,-1,-1,-1,-1,-1,-1,0,-1
Unknown,Unknown,NULL,NULL,NULL,NULL,NULL,NULL,Unknown,2018-04-08 00:00:00.000,8,55946,2018-04-08 00:00:00.000,15:18:49.0000000,6.2.,0,0,Hydraulic,0,NULL,NULL,NULL,NULL,NULL,NULL,NULL,NULL,NULL,NULL,NULL,NULL,NULL,0,0,0,0,1165,NULL,NULL,NULL,15481.04,769.79,94.32,46.2,17.32,3.85,1.92,255,5.31,1.86,21,17,13,10,NULL,100000,17,11,15479.24,4699.44,767.98,104.49,43.7,34.2,11.4,9.5,3.8,3.8,3.8,1.9,1.9,0,5.7,1.9,0,0,28.16,24.01,3.01,5.7,3.8,0,0,31.63,27.13,4.51,19,5.7,1.9,0,66.51,28.19,13,13.3,3.8,1.9,1.9,789.33,132.17,268.29,1.9,1.9,0,0,33.23,33.23,0,0,-1,NULL,-1,NULL,-1,NULL,-1,NULL,-1,NULL,-1,NULL,11,8,7,7,8,10,11,0,0,2.01,13,0,31.16,29.92,1.76,1.62,0,0,0,2,-1,-1,-1,-1,-1,-1,-1,-1,-1,-1,-1,-1,-1,-1,-1,-1,-1,-1,-1,-1,0,-1
Unknown,Unknown,NULL,NULL,NULL,NULL,NULL,NULL,Unknown,2018-04-08 00:00:00.000,9,55946,2018-04-08 00:00:00.000,15:26:33.0000000,6.2.,0,0,Hydraulic,0,NULL,NULL,NULL,NULL,NULL,NULL,NULL,NULL,NULL,NULL,NULL,NULL,NULL,0,0,0,0,1165,NULL,NULL,NULL,3596.26,503.82,107.75,46.18,42.33,1.92,0,54,6.01,3.04,19,16,13,8,5,6300,17,9,3585.28,1369.03,492.84,90.76,53.39,44.49,10.68,10.68,8.9,0,0,0,0,0,5.34,3.56,0,0,30.55,26.84,3.39,7.12,7.12,1.78,0,54.8,40.04,10.04,7.12,7.12,0,0,32.2,28.43,2.2,24.92,21.36,0,0,49.95,31.44,7.37,0,0,0,0,0,0,0,0,-1,NULL,-1,NULL,-1,NULL,-1,NULL,-1,NULL,-1,NULL,9,8,7,7,0,0,9,0,0,0.85,12,0,43.89,37.69,8.77,1.48,0.74,0,0,2,-1,-1,-1,-1,-1,-1,-1,-1,-1,-1,-1,-1,-1,-1,-1,-1,-1,-1,-1,-1,0,-1
Unknown,Unknown,NULL,NULL,NULL,NULL,NULL,NULL,Unknown,2018-04-08 00:00:00.000,10,55947,2018-04-08 00:00:00.000,15:35:38.0000000,6.2.,0,0,Hydraulic,0,NULL,NULL,NULL,NULL,NULL,NULL,NULL,NULL,NULL,NULL,NULL,NULL,NULL,0,0,0,0,1165,NULL,NULL,NULL,404.14,136.72,30.8,9.62,5.77,1.92,0,77,7.55,4.58,16,14,11,7,4,6300,15,7,395.27,214.76,127.85,32.33,12.31,10.78,4.62,4.62,4.62,1.54,1.54,0,0,0,1.54,0,0,0,24.33,24.33,0.01,0,0,0,0,0,0,0,4.62,4.62,1.54,0,77.17,45.9,22.13,1.54,0,0,0,23.3,23.3,0,0,0,0,0,0,0,0,1.54,-1,NULL,-1,NULL,-1,NULL,-1,NULL,-1,NULL,-1,NULL,6,6,5,6,7,0,7,0,0,0.46,15,0,0,0,0,0,0,0,0,2,-1,-1,-1,-1,-1,-1,-1,-1,-1,-1,-1,-1,-1,-1,-1,-1,-1,-1,-1,-1,0,-1
Unknown,Unknown,NULL,NULL,NULL,NULL,NULL,NULL,Unknown,2018-04-08 00:00:00.000,11,55948,2018-04-08 00:00:00.000,15:46:50.0000000,6.2.,0,0,Hydraulic,0,NULL,NULL,NULL,NULL,NULL,NULL,NULL,NULL,NULL,NULL,NULL,NULL,NULL,0,0,0,0,1165,NULL,NULL,NULL,46168.86,132.77,67.35,28.86,25.01,5.77,1.92,106,5.03,0.92,23,14,12,10,NULL,100000,17,NULL,46168.65,11641.58,132.56,76.84,34.58,28.82,23.05,19.21,13.45,5.76,5.76,1.92,0,0,0,0,0,0,0,0,0,0,0,0,0,0,0,0,9.61,9.61,5.76,1.92,106.32,58.31,28.66,17.29,13.45,0,0,49.4,32.88,8.39,1.92,1.92,0,0,31.24,31.24,0,0,-1,NULL,-1,NULL,-1,NULL,-1,NULL,-1,NULL,-1,NULL,NULL,6,6,8,9,10,NULL,0,0,5.22,13,0,0,0,0,0,0,0,0,2,-1,-1,-1,-1,-1,-1,-1,-1,-1,-1,-1,-1,-1,-1,-1,-1,-1,-1,-1,-1,0,-1
Unknown,Unknown,NULL,NULL,NULL,NULL,NULL,NULL,Unknown,2018-04-08 00:00:00.000,12,55948,2018-04-08 00:00:00.000,15:55:10.0000000,6.2.,0,0,Hydraulic,0,NULL,NULL,NULL,NULL,NULL,NULL,NULL,NULL,NULL,NULL,NULL,NULL,NULL,0,0,0,0,1165,NULL,NULL,NULL,15815.35,1167.5,67.35,28.86,15.39,9.62,0,77,5.42,1.84,21,17,13,9,6,15000,17,11,15814.96,5352.21,1167.11,80.56,47.95,34.52,11.51,9.59,9.59,5.75,1.92,0,0,0,1.92,0,0,0,20.37,20.37,0,0,0,0,0,0,0,0,3.84,0,0,0,24.33,23.81,0.51,19.18,13.43,7.67,0,77.36,44.24,21.89,3.84,1.92,1.92,0,54.4,38.58,15.81,0,-1,NULL,-1,NULL,-1,NULL,-1,NULL,-1,NULL,-1,NULL,11,9,7,7,9,0,11,0,0,2.26,13,0,43.45,43.45,0,0.19,0.19,0,0,2,-1,-1,-1,-1,-1,-1,-1,-1,-1,-1,-1,-1,-1,-1,-1,-1,-1,-1,-1,-1,0,-1
Unknown,Unknown,NULL,NULL,NULL,NULL,NULL,NULL,Unknown,2018-04-08 00:00:00.000,13,55948,2018-04-08 00:00:00.000,16:01:27.0000000,6.2.,0,0,Hydraulic,0,NULL,NULL,NULL,NULL,NULL,NULL,NULL,NULL,NULL,NULL,NULL,NULL,NULL,0,0,0,0,1165,NULL,NULL,NULL,125.07,125.07,76.97,28.86,13.47,0,0,39,14.77,4.84,14,14,12,7,4,4400,10,7,125.07,125.07,125.07,80.82,38.48,26.94,7.7,7.7,3.85,0,0,0,0,0,9.62,3.85,0,0,32.95,25.59,4.75,1.92,1.92,0,0,25.43,25.43,0,7.7,1.92,0,0,35.37,26.38,5.19,9.62,5.77,0,0,39.05,28.41,6.2,0,0,0,0,0,0,0,0,-1,NULL,-1,NULL,-1,NULL,-1,NULL,-1,NULL,-1,NULL,5,6,7,7,0,0,7,0,0,0.31,10,0,0,0,0,0,0,0,0,2,-1,-1,-1,-1,-1,-1,-1,-1,-1,-1,-1,-1,-1,-1,-1,-1,-1,-1,-1,-1,0,-1
Unknown,Unknown,NULL,NULL,NULL,NULL,NULL,NULL,Unknown,2018-04-08 00:00:00.000,14,55949,2018-04-08 00:00:00.000,16:08:29.0000000,6.2.,0,0,Hydraulic,0,NULL,NULL,NULL,NULL,NULL,NULL,NULL,NULL,NULL,NULL,NULL,NULL,NULL,0,0,0,0,1165,NULL,NULL,NULL,19929.25,50.03,44.26,21.17,13.47,5.77,3.85,148,5.05,1.52,21,13,12,11,NULL,NULL,17,12,19929.09,5019.67,49.87,44.12,24.93,21.1,11.51,11.51,3.84,3.84,3.84,3.84,3.84,0,3.84,3.84,1.92,0,58.14,47.96,10.18,0,0,0,0,0,0,0,9.59,5.75,3.84,3.84,148.04,72.71,60.1,7.67,3.84,0,0,32.11,26.87,4.21,0,0,0,0,0,0,0,1.92,-1,NULL,-1,NULL,-1,NULL,-1,NULL,-1,NULL,-1,NULL,12,5,6,7,8,11,12,0,0,1.95,16,0,31.24,30.02,1.72,0.4,0,0,0,2,-1,-1,-1,-1,-1,-1,-1,-1,-1,-1,-1,-1,-1,-1,-1,-1,-1,-1,-1,-1,0,-1
Unknown,Unknown,NULL,NULL,NULL,NULL,NULL,NULL,Unknown,2018-04-08 00:00:00.000,15,55949,2018-04-08 00:00:00.000,16:22:23.0000000,6.2.,0,0,Hydraulic,0,NULL,NULL,NULL,NULL,NULL,NULL,NULL,NULL,NULL,NULL,NULL,NULL,NULL,0,0,0,0,1165,NULL,NULL,NULL,2489.16,225.67,36.56,15.39,7.7,0,0,35,5.59,2.07,18,15,11,7,3,2000,17,9,2481.51,842.83,218.02,35.38,11.79,11.79,5.05,5.05,3.37,0,0,0,0,0,0,0,0,0,0,0,0,0,0,0,0,0,0,0,6.74,3.37,0,0,35.11,26.74,6.14,6.74,3.37,0,0,28.96,25.62,2.6,0,0,0,0,0,0,0,0,-1,NULL,-1,NULL,-1,NULL,-1,NULL,-1,NULL,-1,NULL,9,7,5,6,0,0,9,0,0,0.4,11,0,0,0,0,0,0,0,0,2,-1,-1,-1,-1,-1,-1,-1,-1,-1,-1,-1,-1,-1,-1,-1,-1,-1,-1,-1,-1,0,-1
Unknown,Unknown,NULL,NULL,NULL,NULL,NULL,NULL,Unknown,2018-04-08 00:00:00.000,16,55821,2018-04-08 00:00:00.000,16:35:53.0000000,6.2.,0,0,Hydraulic,0,NULL,NULL,NULL,NULL,NULL,NULL,NULL,NULL,NULL,NULL,NULL,NULL,NULL,0,0,0,0,1165,NULL,NULL,NULL,3393.88,692.95,65.42,38.48,21.17,7.7,0,72,6.31,3.31,19,17,12,9,5,4400,17,9,3369.21,1503.97,668.29,72.33,24.62,20.01,10.77,10.77,9.23,3.08,0,0,0,0,10.77,7.69,1.54,0,65.98,32.92,14.36,4.62,1.54,1.54,0,72.66,38.67,24.04,9.23,3.08,1.54,0,65.64,30.41,15.85,6.16,4.62,1.54,0,65.01,38.36,17.46,0,0,0,0,0,0,0,1.54,-1,NULL,-1,NULL,-1,NULL,-1,NULL,-1,NULL,-1,NULL,9,8,6,7,8,0,9,0,0,0.88,15,0,0,0,0,0,0,0,0,2,-1,-1,-1,-1,-1,-1,-1,-1,-1,-1,-1,-1,-1,-1,-1,-1,-1,-1,-1,-1,0,-1
Unknown,Unknown,NULL,NULL,NULL,NULL,NULL,NULL,Unknown,2018-04-08 00:00:00.000,17,55822,2018-04-08 00:00:00.000,16:41:54.0000000,6.2.,0,0,Hydraulic,0,NULL,NULL,NULL,NULL,NULL,NULL,NULL,NULL,NULL,NULL,NULL,NULL,NULL,0,0,0,0,1165,NULL,NULL,NULL,956.79,181.28,36.56,23.09,13.47,0,0,43,6.38,3.33,17,15,12,7,3,2000,15,7,948.7,420.54,173.18,29.24,21.54,16.93,6.16,6.16,4.62,0,0,0,0,0,1.54,1.54,0,0,26.72,26.72,0,4.62,1.54,0,0,27.31,24.77,1.8,3.08,0,0,0,22.77,22.01,0.76,7.69,6.16,0,0,35.62,29.54,3.98,1.54,1.54,0,0,43.77,43.77,0.01,1.54,-1,NULL,-1,NULL,-1,NULL,-1,NULL,-1,NULL,-1,NULL,7,6,6,7,0,0,7,0,0,0.27,15,0,0,0,0,0,0,0,0,2,-1,-1,-1,-1,-1,-1,-1,-1,-1,-1,-1,-1,-1,-1,-1,-1,-1,-1,-1,-1,0,-1
Unknown,Unknown,NULL,NULL,NULL,NULL,NULL,NULL,Unknown,2018-04-10 00:00:00.000,0,55814,2018-04-10 00:00:00.000,15:34:01.0000000,6.2.,0,0,Hydraulic,0,NULL,NULL,NULL,NULL,NULL,NULL,NULL,NULL,NULL,NULL,NULL,NULL,NULL,0,0,0,0,1165,NULL,NULL,NULL,72236.52,3450.65,130.84,67.35,34.64,5.77,0,69,5.26,1.26,23,19,12,11,NULL,15000,17,NULL,72190.4,21754.58,3404.53,118.57,32.34,29.26,7.7,7.7,3.08,0,0,0,0,149.1,21.56,16.94,3.08,0,56.43,33.45,11.11,12.32,1.54,0,0,25.49,22.93,1.63,4.62,1.54,0,0,25.43,23.33,1.71,16.94,9.24,1.54,0,69.56,31.52,14.19,1.54,0,0,0,20.28,20.28,0,12.32,-1,NULL,-1,NULL,-1,NULL,-1,NULL,-1,NULL,-1,NULL,NULL,11,6,7,0,0,NULL,0,0.02,6.43,NULL,0,0,0,0,0,0,0,0,2,-1,-1,-1,-1,-1,-1,-1,-1,-1,-1,-1,-1,-1,-1,-1,-1,-1,-1,-1,-1,0,-1
Unknown,Unknown,NULL,NULL,NULL,NULL,NULL,NULL,Unknown,2018-04-10 00:00:00.000,1,55566,2018-04-10 00:00:00.000,15:47:43.0000000,6.2.,0,0,Hydraulic,0,NULL,NULL,NULL,NULL,NULL,NULL,NULL,NULL,NULL,NULL,NULL,NULL,NULL,0,0,0,0,1165,NULL,NULL,NULL,89957.77,7659.9,346.35,146.24,78.89,19.24,0,94,5.47,1.7,24,20,13,12,NULL,100000,17,NULL,89844.38,30356.67,7546.52,237.9,52.52,44.8,21.63,20.08,13.9,7.72,1.54,0,0,0,30.9,16.99,3.09,0,59.51,29.23,10.91,20.08,6.18,0,0,40.96,25.49,6.48,6.18,0,0,0,21.8,21.13,0.43,66.43,40.16,12.36,0,94.38,36.65,18.68,3.09,1.54,0,0,29.72,26.38,3.34,9.27,-1,NULL,-1,NULL,-1,NULL,-1,NULL,-1,NULL,-1,NULL,NULL,12,7,8,9,0,NULL,0,0,9.59,NULL,0,33.1,30.8,2.38,0.12,0,0,0,2,-1,-1,-1,-1,-1,-1,-1,-1,-1,-1,-1,-1,-1,-1,-1,-1,-1,-1,-1,-1,0,-1
Unknown,Unknown,NULL,NULL,NULL,NULL,NULL,NULL,Unknown,2018-04-11 00:00:00.000,0,55960,2018-04-11 00:00:00.000,12:54:48.0000000,6.2.,0,0,Hydraulic,0,NULL,NULL,NULL,NULL,NULL,NULL,NULL,NULL,NULL,NULL,NULL,NULL,NULL,0,0,0,0,1165,TYNANCS,NULL,NULL,10077.04,198.69,26.94,13.47,1.92,0,0,28,5.12,0.94,21,15,11,7,3,4400,17,11,10075.64,2666.89,197.3,27.64,14.74,14.74,3.68,1.84,1.84,0,0,0,0,0,0,0,0,0,0,0,0,0,0,0,0,0,0,0,5.53,0,0,0,24.33,23.53,0.61,7.37,1.84,0,0,28.8,23.84,3.08,1.84,1.84,0,0,29.72,29.72,0,7.37,-1,NULL,-1,NULL,-1,NULL,-1,NULL,-1,NULL,-1,NULL,11,7,5,5,0,0,11,0,0,0.93,NULL,0,0,0,0,0,0,0,0,2,-1,-1,-1,-1,-1,-1,-1,-1,-1,-1,-1,-1,-1,-1,-1,-1,-1,-1,-1,-1,0,-1
Unknown,Unknown,NULL,NULL,NULL,NULL,NULL,NULL,Unknown,2018-04-11 00:00:00.000,1,55960,2018-04-11 00:00:00.000,13:02:51.0000000,6.2.,0,0,Hydraulic,0,NULL,NULL,NULL,NULL,NULL,NULL,NULL,NULL,NULL,NULL,NULL,NULL,NULL,0,0,0,0,1165,TYNANCS,NULL,NULL,3426.42,259.75,36.56,15.39,11.55,0,0,48,5.49,1.88,19,15,11,7,3,2000,17,9,3416.05,1072.88,249.38,31.79,14.31,11.13,3.18,3.18,1.59,0,0,0,0,0,3.18,3.18,0,0,29.74,28.23,1.51,0,0,0,0,0,0,0,4.77,3.18,0,0,34.31,29.84,4.35,3.18,1.59,0,0,29.74,26.26,3.49,1.59,1.59,0,0,48.23,48.23,0.01,22.26,-1,NULL,-1,NULL,-1,NULL,-1,NULL,-1,NULL,-1,NULL,9,7,5,6,0,0,9,0,0,0.43,NULL,0,0,0,0,0,0,0,0,2,-1,-1,-1,-1,-1,-1,-1,-1,-1,-1,-1,-1,-1,-1,-1,-1,-1,-1,-1,-1,0,-1
Unknown,Unknown,NULL,NULL,NULL,NULL,NULL,NULL,Unknown,2018-04-11 00:00:00.000,2,55961,2018-04-11 00:00:00.000,13:10:26.0000000,6.2.,0,0,Hydraulic,0,NULL,NULL,NULL,NULL,NULL,NULL,NULL,NULL,NULL,NULL,NULL,NULL,NULL,0,0,0,0,1165,TYNANCS,NULL,NULL,3976267,1167618,466281.8,220099.9,149904.5,35471.29,7636.02,255,8.07,7.01,NULL,27,25,12,NULL,NULL,17,NULL,3863689,1926319,1055040,396744.3,213470.6,195305.3,95288.27,85474.05,55556.8,20871.52,11874.49,6506.14,2640.17,12234.95,9850.36,5211.2,212.16,6.29,163.34,27.62,8.01,6424.42,5066.62,352.02,1.57,108.48,33.13,9.68,73234.96,38021.64,1599.82,12.57,161.61,27.64,7.8,79640.52,66670.67,24321.03,5470.5,763.87,47.81,31.78,9157.32,6113.26,2160.86,675.76,729.02,49.47,59.72,994.78,-1,NULL,-1,NULL,-1,NULL,-1,NULL,-1,NULL,-1,NULL,NULL,NULL,NULL,NULL,NULL,NULL,NULL,0,1.59,6591,NULL,0,31.06,29.42,2.03,0.22,0,0,0,2,-1,-1,-1,-1,-1,-1,-1,-1,-1,-1,-1,-1,-1,-1,-1,-1,-1,-1,-1,-1,0,-1
Unknown,Unknown,NULL,NULL,NULL,NULL,NULL,NULL,Unknown,2018-04-11 00:00:00.000,3,55961,2018-04-11 00:00:00.000,13:18:19.0000000,6.2.,0,0,Hydraulic,0,NULL,NULL,NULL,NULL,NULL,NULL,NULL,NULL,NULL,NULL,NULL,NULL,NULL,0,0,0,0,1165,TYNANCS,NULL,NULL,4537680,1528984,787471.9,439105.9,314404.1,90803.95,19336.77,255,9.48,9.56,NULL,28,26,12,NULL,NULL,17,NULL,4354927,2262078,1346232,630227.8,380705,350294.4,193281.2,176325.2,121498.8,50660.39,29669.44,15643.74,6759.3,13981.09,21421.6,11560.39,575.76,10.92,125.39,28,8.42,13702.71,11092.3,789.52,1.56,101.93,33.51,9.36,105051.5,52113.05,1756.92,9.36,145.12,27.06,7.13,195283.1,164713.4,64143.09,13105.11,665.73,48.64,31.23,19714.61,13838.46,5866.79,2446.58,973.39,58.3,67.34,3215.81,-1,NULL,-1,NULL,-1,NULL,-1,NULL,-1,NULL,-1,NULL,NULL,NULL,NULL,NULL,NULL,NULL,NULL,0,2.18,14082.18,NULL,0,0,0,0,0,0,0,0,2,-1,-1,-1,-1,-1,-1,-1,-1,-1,-1,-1,-1,-1,-1,-1,-1,-1,-1,-1,-1,0,-1
Unknown,Unknown,NULL,NULL,NULL,NULL,NULL,NULL,Unknown,2018-04-11 00:00:00.000,4,TEST,2018-04-11 00:00:00.000,13:26:35.0000000,6.2.,0,0,Hydraulic,0,NULL,NULL,NULL,NULL,NULL,NULL,NULL,NULL,NULL,NULL,NULL,NULL,NULL,0,0,0,0,1165,TYNANCS,NULL,NULL,4176.91,1471.09,406,217.43,96.21,5.77,0,55,7.86,4.56,19,18,15,10,6,100000,17,10,4068.84,2329.39,1363.03,397.34,191.6,177.47,58.11,48.69,20.42,1.57,0,0,0,0,12.56,7.85,0,0,28.91,25.93,2.05,3.14,1.57,0,0,26.72,25.01,1.71,32.98,7.85,0,0,37.73,24.23,4.13,128.78,59.68,4.71,0,55.73,26.18,6.32,3.14,1.57,0,0,28.91,26.62,2.29,1.57,-1,NULL,-1,NULL,-1,NULL,-1,NULL,-1,NULL,-1,NULL,10,9,9,9,7,0,10,0,0,2.34,15,0,0,0,0,0,0,0,0,2,-1,-1,-1,-1,-1,-1,-1,-1,-1,-1,-1,-1,-1,-1,-1,-1,-1,-1,-1,-1,0,-1
Unknown,Unknown,NULL,NULL,NULL,NULL,NULL,NULL,Unknown,2018-04-11 00:00:00.000,5,55962,2018-04-11 00:00:00.000,13:33:30.0000000,6.2.,0,0,Hydraulic,0,NULL,NULL,NULL,NULL,NULL,NULL,NULL,NULL,NULL,NULL,NULL,NULL,NULL,0,0,0,0,1165,TYNANCS,NULL,NULL,8480.99,452.43,61.57,21.17,13.47,7.7,0,90,5.35,1.95,20,16,12,9,5,4400,17,11,8477.04,2569.5,448.48,56.34,34.53,29.08,10.9,10.9,7.27,3.63,0,0,0,0,5.45,1.82,0,0,29.72,24.32,3.83,3.63,3.63,3.63,0,90.87,73.42,17.45,0,0,0,0,0,0,0,12.72,9.09,3.63,0,63.26,36.92,16.42,3.63,0,0,0,20.62,20.45,0.17,9.09,-1,NULL,-1,NULL,-1,NULL,-1,NULL,-1,NULL,-1,NULL,11,8,6,7,8,0,11,0,0,1.25,NULL,0,0,0,0,0,0,0,0,2,-1,-1,-1,-1,-1,-1,-1,-1,-1,-1,-1,-1,-1,-1,-1,-1,-1,-1,-1,-1,0,-1
Unknown,Unknown,NULL,NULL,NULL,NULL,NULL,NULL,Unknown,2018-04-11 00:00:00.000,6,55963,2018-04-11 00:00:00.000,13:39:24.0000000,6.2.,0,0,Hydraulic,0,NULL,NULL,NULL,NULL,NULL,NULL,NULL,NULL,NULL,NULL,NULL,NULL,NULL,0,0,0,0,1165,TYNANCS,NULL,NULL,7105.15,425.9,34.64,19.24,13.47,1.92,0,50,5.36,1.68,20,16,11,8,5,4400,17,10,7101.62,2219,422.37,33.88,19.61,19.61,8.91,8.91,7.13,0,0,0,0,0,5.35,3.57,0,0,27.62,25.71,1.67,1.78,1.78,0,0,48.72,48.72,0.01,5.35,1.78,0,0,28.8,25.14,2.83,8.91,7.13,1.78,0,50.38,36.04,11.85,3.57,1.78,0,0,28.37,25.71,2.66,17.83,-1,NULL,-1,NULL,-1,NULL,-1,NULL,-1,NULL,-1,NULL,10,8,6,7,0,0,10,0,0,0.87,NULL,0,0,0,0,0,0,0,0,2,-1,-1,-1,-1,-1,-1,-1,-1,-1,-1,-1,-1,-1,-1,-1,-1,-1,-1,-1,-1,0,-1
Unknown,Unknown,NULL,NULL,NULL,NULL,NULL,NULL,Unknown,2018-04-11 00:00:00.000,7,55845,2018-04-11 00:00:00.000,14:03:43.0000000,6.2.,0,0,Hydraulic,0,NULL,NULL,NULL,NULL,NULL,NULL,NULL,NULL,NULL,NULL,NULL,NULL,NULL,0,0,0,0,1165,TYNANCS,NULL,NULL,8467.9,7.7,3.85,3.85,1.92,0,0,39,5.01,0.39,20,10,9,5,1,4400,17,11,8467.62,2122.47,7.42,3.71,3.71,3.71,1.86,1.86,1.86,0,0,0,0,0,0,0,0,0,0,0,0,0,0,0,0,0,0,0,0,0,0,0,0,0,0,3.71,1.86,0,0,39.05,31.24,7.81,0,0,0,0,0,0,0,0,-1,NULL,-1,NULL,-1,NULL,-1,NULL,-1,NULL,-1,NULL,11,2,3,5,0,0,11,0,0,0.72,8,0,0,0,0,0,0,0,0,2,-1,-1,-1,-1,-1,-1,-1,-1,-1,-1,-1,-1,-1,-1,-1,-1,-1,-1,-1,-1,0,-1
Unknown,Unknown,NULL,NULL,NULL,NULL,NULL,NULL,Unknown,2018-04-11 00:00:00.000,8,55846,2018-04-11 00:00:00.000,14:11:03.0000000,6.2.,0,0,Hydraulic,0,NULL,NULL,NULL,NULL,NULL,NULL,NULL,NULL,NULL,NULL,NULL,NULL,NULL,0,0,0,0,1165,TYNANCS,NULL,NULL,2229.34,98.75,25.01,9.62,3.85,0,0,42,5.31,1.63,18,14,11,6,2,1300,16,9,2226.7,647.77,96.1,24.76,12.38,7.07,3.54,3.54,1.77,0,0,0,0,0,0,0,0,0,0,0,0,0,0,0,0,0,0,0,0,0,0,0,0,0,0,8.84,3.54,0,0,42.5,29.26,8.97,0,0,0,0,0,0,0,1.77,-1,NULL,-1,NULL,-1,NULL,-1,NULL,-1,NULL,-1,NULL,9,5,5,6,0,0,9,0,0,0.28,16,0,0,0,0,0,0,0,0,2,-1,-1,-1,-1,-1,-1,-1,-1,-1,-1,-1,-1,-1,-1,-1,-1,-1,-1,-1,-1,0,-1
Unknown,Unknown,NULL,NULL,NULL,NULL,NULL,NULL,Unknown,2018-04-11 00:00:00.000,9,55850,2018-04-11 00:00:00.000,14:18:50.0000000,6.2.,0,0,Hydraulic,0,NULL,NULL,NULL,NULL,NULL,NULL,NULL,NULL,NULL,NULL,NULL,NULL,NULL,0,0,0,0,1165,TYNANCS,NULL,NULL,3365.4,1159.2,388.69,223.21,128.92,23.09,1.92,111,8.3,6.11,19,17,15,10,6,100000,17,10,3251.34,1737.08,1045.14,369.33,178.51,146.19,80.02,69.25,29.24,9.23,6.16,0,0,0,23.08,13.85,0,0,47.7,27.57,7.02,24.62,15.39,3.08,0,57.65,32.96,12.09,50.78,24.62,4.62,0,69.95,29.4,11.75,76.94,47.7,10.77,1.54,111.97,34.39,18.43,3.08,1.54,0,0,45.41,35.06,10.36,1.54,-1,NULL,-1,NULL,-1,NULL,-1,NULL,-1,NULL,-1,NULL,9,9,9,10,10,0,10,0,0,3.47,15,0,38.03,38.03,0,0.41,0.41,0,0,2,-1,-1,-1,-1,-1,-1,-1,-1,-1,-1,-1,-1,-1,-1,-1,-1,-1,-1,-1,-1,0,-1
Unknown,Unknown,NULL,NULL,NULL,NULL,NULL,NULL,Unknown,2018-04-11 00:00:00.000,10,55850,2018-04-11 00:00:00.000,14:24:13.0000000,6.2.,0,0,Hydraulic,0,NULL,NULL,NULL,NULL,NULL,NULL,NULL,NULL,NULL,NULL,NULL,NULL,NULL,0,0,0,0,1165,TYNANCS,NULL,NULL,3532,1311.61,354.05,194.34,121.22,3.85,0,93,8.08,4.71,19,17,14,10,6,100000,17,10,3424.27,1913.73,1203.88,320.49,158.71,144.84,58.55,49.31,18.49,1.54,0,0,0,0,26.19,15.41,0,0,45.54,27.79,6.24,12.33,6.16,0,0,35.21,26.85,5.44,43.14,27.73,0,0,44.4,28.22,5.74,70.88,46.22,3.08,0,93.09,30.68,13.21,3.08,1.54,0,0,25.43,25.07,0.37,1.54,-1,NULL,-1,NULL,-1,NULL,-1,NULL,-1,NULL,-1,NULL,9,9,9,10,7,0,10,0,0,2.05,15,0,50,50,0,0.43,0.43,0.43,0,2,-1,-1,-1,-1,-1,-1,-1,-1,-1,-1,-1,-1,-1,-1,-1,-1,-1,-1,-1,-1,0,-1
Unknown,Unknown,NULL,NULL,NULL,NULL,NULL,NULL,Unknown,2018-04-11 00:00:00.000,11,55851,2018-04-11 00:00:00.000,14:34:10.0000000,6.2.,0,0,Hydraulic,0,NULL,NULL,NULL,NULL,NULL,NULL,NULL,NULL,NULL,NULL,NULL,NULL,NULL,0,0,0,0,1165,TYNANCS,NULL,NULL,2690.28,884.15,279.01,171.25,111.6,7.7,0,80,7.99,5.22,19,17,14,10,6,100000,17,10,2613.33,1393.51,807.2,248.15,143.34,126.39,75.52,64.74,35.45,7.71,0,0,0,0,16.95,9.25,1.54,0,51.56,28.59,8.2,18.5,12.33,0,0,48.72,30.85,8.64,36.99,23.12,1.54,0,56.74,31.12,9.69,61.65,43.16,1.54,0,52.4,30.92,7.55,3.08,1.54,1.54,0,80.91,52.11,28.8,1.54,-1,NULL,-1,NULL,-1,NULL,-1,NULL,-1,NULL,-1,NULL,9,9,9,10,9,0,10,0,0,2.3,15,0,0,0,0,0,0,0,0,2,-1,-1,-1,-1,-1,-1,-1,-1,-1,-1,-1,-1,-1,-1,-1,-1,-1,-1,-1,-1,0,-1
Unknown,Unknown,NULL,NULL,NULL,NULL,NULL,NULL,Unknown,2018-04-11 00:00:00.000,12,55851,2018-04-11 00:00:00.000,14:40:16.0000000,6.2.,0,0,Hydraulic,0,NULL,NULL,NULL,NULL,NULL,NULL,NULL,NULL,NULL,NULL,NULL,NULL,NULL,0,0,0,0,1165,TYNANCS,NULL,NULL,2441.45,943.91,361.89,207.9,113.57,3.85,1.92,113,8.75,5.87,18,17,15,10,6,100000,17,10,2346.21,1390.18,848.66,318.64,177.02,144.7,63.11,50.8,24.63,3.08,0,0,0,0,30.79,16.93,1.54,1.54,113.73,31.78,19.59,16.93,9.24,0,0,31.63,26.32,4,41.56,21.55,0,0,43.92,27.87,7.37,73.89,41.56,1.54,0,58.14,27.56,6.87,3.08,1.54,0,0,47.45,34.77,12.68,1.54,-1,NULL,-1,NULL,-1,NULL,-1,NULL,-1,NULL,-1,NULL,9,9,9,10,8,0,10,0,0,1.89,15,0,0,0,0,0,0,0,0,2,-1,-1,-1,-1,-1,-1,-1,-1,-1,-1,-1,-1,-1,-1,-1,-1,-1,-1,-1,-1,0,-1
Unknown,Unknown,NULL,NULL,NULL,NULL,NULL,NULL,Unknown,2018-04-11 00:00:00.000,13,55871,2018-04-11 00:00:00.000,14:45:39.0000000,6.2.,0,0,Hydraulic,0,NULL,NULL,NULL,NULL,NULL,NULL,NULL,NULL,NULL,NULL,NULL,NULL,NULL,0,0,0,0,1165,TYNANCS,NULL,NULL,1631.37,193.88,46.18,15.39,7.7,0,0,35,5.85,2.5,18,15,11,7,3,2000,12,8,1619.41,568.59,181.92,42.25,14.63,13,1.63,1.63,0,0,0,0,0,0,3.25,3.25,0,0,34.93,33.28,1.65,1.63,0,0,0,22.77,22.77,0,1.63,1.63,0,0,35.5,35.5,0.01,4.88,1.63,0,0,32.95,25.14,5.57,1.63,0,0,0,20.96,20.96,0,0,-1,NULL,-1,NULL,-1,NULL,-1,NULL,-1,NULL,-1,NULL,8,6,5,5,0,0,8,0,0,0.27,10,0,0,0,0,0,0,0,0,2,-1,-1,-1,-1,-1,-1,-1,-1,-1,-1,-1,-1,-1,-1,-1,-1,-1,-1,-1,-1,0,-1
Unknown,Unknown,NULL,NULL,NULL,NULL,NULL,NULL,Unknown,2018-04-11 00:00:00.000,14,55912,2018-04-11 00:00:00.000,14:51:22.0000000,6.2.,0,0,Hydraulic,0,NULL,NULL,NULL,NULL,NULL,NULL,NULL,NULL,NULL,NULL,NULL,NULL,NULL,0,0,0,0,1165,TYNANCS,NULL,NULL,8255.15,1864.54,598.42,259.76,161.63,15.39,0,68,6.9,4.22,20,18,15,10,NULL,100000,17,11,8131.31,3639.59,1740.69,589.44,219.79,189.82,94.91,84.92,48.29,6.66,1.67,0,0,0,26.64,18.32,3.33,0,68.32,33.08,12.77,54.95,23.31,1.67,0,52.38,25.88,6.26,34.97,18.32,1.67,0,50.92,27.61,7.61,101.57,76.59,6.66,0,59.74,32.23,9.28,6.66,3.33,0,0,38.58,28.64,6.54,5,-1,NULL,-1,NULL,-1,NULL,-1,NULL,-1,NULL,-1,NULL,11,10,9,10,9,0,11,0,0,3.84,17,0,0,0,0,0,0,0,0,2,-1,-1,-1,-1,-1,-1,-1,-1,-1,-1,-1,-1,-1,-1,-1,-1,-1,-1,-1,-1,0,-1
Unknown,Unknown,NULL,NULL,NULL,NULL,NULL,NULL,Unknown,2018-04-11 00:00:00.000,15,55912,2018-04-11 00:00:00.000,14:56:58.0000000,6.2.,0,0,Hydraulic,0,NULL,NULL,NULL,NULL,NULL,NULL,NULL,NULL,NULL,NULL,NULL,NULL,NULL,0,0,0,0,1165,TYNANCS,NULL,NULL,5846.48,1327.94,209.74,76.97,44.26,1.92,0,67,6.5,3.08,20,17,13,9,6,6300,17,10,5778.18,2675.08,1259.63,199.21,63.32,47.87,13.9,13.9,6.18,1.54,0,0,0,0,10.81,7.72,0,0,46.86,30.98,6.99,13.9,9.27,0,0,40.21,27.91,6.19,10.81,3.09,0,0,31.34,23.97,3.21,23.16,13.9,1.54,0,67.19,29.87,10.99,3.09,1.54,0,0,26.72,23.98,2.73,1.54,-1,NULL,-1,NULL,-1,NULL,-1,NULL,-1,NULL,-1,NULL,10,9,7,8,7,0,10,0,0,1.33,15,0,0,0,0,0,0,0,0,0,-1,-1,-1,-1,-1,-1,-1,-1,-1,-1,-1,-1,-1,-1,-1,-1,-1,-1,-1,-1,0,-1
Unknown,Unknown,NULL,NULL,NULL,NULL,NULL,NULL,Unknown,2018-04-11 00:00:00.000,16,55912,2018-04-11 00:00:00.000,15:07:18.0000000,6.2.,0,0,Hydraulic,0,NULL,NULL,NULL,NULL,NULL,NULL,NULL,NULL,NULL,NULL,NULL,NULL,NULL,0,0,0,0,1165,TYNANCS,NULL,NULL,6573.25,1095.69,265.54,142.39,96.21,15.39,1.92,110,6.36,4.05,20,17,14,9,6,100000,17,10,6501.38,2585.54,1023.82,235.47,99.56,86.92,44.25,41.09,20.54,1.58,1.58,0,0,0,14.22,9.48,1.58,0,70.25,33.92,15.26,31.61,20.54,4.74,0,55.97,29.94,11.48,22.12,7.9,1.58,0,52.74,26.87,8.86,42.67,37.93,4.74,1.58,110.93,36.75,17.41,6.32,3.16,0,0,30.55,25.77,4.02,1.58,-1,NULL,-1,NULL,-1,NULL,-1,NULL,-1,NULL,-1,NULL,10,9,8,9,7,0,10,0,0,2.28,15,0,0,0,0,0,0,0,0,2,-1,-1,-1,-1,-1,-1,-1,-1,-1,-1,-1,-1,-1,-1,-1,-1,-1,-1,-1,-1,0,-1
Unknown,Unknown,NULL,NULL,NULL,NULL,NULL,NULL,Unknown,2018-04-11 00:00:00.000,17,55913,2018-04-11 00:00:00.000,15:13:38.0000000,6.2.,0,0,Hydraulic,0,NULL,NULL,NULL,NULL,NULL,NULL,NULL,NULL,NULL,NULL,NULL,NULL,NULL,0,0,0,0,1165,TYNANCS,NULL,NULL,4276.56,269.26,25.01,17.32,9.62,0,0,43,5.39,1.65,19,15,10,7,3,2000,17,10,4268.99,1338.74,261.69,26.28,9.27,9.27,3.09,3.09,0,0,0,0,0,0,4.64,3.09,0,0,27.62,25.66,2.08,3.09,3.09,0,0,43.38,37.31,6.07,4.64,0,0,0,24.63,23.29,1.89,3.09,3.09,0,0,33.14,30.65,2.49,0,0,0,0,0,0,0,0,-1,NULL,-1,NULL,-1,NULL,-1,NULL,-1,NULL,-1,NULL,10,7,5,6,0,0,10,0,0,0.46,11,0,0,0,0,0,0,0,0,2,-1,-1,-1,-1,-1,-1,-1,-1,-1,-1,-1,-1,-1,-1,-1,-1,-1,-1,-1,-1,0,-1
Unknown,Unknown,NULL,NULL,NULL,NULL,NULL,NULL,Unknown,2018-04-11 00:00:00.000,18,55914,2018-04-11 00:00:00.000,15:19:02.0000000,6.2.,0,0,Hydraulic,0,NULL,NULL,NULL,NULL,NULL,NULL,NULL,NULL,NULL,NULL,NULL,NULL,NULL,0,0,0,0,1165,TYNANCS,NULL,NULL,10168.38,527.7,23.09,13.47,9.62,0,0,33,5.28,1.31,21,16,11,8,5,4400,17,11,10165.37,3084.33,524.69,21.19,12.36,10.6,3.53,3.53,0,0,0,0,0,0,0,0,0,0,0,0,0,7.06,5.3,0,0,33.14,28.09,3.56,1.77,1.77,0,0,25.79,25.79,0,3.53,1.77,0,0,32.2,27.82,4.39,0,0,0,0,0,0,0,0,-1,NULL,-1,NULL,-1,NULL,-1,NULL,-1,NULL,-1,NULL,11,8,5,6,0,0,11,0,0,0.96,12,0,34.58,34.58,0,0.42,0,0,0,2,-1,-1,-1,-1,-1,-1,-1,-1,-1,-1,-1,-1,-1,-1,-1,-1,-1,-1,-1,-1,0,-1
Unknown,Unknown,NULL,NULL,NULL,NULL,NULL,NULL,Unknown,2018-04-11 00:00:00.000,19,55915,2018-04-11 00:00:00.000,15:24:19.0000000,6.2.,0,0,Hydraulic,0,NULL,NULL,NULL,NULL,NULL,NULL,NULL,NULL,NULL,NULL,NULL,NULL,NULL,0,0,0,0,1165,TYNANCS,NULL,NULL,275034.3,121182,5646.56,2263.63,1643.3,396.86,290.9,164,7.5,4.26,25,24,18,12,NULL,NULL,17,NULL,273640.6,192750.8,119788.4,4463.49,1555.86,1299.95,692.37,620.15,450.59,277.89,243.35,229.22,189.97,6.44,279.46,138.16,21.98,18.84,152.36,34.48,30.47,141.3,67.51,26.69,0,64.65,31.87,13.69,252.77,139.73,4.71,0,57.41,27.33,6.97,573.05,334.41,47.1,3.14,149.21,30.55,13.49,882.34,799.13,222.94,215.09,164.32,57.06,55.42,436.46,-1,NULL,-1,NULL,-1,NULL,-1,NULL,-1,NULL,-1,NULL,NULL,NULL,12,NULL,NULL,NULL,NULL,0,0.01,102,NULL,0,0,0,0,0,0,0,0,2,-1,-1,-1,-1,-1,-1,-1,-1,-1,-1,-1,-1,-1,-1,-1,-1,-1,-1,-1,-1,0,-1
Unknown,Unknown,NULL,NULL,NULL,NULL,NULL,NULL,Unknown,2018-04-11 00:00:00.000,20,55915,2018-04-11 00:00:00.000,15:29:23.0000000,6.2.,0,0,Hydraulic,0,NULL,NULL,NULL,NULL,NULL,NULL,NULL,NULL,NULL,NULL,NULL,NULL,NULL,0,0,0,0,1165,TYNANCS,NULL,NULL,248633.9,108375.6,3969.59,1066,533,61.57,9.62,206,7.33,2.87,25,24,17,12,NULL,NULL,17,NULL,247660.8,172509.5,107402.5,3595.86,1125.1,875.79,402.74,342.01,177.4,44.75,17.58,6.39,1.6,7.09,95.89,43.15,1.6,0,67.76,25.59,6.29,55.94,9.59,0,0,41.99,23.25,3.98,244.52,92.69,3.2,0,57.83,25.3,5.31,468.26,282.87,39.95,3.2,110.05,30.58,12.45,22.37,14.38,6.39,4.79,206.42,63.12,61.2,7.99,-1,NULL,-1,NULL,-1,NULL,-1,NULL,-1,NULL,-1,NULL,NULL,NULL,12,12,12,12,NULL,0,0,59.74,NULL,0,0,0,0,0,0,0,0,2,-1,-1,-1,-1,-1,-1,-1,-1,-1,-1,-1,-1,-1,-1,-1,-1,-1,-1,-1,-1,0,-1
Unknown,Unknown,NULL,NULL,NULL,NULL,NULL,NULL,Unknown,2018-04-11 00:00:00.000,21,55916,2018-04-11 00:00:00.000,15:36:02.0000000,6.2.,0,0,Hydraulic,0,NULL,NULL,NULL,NULL,NULL,NULL,NULL,NULL,NULL,NULL,NULL,NULL,NULL,0,0,0,0,1165,TYNANCS,NULL,NULL,9273.97,2233.62,365.59,169.33,111.6,13.47,0,89,6.66,3.59,20,18,15,10,NULL,100000,17,11,9173.46,4346.91,2133.11,353.45,164.84,139.48,64.98,58.64,44.38,11.09,3.17,0,0,0,4.75,1.58,0,0,28.16,25.35,2.03,7.92,1.58,0,0,26.6,22.67,2.14,74.49,53.89,11.09,0,89.47,35.58,14.87,49.13,31.7,0,0,42.64,28.12,6.46,3.17,3.17,0,0,30.95,29.88,1.07,0,-1,NULL,-1,NULL,-1,NULL,-1,NULL,-1,NULL,-1,NULL,11,10,9,10,10,0,11,0,0,3.94,14,20.18,35.34,31.82,2.98,1.69,0,0,0,2,-1,-1,-1,-1,-1,-1,-1,-1,-1,-1,-1,-1,-1,-1,-1,-1,-1,-1,-1,-1,0,-1
Unknown,Unknown,NULL,NULL,NULL,NULL,NULL,NULL,Unknown,2018-04-11 00:00:00.000,22,55917,2018-04-11 00:00:00.000,15:46:26.0000000,6.2.,0,0,Hydraulic,0,NULL,NULL,NULL,NULL,NULL,NULL,NULL,NULL,NULL,NULL,NULL,NULL,NULL,0,0,0,0,1165,TYNANCS,NULL,NULL,11326.04,358.19,42.33,13.47,9.62,5.77,0,60,5.2,1.46,21,16,11,8,5,4400,17,11,11320.55,3156.51,352.7,39.15,12.46,10.68,8.9,7.12,5.34,3.56,0,0,0,0,1.78,0,0,0,21.1,21.1,0,0,0,0,0,0,0,0,3.56,3.56,1.78,0,52.51,43.31,9.2,7.12,5.34,3.56,0,60.15,40.96,17.28,0,0,0,0,0,0,0,0,-1,NULL,-1,NULL,-1,NULL,-1,NULL,-1,NULL,-1,NULL,11,7,5,7,8,0,11,0,0,1.35,12,19.14,0,0,0,0,0,0,0,2,-1,-1,-1,-1,-1,-1,-1,-1,-1,-1,-1,-1,-1,-1,-1,-1,-1,-1,-1,-1,0,-1
Unknown,Unknown,NULL,NULL,NULL,NULL,NULL,NULL,Unknown,2018-04-11 00:00:00.000,23,55921,2018-04-11 00:00:00.000,15:52:15.0000000,6.2.,0,0,Hydraulic,0,NULL,NULL,NULL,NULL,NULL,NULL,NULL,NULL,NULL,NULL,NULL,NULL,NULL,0,0,0,0,1165,TYNANCS,NULL,NULL,402.3,35.82,13.47,5.77,3.85,0,0,26,5.79,2.72,16,12,10,5,1,800,10,6,398.36,130.84,31.89,10.96,7.83,6.27,1.57,0,0,0,0,0,0,0,0,0,0,0,0,0,0,0,0,0,0,0,0,0,1.57,0,0,0,20.37,20.37,0,3.13,3.13,0,0,26.72,26.72,0,0,0,0,0,0,0,0,0,-1,NULL,-1,NULL,-1,NULL,-1,NULL,-1,NULL,-1,NULL,6,4,4,0,0,0,6,0,0,0.08,8,0,0,0,0,0,0,0,0,2,-1,-1,-1,-1,-1,-1,-1,-1,-1,-1,-1,-1,-1,-1,-1,-1,-1,-1,-1,-1,0,-1
Unknown,Unknown,NULL,NULL,NULL,NULL,NULL,NULL,Unknown,2018-04-11 00:00:00.000,24,55922,2018-04-11 00:00:00.000,15:58:08.0000000,6.2.,0,0,Hydraulic,0,NULL,NULL,NULL,NULL,NULL,NULL,NULL,NULL,NULL,NULL,NULL,NULL,NULL,0,0,0,0,1165,TYNANCS,NULL,NULL,424.55,38.24,9.62,3.85,3.85,0,0,40,5.66,2.5,16,12,9,5,1,800,15,6,424.29,148.86,37.97,6.24,3.12,3.12,1.56,1.56,1.56,0,0,0,0,0,0,0,0,0,0,0,0,0,0,0,0,0,0,0,1.56,1.56,0,0,40.51,40.51,0.01,3.12,1.56,0,0,25.49,24.52,0.97,0,0,0,0,0,0,0,1.56,-1,NULL,-1,NULL,-1,NULL,-1,NULL,-1,NULL,-1,NULL,6,4,3,5,0,0,6,0,0,0.07,15,20.24,0,0,0,0,0,0,0,2,-1,-1,-1,-1,-1,-1,-1,-1,-1,-1,-1,-1,-1,-1,-1,-1,-1,-1,-1,-1,0,-1
Unknown,Unknown,NULL,NULL,NULL,NULL,NULL,NULL,Unknown,2018-04-11 00:00:00.000,25,55923,2018-04-11 00:00:00.000,16:03:57.0000000,6.2.,0,0,Hydraulic,0,NULL,NULL,NULL,NULL,NULL,NULL,NULL,NULL,NULL,NULL,NULL,NULL,NULL,0,0,0,0,1165,TYNANCS,NULL,NULL,1024.91,67.85,9.62,7.7,1.92,1.92,0,54,5.48,2.53,17,13,9,5,2,800,11,8,1022.94,321.36,65.88,7.97,4.78,1.59,1.59,1.59,1.59,0,0,0,0,0,1.59,0,0,0,21.25,21.25,0,0,0,0,0,0,0,0,1.59,0,0,0,21.1,21.1,0,3.19,1.59,1.59,0,54,38.39,15.62,0,0,0,0,0,0,0,0,-1,NULL,-1,NULL,-1,NULL,-1,NULL,-1,NULL,-1,NULL,8,5,4,5,0,0,8,0,0,0.17,9,0,0,0,0,0,0,0,0,2,-1,-1,-1,-1,-1,-1,-1,-1,-1,-1,-1,-1,-1,-1,-1,-1,-1,-1,-1,-1,0,-1
Unknown,Unknown,NULL,NULL,NULL,NULL,NULL,NULL,Unknown,2018-04-11 00:00:00.000,26,55924,2018-04-11 00:00:00.000,16:09:59.0000000,6.2.,0,0,Hydraulic,0,NULL,NULL,NULL,NULL,NULL,NULL,NULL,NULL,NULL,NULL,NULL,NULL,NULL,0,0,0,0,1165,TYNANCS,NULL,NULL,1504.31,496.53,132.77,71.19,42.33,3.85,0,63,7.71,4.76,18,16,13,9,6,100000,17,9,1469.4,804.54,461.62,118.01,60.56,55.9,32.61,24.84,21.74,6.21,0,0,0,0,4.66,3.11,0,0,38.34,31.09,6.15,3.11,0,0,0,23.43,21.9,1.53,13.97,4.66,0,0,30.05,24.02,2.74,35.71,26.4,3.11,0,63.26,33.67,11.31,1.55,0,0,0,23.55,23.55,0,1.55,-1,NULL,-1,NULL,-1,NULL,-1,NULL,-1,NULL,-1,NULL,8,8,7,9,9,0,9,0,0,1.26,15,0,0,0,0,0,0,0,0,2,-1,-1,-1,-1,-1,-1,-1,-1,-1,-1,-1,-1,-1,-1,-1,-1,-1,-1,-1,-1,0,-1
Unknown,Unknown,NULL,NULL,NULL,NULL,NULL,NULL,Unknown,2018-04-14 00:00:00.000,2,55973,2018-04-14 00:00:00.000,13:10:11.0000000,6.2.,0,0,Hydraulic,0,NULL,NULL,NULL,NULL,NULL,NULL,NULL,NULL,NULL,NULL,NULL,NULL,NULL,0,0,0,0,1165,NULL,NULL,NULL,1940.64,563.43,96.21,40.41,21.17,1.92,0,68,6.99,3.61,18,16,12,8,5,4400,17,8,1910.58,977.96,533.38,98.49,32.32,26.16,7.69,4.62,3.08,1.54,0,0,0,0,1.54,1.54,0,0,26.72,26.72,0,4.62,1.54,0,0,34.31,26.12,5.91,18.47,10.77,0,0,39.6,27.06,5.55,4.62,1.54,0,0,26.72,25.12,1.13,3.08,1.54,1.54,0,68.12,45.64,22.49,1.54,-1,NULL,-1,NULL,-1,NULL,-1,NULL,-1,NULL,-1,NULL,8,8,6,6,7,0,8,0,0,0.58,15,14.92,0,0,0,0,0,0,0,2,-1,-1,-1,-1,-1,-1,-1,-1,-1,-1,-1,-1,-1,-1,-1,-1,-1,-1,-1,-1,0,-1
Unknown,Unknown,NULL,NULL,NULL,NULL,NULL,NULL,Unknown,2018-04-14 00:00:00.000,3,55974,2018-04-14 00:00:00.000,14:41:18.0000000,6.2.,0,0,Hydraulic,0,NULL,NULL,NULL,NULL,NULL,NULL,NULL,NULL,NULL,NULL,NULL,NULL,NULL,0,0,0,0,1165,NULL,NULL,NULL,619.72,218.59,59.65,30.79,15.39,0,0,39,7.82,4.32,16,15,12,7,3,2000,11,7,603.92,356.56,202.8,50.78,20.01,15.39,6.16,6.16,1.54,0,0,0,0,0,1.54,1.54,0,0,34.4,34.4,0.01,3.08,1.54,0,0,25.95,24.02,1.93,10.77,1.54,0,0,28.91,22.6,2.82,9.23,7.69,0,0,39.14,28.11,5.2,0,0,0,0,0,0,0,0,-1,NULL,-1,NULL,-1,NULL,-1,NULL,-1,NULL,-1,NULL,7,7,6,7,0,0,7,0,0,0.26,10,18.42,0,0,0,0,0,0,0,2,-1,-1,-1,-1,-1,-1,-1,-1,-1,-1,-1,-1,-1,-1,-1,-1,-1,-1,-1,-1,0,-1
Unknown,Unknown,NULL,NULL,NULL,NULL,NULL,NULL,Unknown,2018-04-14 00:00:00.000,4,55975,2018-04-14 00:00:00.000,14:48:11.0000000,6.2.,0,0,Hydraulic,0,NULL,NULL,NULL,NULL,NULL,NULL,NULL,NULL,NULL,NULL,NULL,NULL,NULL,0,0,0,0,1165,NULL,NULL,NULL,326.88,72.83,28.86,9.62,5.77,1.92,0,59,7.1,4.92,15,13,11,6,2,1300,17,6,319.56,135.71,65.51,24.62,10.77,9.23,3.08,3.08,1.54,0,0,0,0,0,1.54,0,0,0,21.16,21.16,0,1.54,1.54,0,0,35.64,35.64,0,1.54,0,0,0,23.15,23.15,0,3.08,3.08,1.54,0,59.49,44.2,15.29,0,0,0,0,0,0,0,4.62,-1,NULL,-1,NULL,-1,NULL,-1,NULL,-1,NULL,-1,NULL,6,5,5,6,0,0,6,0,0,0.13,17,19.43,0,0,0,0,0,0,0,2,-1,-1,-1,-1,-1,-1,-1,-1,-1,-1,-1,-1,-1,-1,-1,-1,-1,-1,-1,-1,0,-1
Unknown,Unknown,NULL,NULL,NULL,NULL,NULL,NULL,Unknown,2018-04-14 00:00:00.000,5,55976,2018-04-14 00:00:00.000,14:55:48.0000000,6.2.,0,0,Hydraulic,0,NULL,NULL,NULL,NULL,NULL,NULL,NULL,NULL,NULL,NULL,NULL,NULL,NULL,0,0,0,0,1165,NULL,NULL,NULL,218.82,71.74,21.17,13.47,13.47,3.85,0,82,8.34,7.22,15,13,11,6,3,2000,16,6,214.58,110.96,67.5,18.47,10.77,9.23,6.16,4.62,3.08,0,0,0,0,0,1.54,1.54,0,0,30.95,30.95,0,0,0,0,0,0,0,0,1.54,1.54,0,0,26.14,26.14,0,6.16,6.16,1.54,0,50.92,37.65,10.95,1.54,1.54,1.54,0,82.11,82.11,0.01,3.08,-1,NULL,-1,NULL,-1,NULL,-1,NULL,-1,NULL,-1,NULL,5,5,5,6,0,0,6,0,0,0.19,16,17.16,0,0,0,0,0,0,0,2,-1,-1,-1,-1,-1,-1,-1,-1,-1,-1,-1,-1,-1,-1,-1,-1,-1,-1,-1,-1,0,-1
Unknown,Unknown,NULL,NULL,NULL,NULL,NULL,NULL,Unknown,2018-04-14 00:00:00.000,6,55865,2018-04-14 00:00:00.000,15:10:14.0000000,6.2.,0,0,Hydraulic,0,NULL,NULL,NULL,NULL,NULL,NULL,NULL,NULL,NULL,NULL,NULL,NULL,NULL,0,0,0,0,1165,NULL,NULL,NULL,1152.07,387.48,94.32,61.6,46.2,3.85,0,93,7.78,5.11,17,16,13,8,5,6300,15,8,1132.07,652.53,367.48,67.77,40.05,35.43,23.1,18.48,10.78,3.08,1.54,0,0,0,1.54,1.54,0,0,28.16,28.16,0.01,6.16,4.62,0,0,40.21,29.67,7.31,7.7,4.62,0,0,43.21,27.61,8.14,32.35,24.65,3.08,0,93.09,37.82,19.05,1.54,1.54,0,0,27.62,27.62,0,1.54,-1,NULL,-1,NULL,-1,NULL,-1,NULL,-1,NULL,-1,NULL,8,7,7,8,8,0,8,0,0,1.01,15,36.85,0,0,0,0,0,0,0,2,-1,-1,-1,-1,-1,-1,-1,-1,-1,-1,-1,-1,-1,-1,-1,-1,-1,-1,-1,-1,0,-1
Unknown,Unknown,NULL,NULL,NULL,NULL,NULL,NULL,Unknown,2018-04-14 00:00:00.000,7,55864,2018-04-14 00:00:00.000,15:18:51.0000000,6.2.,0,0,Hydraulic,0,NULL,NULL,NULL,NULL,NULL,NULL,NULL,NULL,NULL,NULL,NULL,NULL,NULL,0,0,0,0,1165,NULL,NULL,NULL,480.18,79.05,28.86,11.55,7.7,1.92,0,50,6.51,4.31,16,13,10,6,2,800,11,6,473.63,186.15,72.5,24.62,7.69,3.08,3.08,3.08,1.54,0,0,0,0,0,1.54,1.54,0,0,26.23,26.23,0,3.08,0,0,0,24.33,23.21,1.12,0,0,0,0,0,0,0,4.62,4.62,1.54,0,50.86,42.83,7.83,0,0,0,0,0,0,0,0,-1,NULL,-1,NULL,-1,NULL,-1,NULL,-1,NULL,-1,NULL,6,5,4,6,0,0,6,0,0,0.18,9,26.05,0,0,0,0,0,0,0,2,-1,-1,-1,-1,-1,-1,-1,-1,-1,-1,-1,-1,-1,-1,-1,-1,-1,-1,-1,-1,0,-1
Unknown,Unknown,NULL,NULL,NULL,NULL,NULL,NULL,Unknown,2018-04-19 00:00:00.000,0,56020,2018-04-19 00:00:00.000,09:10:30.0000000,6.2.,0,0,Hydraulic,0,NULL,NULL,NULL,NULL,NULL,NULL,NULL,NULL,NULL,NULL,NULL,NULL,NULL,0,0,0,0,1165,SALAZARJL,NULL,NULL,1379.41,396.29,50.03,26.94,17.32,0,0,36,6.91,3.27,18,16,12,8,4,4400,16,8,1352.51,669.78,369.39,60.27,24.72,21.63,10.82,9.27,4.64,0,0,0,0,0,1.55,1.55,0,0,28.91,28.91,0.01,3.09,3.09,0,0,33.6,32.9,0.7,7.73,3.09,0,0,32.11,25.12,3.83,7.73,4.64,0,0,36.47,29.11,6,1.55,1.55,0,0,34.4,34.4,0.01,3.09,-1,NULL,-1,NULL,-1,NULL,-1,NULL,-1,NULL,-1,NULL,8,7,6,7,0,0,8,0,0,0.43,16,0,55.97,37.81,9.25,1.55,0.39,0.19,0,2,-1,-1,-1,-1,-1,-1,-1,-1,-1,-1,-1,-1,-1,-1,-1,-1,-1,-1,-1,-1,0,-1
Unknown,Unknown,NULL,NULL,NULL,NULL,NULL,NULL,Unknown,2018-04-23 00:00:00.000,1,56034,2018-04-23 00:00:00.000,09:05:55.0000000,6.2.,0,0,Hydraulic,0,NULL,NULL,NULL,NULL,NULL,NULL,NULL,NULL,NULL,NULL,NULL,NULL,NULL,0,0,0,0,1165,HARGISZP,NULL,NULL,172.25,24.94,7.7,5.77,1.92,1.92,0,79,6.54,5.38,15,12,9,5,1,400,9,5,169.94,66.15,22.63,9.24,3.08,3.08,3.08,1.54,0,0,0,0,0,0,1.54,1.54,1.54,0,79.17,79.17,0.01,0,0,0,0,0,0,0,1.54,0,0,0,23.95,23.95,0,1.54,0,0,0,23.95,23.95,0,0,0,0,0,0,0,0,0,-1,NULL,-1,NULL,-1,NULL,-1,NULL,-1,NULL,-1,NULL,5,3,3,5,0,0,5,0,0,0.05,8,0,0,0,0,0,0,0,0,2,-1,-1,-1,-1,-1,-1,-1,-1,-1,-1,-1,-1,-1,-1,-1,-1,-1,-1,-1,-1,0,-1
Unknown,Unknown,NULL,NULL,NULL,NULL,NULL,NULL,Unknown,2018-04-28 00:00:00.000,0,56061,2018-04-28 00:00:00.000,21:36:38.0000000,6.2.,0,0,Hydraulic,0,NULL,NULL,NULL,NULL,NULL,NULL,NULL,NULL,NULL,NULL,NULL,NULL,NULL,0,0,0,0,1165,TYNANCS,NULL,NULL,110289,28024.65,8104.81,7473.62,5083.07,2.1,0,50,7.31,4.81,24,22,19,12,NULL,NULL,17,NULL,108805.9,51532.33,26541.54,5800.55,2514.48,2217.45,826.21,551.38,382.38,0,0,0,0,0,1797.52,551.38,0,0,49.21,25.37,4.78,230.45,34.14,0,0,39.83,23.45,2.59,10.24,5.12,0,0,39.05,26.35,6.56,4279.57,3729.9,1.71,0,50.92,33.47,7.24,698.18,295.32,0,0,27.62,24.14,1.81,2490.58,-1,NULL,-1,NULL,-1,NULL,-1,NULL,-1,NULL,-1,NULL,NULL,NULL,NULL,NULL,0,0,NULL,0,0,35.04,NULL,0,0,0,0,0,0,0,0,2,-1,-1,-1,-1,-1,-1,-1,-1,-1,-1,-1,-1,-1,-1,-1,-1,-1,-1,-1,-1,0,-1
Unknown,Unknown,NULL,NULL,NULL,NULL,NULL,NULL,Unknown,2018-04-28 00:00:00.000,1,56061,2018-04-28 00:00:00.000,21:43:36.0000000,6.2.,0,0,Hydraulic,0,NULL,NULL,NULL,NULL,NULL,NULL,NULL,NULL,NULL,NULL,NULL,NULL,NULL,0,0,0,0,1165,TYNANCS,NULL,NULL,74407.59,17837.14,4375.42,2121.3,1368.64,63.52,0,96,6.83,3.89,23,21,17,12,NULL,NULL,17,NULL,73521.02,33647.21,16950.57,2633.43,1284.91,1027.29,368.93,162.2,46.12,6.36,4.77,0,0,0,375.3,139.94,4.77,0,64.93,27.04,8.51,42.94,23.85,1.59,0,58.91,27.19,7.9,182.88,38.17,0,0,30.62,23.49,2.27,1327.85,938.24,46.12,0,96.68,30.95,10.35,46.12,22.26,0,0,39.6,25.75,5.45,402.33,-1,NULL,-1,NULL,-1,NULL,-1,NULL,-1,NULL,-1,NULL,NULL,NULL,12,11,9,0,NULL,0,0,19.18,NULL,0,0,0,0,0,0,0,0,2,-1,-1,-1,-1,-1,-1,-1,-1,-1,-1,-1,-1,-1,-1,-1,-1,-1,-1,-1,-1,0,-1
Unknown,Unknown,NULL,NULL,NULL,NULL,NULL,NULL,Unknown,2018-04-29 00:00:00.000,0,56062,2018-04-29 00:00:00.000,13:48:05.0000000,6.2.,0,0,Hydraulic,0,NULL,NULL,NULL,NULL,NULL,NULL,NULL,NULL,NULL,NULL,NULL,NULL,NULL,0,0,0,0,1165,TEALD,NULL,NULL,5624.72,430.2,186.65,92.36,38.48,5.77,0,68,5.72,2.95,20,16,14,9,5,100000,17,10,5593.78,1720.58,399.27,172.7,95.57,87.19,33.53,30.18,16.77,3.35,0,0,0,0,15.09,3.35,0,0,28.16,23.48,2.2,0,0,0,0,0,0,0,23.47,6.71,0,0,28.62,23.9,2.31,41.92,23.47,5.03,0,68.5,32.06,13.16,0,0,0,0,0,0,0,3.35,-1,NULL,-1,NULL,-1,NULL,-1,NULL,-1,NULL,-1,NULL,10,8,8,9,8,0,10,0,0,1.74,17,0,0,0,0,0,0,0,0,-2113658336,-1,-1,-1,-1,-1,-1,-1,-1,-1,-1,-1,-1,-1,-1,-1,-1,-1,-1,-1,-1,0,-1
Unknown,Unknown,NULL,NULL,NULL,NULL,NULL,NULL,Unknown,2018-04-29 00:00:00.000,1,56062,2018-04-29 00:00:00.000,13:52:23.0000000,6.2.,0,0,Hydraulic,0,NULL,NULL,NULL,NULL,NULL,NULL,NULL,NULL,NULL,NULL,NULL,NULL,NULL,0,0,0,0,1165,TEALD,NULL,NULL,1483.51,571.37,211.66,92.36,55.8,1.92,0,52,8.52,4.99,18,16,14,9,6,100000,12,9,1422.39,805.36,510.26,192.48,87.77,75.45,40.04,33.88,18.48,0,0,0,0,0,6.16,4.62,0,0,43.77,30.29,7.87,4.62,1.54,0,0,43.21,29.98,9.35,16.94,7.7,0,0,36.98,26.06,4.51,44.66,29.26,1.54,0,52.34,30.26,8.03,1.54,1.54,0,0,25.79,25.79,0,0,-1,NULL,-1,NULL,-1,NULL,-1,NULL,-1,NULL,-1,NULL,8,8,8,9,0,0,9,0,0,1.15,13,0,0,0,0,0,0,0,0,-2113658336,-1,-1,-1,-1,-1,-1,-1,-1,-1,-1,-1,-1,-1,-1,-1,-1,-1,-1,-1,-1,0,-1
Unknown,Unknown,NULL,NULL,NULL,NULL,NULL,NULL,Unknown,2018-05-03 00:00:00.000,0,56069,2018-05-03 00:00:00.000,13:37:49.0000000,6.2.,0,0,Hydraulic,0,NULL,NULL,NULL,NULL,NULL,NULL,NULL,NULL,NULL,NULL,NULL,NULL,NULL,0,0,0,0,1165,TEALD,NULL,NULL,120.75,40.52,13.47,7.7,3.85,0,0,34,7.94,4.67,14,12,9,5,1,800,9,5,117.28,63.8,37.06,13.85,4.62,4.62,1.54,1.54,0,0,0,0,0,0,1.54,1.54,0,0,34.4,34.4,0.01,0,0,0,0,0,0,0,4.62,1.54,0,0,30.55,25.33,3.92,0,0,0,0,0,0,0,0,0,0,0,0,0,0,0,-1,NULL,-1,NULL,-1,NULL,-1,NULL,-1,NULL,-1,NULL,4,4,4,5,0,0,5,0,0,0.06,8,0,0,0,0,0,0,0,0,1,-1,-1,-1,-1,-1,-1,-1,-1,-1,-1,-1,-1,-1,-1,-1,-1,-1,-1,-1,-1,0,-1
Unknown,Unknown,NULL,NULL,NULL,NULL,NULL,NULL,Unknown,2018-05-03 00:00:00.000,1,56070,2018-05-03 00:00:00.000,13:45:00.0000000,6.2.,0,0,Hydraulic,0,NULL,NULL,NULL,NULL,NULL,NULL,NULL,NULL,NULL,NULL,NULL,NULL,NULL,0,0,0,0,1165,TEALD,NULL,NULL,107.07,13.47,11.55,9.62,7.7,0,0,44,7.16,5.54,14,11,10,6,2,2000,15,6,104.37,34.17,10.77,10.77,7.69,7.69,3.08,3.08,3.08,0,0,0,0,0,0,0,0,0,0,0,0,1.54,1.54,0,0,34.4,34.4,0.01,0,0,0,0,0,0,0,6.16,4.62,0,0,44.18,33.78,9.4,0,0,0,0,0,0,0,1.54,-1,NULL,-1,NULL,-1,NULL,-1,NULL,-1,NULL,-1,NULL,4,2,4,6,0,0,6,0,0,0.11,15,0,0,0,0,0,0,0,0,2,-1,-1,-1,-1,-1,-1,-1,-1,-1,-1,-1,-1,-1,-1,-1,-1,-1,-1,-1,-1,0,-1
Unknown,Unknown,NULL,NULL,NULL,NULL,NULL,NULL,Unknown,2018-05-03 00:00:00.000,2,56070,2018-05-03 00:00:00.000,13:54:55.0000000,6.2.,0,0,Hydraulic,0,NULL,NULL,NULL,NULL,NULL,NULL,NULL,NULL,NULL,NULL,NULL,NULL,NULL,0,0,0,0,1165,TEALD,NULL,NULL,366.79,59.26,1.92,1.92,1.92,0,0,27,5.91,2.26,16,13,8,5,2,400,15,6,365.63,161.72,58.1,1.54,1.54,1.54,1.54,1.54,0,0,0,0,0,0,0,0,0,0,0,0,0,0,0,0,0,0,0,0,0,0,0,0,0,0,0,1.54,1.54,0,0,27.4,27.4,0,1.54,1.54,0,0,25.2,25.2,0.01,1.54,-1,NULL,-1,NULL,-1,NULL,-1,NULL,-1,NULL,-1,NULL,6,5,2,5,0,0,6,0,0,0.05,15,0,44.09,44.09,0,1.93,1.93,0,0,1,-1,-1,-1,-1,-1,-1,-1,-1,-1,-1,-1,-1,-1,-1,-1,-1,-1,-1,-1,-1,0,-1
Unknown,Unknown,NULL,NULL,NULL,NULL,NULL,NULL,Unknown,2018-05-03 00:00:00.000,4,56070,2018-05-03 00:00:00.000,14:14:33.0000000,6.2.,0,0,Hydraulic,0,NULL,NULL,NULL,NULL,NULL,NULL,NULL,NULL,NULL,NULL,NULL,NULL,NULL,0,0,0,0,1165,TEALD,NULL,NULL,168.25,88.02,15.39,7.7,7.7,0,0,33,8.75,4.45,15,14,10,5,2,800,10,5,164.01,137.27,83.78,12.31,9.23,6.16,1.54,1.54,1.54,0,0,0,0,0,1.54,1.54,0,0,33.14,33.14,0,1.54,1.54,0,0,25.43,25.43,0,0,0,0,0,0,0,0,3.08,3.08,0,0,32.05,31.1,0.95,0,0,0,0,0,0,0,0,-1,NULL,-1,NULL,-1,NULL,-1,NULL,-1,NULL,-1,NULL,5,5,5,5,0,0,5,0,0,0.08,9,11.56,0,0,0,0,0,0,0,1,-1,-1,-1,-1,-1,-1,-1,-1,-1,-1,-1,-1,-1,-1,-1,-1,-1,-1,-1,-1,0,-1
Unknown,Unknown,NULL,NULL,NULL,NULL,NULL,NULL,Unknown,2018-05-03 00:00:00.000,5,56071,2018-05-03 00:00:00.000,14:30:57.0000000,6.2.,0,0,Hydraulic,0,NULL,NULL,NULL,NULL,NULL,NULL,NULL,NULL,NULL,NULL,NULL,NULL,NULL,0,0,0,0,1165,TEALD,NULL,NULL,23052.96,2461.73,186.65,61.57,40.41,0,0,38,5.61,1.87,22,18,13,10,NULL,15000,17,12,23003.63,8369.15,2412.41,163.12,75.4,66.17,27.7,26.16,9.23,0,0,0,0,0,29.24,1.54,0,0,28.91,21.83,2.02,0,0,0,0,0,0,0,9.23,6.16,0,0,28.37,25.37,2.82,35.39,23.08,0,0,38.34,27.94,5.09,10.77,1.54,0,0,27.62,21.99,2.45,1.54,-1,NULL,-1,NULL,-1,NULL,-1,NULL,-1,NULL,-1,NULL,12,10,8,9,0,0,12,0,0,2.86,15,0,0,0,0,0,0,0,0,2,-1,-1,-1,-1,-1,-1,-1,-1,-1,-1,-1,-1,-1,-1,-1,-1,-1,-1,-1,-1,0,-1
Unknown,Unknown,NULL,NULL,NULL,NULL,NULL,NULL,Unknown,2018-05-03 00:00:00.000,6,56071,2018-05-03 00:00:00.000,14:44:33.0000000,6.2.,0,0,Hydraulic,0,NULL,NULL,NULL,NULL,NULL,NULL,NULL,NULL,NULL,NULL,NULL,NULL,NULL,0,0,0,0,1165,TEALD,NULL,NULL,7195.58,2388.94,242.84,106,63.6,7.71,1.93,104,7.04,3.69,20,18,14,10,NULL,100000,17,10,7136.94,4250.19,2330.29,221.76,97.7,88.39,46.52,37.22,18.61,3.1,0,0,0,5.95,6.2,3.1,1.55,1.55,104.7,45.49,34.22,1.55,0,0,0,22.77,22.77,0,20.16,7.75,0,0,33.21,25.02,3.11,54.28,37.22,3.1,0,65.4,29.98,9.1,6.2,3.1,1.55,0,93.57,41.48,30.28,987.83,-1,NULL,-1,NULL,-1,NULL,-1,NULL,-1,NULL,-1,NULL,10,10,8,9,8,0,10,0,0,2.33,NULL,0,0,0,0,0,0,0,0,2,-1,-1,-1,-1,-1,-1,-1,-1,-1,-1,-1,-1,-1,-1,-1,-1,-1,-1,-1,-1,0,-1
Unknown,Unknown,NULL,NULL,NULL,NULL,NULL,NULL,Unknown,2018-05-04 00:00:00.000,0,56072,2018-05-04 00:00:00.000,12:38:30.0000000,6.2.,0,0,Hydraulic,0,NULL,NULL,NULL,NULL,NULL,NULL,NULL,NULL,NULL,NULL,NULL,NULL,NULL,0,0,0,0,1165,TEALD,NULL,NULL,29651.78,10384.28,725.42,236.67,115.45,0,0,46,6.98,2.88,22,21,15,12,NULL,100000,17,12,29461.04,18600.51,10193.54,629.39,249.29,204.67,86.18,76.94,40.01,0,0,0,0,0,6.16,3.08,0,0,28.62,24.98,2.48,3.08,1.54,0,0,45.1,34.9,10.2,56.94,24.62,0,0,43.01,25.28,4.72,123.11,63.09,0,0,46.14,26.66,5.58,0,0,0,0,0,0,0,0,-1,NULL,-1,NULL,-1,NULL,-1,NULL,-1,NULL,-1,NULL,12,12,9,10,0,0,12,0,0,6.49,14,0,0,0,0,0,0,0,0,2,-1,-1,-1,-1,-1,-1,-1,-1,-1,-1,-1,-1,-1,-1,-1,-1,-1,-1,-1,-1,0,-1
Unknown,Unknown,NULL,NULL,NULL,NULL,NULL,NULL,Unknown,2018-05-04 00:00:00.000,1,56072,2018-05-04 00:00:00.000,12:45:51.0000000,6.2.,0,0,Hydraulic,0,NULL,NULL,NULL,NULL,NULL,NULL,NULL,NULL,NULL,NULL,NULL,NULL,NULL,0,0,0,0,1165,TEALD,NULL,NULL,47912.96,13670.03,1012.12,288.63,134.69,7.7,3.85,209,6.62,2.84,23,21,16,12,NULL,100000,17,NULL,47635.14,26097.92,13392.2,840.21,330.85,278.53,106.18,95.41,53.86,6.16,3.08,3.08,1.54,8.27,16.93,4.62,0,0,28.16,24.15,2.03,3.08,1.54,1.54,0,83.59,53.37,30.22,69.25,32.32,1.54,0,50.45,26.61,6.57,138.5,67.71,1.54,1.54,108.03,27.73,10.3,3.08,1.54,1.54,1.54,209.35,116.45,92.9,1.54,-1,NULL,-1,NULL,-1,NULL,-1,NULL,-1,NULL,-1,NULL,NULL,NULL,10,10,9,11,NULL,0,0,10.43,15,0,0,0,0,0,0,0,0,2,-1,-1,-1,-1,-1,-1,-1,-1,-1,-1,-1,-1,-1,-1,-1,-1,-1,-1,-1,-1,0,-1
Unknown,Unknown,NULL,NULL,NULL,NULL,NULL,NULL,Unknown,2018-05-08 00:00:00.000,0,56084,2018-05-08 00:00:00.000,08:49:18.0000000,6.2.,0,0,Hydraulic,0,NULL,NULL,NULL,NULL,NULL,NULL,NULL,NULL,NULL,NULL,NULL,NULL,NULL,0,0,0,0,1165,NULL,NULL,NULL,1372.56,329.63,59.65,17.32,11.55,1.92,0,89,6.63,3.44,18,15,12,7,4,2000,17,8,1357.92,682.68,314.98,47.7,21.54,16.93,4.62,4.62,3.08,0,0,0,0,0,4.62,3.08,0,0,30.55,27.01,2.54,1.54,1.54,0,0,30.78,30.78,0,1.54,0,0,0,22.09,22.09,0,6.16,4.62,1.54,0,89.77,44.15,27.12,0,0,0,0,0,0,0,3.08,-1,NULL,-1,NULL,-1,NULL,-1,NULL,-1,NULL,-1,NULL,8,7,6,6,0,0,8,0,0,0.35,16,0,0,0,0,0,0,0,0,2,-1,-1,-1,-1,-1,-1,-1,-1,-1,-1,-1,-1,-1,-1,-1,-1,-1,-1,-1,-1,0,-1
Unknown,Unknown,NULL,NULL,NULL,NULL,NULL,NULL,Unknown,2018-05-08 00:00:00.000,1,56084,2018-05-08 00:00:00.000,10:47:41.0000000,6.2.,0,0,Hydraulic,0,NULL,NULL,NULL,NULL,NULL,NULL,NULL,NULL,NULL,NULL,NULL,NULL,NULL,0,0,0,0,1165,NULL,NULL,NULL,2840.17,112.5,36.56,15.39,11.55,0,0,38,5.32,1.78,19,14,11,6,3,2000,17,9,2832.46,806.76,104.79,35.39,18.47,12.31,4.62,4.62,3.08,0,0,0,0,0,1.54,0,0,0,22.77,22.77,0,0,0,0,0,0,0,0,4.62,3.08,0,0,30.78,26.67,3.07,6.16,6.16,0,0,38.66,31.43,5.18,0,0,0,0,0,0,0,1.54,-1,NULL,-1,NULL,-1,NULL,-1,NULL,-1,NULL,-1,NULL,9,6,6,6,0,0,9,0,0,0.37,15,0,0,0,0,0,0,0,0,2,-1,-1,-1,-1,-1,-1,-1,-1,-1,-1,-1,-1,-1,-1,-1,-1,-1,-1,-1,-1,0,-1
Unknown,Unknown,NULL,NULL,NULL,NULL,NULL,NULL,Unknown,2018-05-08 00:00:00.000,2,56088,2018-05-08 00:00:00.000,10:56:17.0000000,6.2.,0,0,Hydraulic,0,NULL,NULL,NULL,NULL,NULL,NULL,NULL,NULL,NULL,NULL,NULL,NULL,NULL,0,0,0,0,1165,NULL,NULL,NULL,2882.41,628.9,78.89,26.94,13.47,0,0,44,6.36,2.73,19,16,12,8,5,4400,17,9,2852.43,1303.14,598.92,76.99,27.72,21.56,7.7,7.7,6.16,0,0,0,0,0,3.08,1.54,0,0,25.79,23.94,1.85,3.08,0,0,0,21.1,20.74,0.37,6.16,3.08,0,0,39.05,26.61,7.4,9.24,6.16,0,0,44.53,30.62,7.75,0,0,0,0,0,0,0,1.54,-1,NULL,-1,NULL,-1,NULL,-1,NULL,-1,NULL,-1,NULL,9,8,6,7,0,0,9,0,0,0.63,15,19.38,0,0,0,0,0,0,0,2,-1,-1,-1,-1,-1,-1,-1,-1,-1,-1,-1,-1,-1,-1,-1,-1,-1,-1,-1,-1,0,-1
Unknown,Unknown,NULL,NULL,NULL,NULL,NULL,NULL,Unknown,2018-05-08 00:00:00.000,3,56089,2018-05-08 00:00:00.000,11:06:49.0000000,6.2.,0,0,Hydraulic,0,NULL,NULL,NULL,NULL,NULL,NULL,NULL,NULL,NULL,NULL,NULL,NULL,NULL,0,0,0,0,1165,NULL,NULL,NULL,3685.91,784.42,80.82,44.26,26.94,1.92,0,55,6.35,2.94,19,17,12,9,5,4400,17,9,3648.53,1599.44,747.04,90.79,32.32,27.7,13.85,13.85,4.62,1.54,0,0,0,0,1.54,0,0,0,23.43,23.43,0.01,7.69,4.62,0,0,39.05,30.03,7,12.31,7.69,1.54,0,56,28.8,10.82,13.85,9.23,0,0,44.53,29.05,7.41,0,0,0,0,0,0,0,0,-1,NULL,-1,NULL,-1,NULL,-1,NULL,-1,NULL,-1,NULL,9,8,6,8,7,0,9,0,0,0.91,12,0,0,0,0,0,0,0,0,2,-1,-1,-1,-1,-1,-1,-1,-1,-1,-1,-1,-1,-1,-1,-1,-1,-1,-1,-1,-1,0,-1
Unknown,Unknown,NULL,NULL,NULL,NULL,NULL,NULL,Unknown,2018-05-08 00:00:00.000,4,56089,2018-05-08 00:00:00.000,11:14:32.0000000,6.2.,0,0,Hydraulic,0,NULL,NULL,NULL,NULL,NULL,NULL,NULL,NULL,NULL,NULL,NULL,NULL,NULL,0,0,0,0,1165,NULL,NULL,NULL,4004.86,761.96,132.77,28.86,21.17,0,0,44,6.25,2.71,19,17,12,9,5,4400,17,9,3961.94,1646.62,719.03,134.62,36,25.05,15.65,12.52,7.83,0,0,0,0,0,0,0,0,0,0,0,0,3.13,0,0,0,21.25,21.25,0,9.39,7.83,0,0,44.4,31.19,8.46,10.96,9.39,0,0,41.11,30.98,6.17,0,0,0,0,0,0,0,1.57,-1,NULL,-1,NULL,-1,NULL,-1,NULL,-1,NULL,-1,NULL,9,8,7,8,0,0,9,0,0,0.91,15,0,0,0,0,0,0,0,0,2,-1,-1,-1,-1,-1,-1,-1,-1,-1,-1,-1,-1,-1,-1,-1,-1,-1,-1,-1,-1,0,-1
Unknown,Unknown,NULL,NULL,NULL,NULL,NULL,NULL,Unknown,2018-05-08 00:00:00.000,5,56090,2018-05-08 00:00:00.000,11:21:48.0000000,6.2.,0,0,Hydraulic,0,NULL,NULL,NULL,NULL,NULL,NULL,NULL,NULL,NULL,NULL,NULL,NULL,NULL,0,0,0,0,1165,NULL,NULL,NULL,4840.45,1029.74,65.42,21.17,9.62,1.92,0,76,6.21,2.51,19,17,12,9,6,6300,17,10,4808.85,2211.55,998.14,83.1,20.01,15.39,4.62,4.62,3.08,1.54,1.54,0,0,0,0,0,0,0,0,0,0,3.08,1.54,0,0,26.14,24.02,2.11,10.77,4.62,0,0,43.01,27.39,7.36,1.54,0,0,0,23.3,23.3,0,1.54,1.54,1.54,0,76.32,76.32,0.01,0,-1,NULL,-1,NULL,-1,NULL,-1,NULL,-1,NULL,-1,NULL,10,9,6,6,7,0,10,0,0,1.07,12,0,47.67,41.16,9.21,0.85,0.43,0,0,2,-1,-1,-1,-1,-1,-1,-1,-1,-1,-1,-1,-1,-1,-1,-1,-1,-1,-1,-1,-1,0,-1
Unknown,Unknown,NULL,NULL,NULL,NULL,NULL,NULL,Unknown,2018-05-08 00:00:00.000,6,56091,2018-05-08 00:00:00.000,11:29:38.0000000,6.2.,0,0,Hydraulic,0,NULL,NULL,NULL,NULL,NULL,NULL,NULL,NULL,NULL,NULL,NULL,NULL,NULL,0,0,0,0,1165,NULL,NULL,NULL,2248.28,540.36,30.79,5.77,3.85,1.92,0,68,6.35,2.67,18,16,10,8,5,2000,17,9,2235.37,1109.69,527.45,40.44,9.33,7.78,1.56,1.56,1.56,1.56,0,0,0,0,1.56,1.56,0,0,29.85,29.85,0,1.56,1.56,1.56,0,68.81,68.81,0.01,0,0,0,0,0,0,0,1.56,0,0,0,24.33,24.33,0.01,0,0,0,0,0,0,0,0,-1,NULL,-1,NULL,-1,NULL,-1,NULL,-1,NULL,-1,NULL,9,8,5,5,7,0,9,0,0,0.46,12,0,37.1,37.1,0,0.44,0,0,0,2,-1,-1,-1,-1,-1,-1,-1,-1,-1,-1,-1,-1,-1,-1,-1,-1,-1,-1,-1,-1,0,-1
Unknown,Unknown,NULL,NULL,NULL,NULL,NULL,NULL,Unknown,2018-05-08 00:00:00.000,7,56091,2018-05-08 00:00:00.000,11:36:57.0000000,6.2.,0,0,Hydraulic,0,NULL,NULL,NULL,NULL,NULL,NULL,NULL,NULL,NULL,NULL,NULL,NULL,NULL,0,0,0,0,1165,NULL,NULL,NULL,3417.07,789.22,57.73,13.47,9.62,0,0,45,6.32,2.49,19,17,11,9,5,2000,17,9,3393.65,1601.19,765.79,70.18,14.35,12.76,6.38,4.78,1.59,0,0,0,0,0,0,0,0,0,0,0,0,3.19,3.19,0,0,45.54,37.69,7.85,1.59,1.59,0,0,28.8,28.8,0.01,6.38,3.19,0,0,40.89,28.42,7.61,0,0,0,0,0,0,0,1.59,-1,NULL,-1,NULL,-1,NULL,-1,NULL,-1,NULL,-1,NULL,9,8,5,6,0,0,9,0,0,0.62,15,0,28.09,28.09,0,0.43,0,0,0,2,-1,-1,-1,-1,-1,-1,-1,-1,-1,-1,-1,-1,-1,-1,-1,-1,-1,-1,-1,-1,0,-1
Unknown,Unknown,NULL,NULL,NULL,NULL,NULL,NULL,Unknown,2018-05-14 00:00:00.000,0,56093,2018-05-14 00:00:00.000,10:56:53.0000000,6.2.,0,0,Hydraulic,0,NULL,NULL,NULL,NULL,NULL,NULL,NULL,NULL,NULL,NULL,NULL,NULL,NULL,0,0,0,0,1165,TEALD,NULL,NULL,673.66,205.68,40.41,11.55,7.7,0,0,33,7.12,3.4,17,15,11,7,3,1300,11,7,659.02,348.14,191.03,44.63,15.39,7.69,1.54,1.54,0,0,0,0,0,0,0,0,0,0,0,0,0,4.62,3.08,0,0,33.6,29.8,3.89,3.08,1.54,0,0,32.11,27.48,4.63,1.54,1.54,0,0,25.11,25.11,0,1.54,0,0,0,21.91,21.91,0,0,-1,NULL,-1,NULL,-1,NULL,-1,NULL,-1,NULL,-1,NULL,7,6,5,5,0,0,7,0,0,0.18,10,0,0,0,0,0,0,0,0,2,-1,-1,-1,-1,-1,-1,-1,-1,-1,-1,-1,-1,-1,-1,-1,-1,-1,-1,-1,-1,0,-1
Unknown,Unknown,NULL,NULL,NULL,NULL,NULL,NULL,Unknown,2018-05-14 00:00:00.000,1,56094,2018-05-14 00:00:00.000,11:06:34.0000000,6.2.,0,0,Hydraulic,0,NULL,NULL,NULL,NULL,NULL,NULL,NULL,NULL,NULL,NULL,NULL,NULL,NULL,0,0,0,0,1165,TEALD,NULL,NULL,609.42,248.4,69.27,21.17,11.55,0,0,40,8.21,4.02,16,15,12,7,4,4400,11,7,584.76,334.05,223.74,66.17,29.24,20.01,4.62,4.62,1.54,0,0,0,0,0,3.08,3.08,0,0,39.9,39.87,0.04,3.08,1.54,0,0,40.21,30.66,9.55,6.16,3.08,0,0,28.91,24.44,3.85,4.62,1.54,0,0,28.91,24.08,3.43,0,0,0,0,0,0,0,0,-1,NULL,-1,NULL,-1,NULL,-1,NULL,-1,NULL,-1,NULL,7,7,6,6,0,0,7,0,0,0.29,10,0,40.28,40.28,0,0.47,0.47,0,0,2,-1,-1,-1,-1,-1,-1,-1,-1,-1,-1,-1,-1,-1,-1,-1,-1,-1,-1,-1,-1,0,-1
Unknown,Unknown,NULL,NULL,NULL,NULL,NULL,NULL,Unknown,2018-05-14 00:00:00.000,2,56095,2018-05-14 00:00:00.000,11:14:30.0000000,6.2.,0,0,Hydraulic,0,NULL,NULL,NULL,NULL,NULL,NULL,NULL,NULL,NULL,NULL,NULL,NULL,NULL,0,0,0,0,1165,TEALD,NULL,NULL,753.2,218.36,57.73,28.86,23.09,5.77,1.92,107,7.66,6.86,17,15,12,7,4,4400,16,7,737.4,383.07,202.57,47.7,27.7,26.16,7.69,6.16,4.62,1.54,0,0,0,0,6.16,6.16,1.54,0,76.29,41.11,20.44,1.54,1.54,0,0,41.11,41.11,0,4.62,1.54,0,0,26.6,23.33,2.47,10.77,9.23,3.08,1.54,107.35,44.59,28.58,0,0,0,0,0,0,0,3.08,-1,NULL,-1,NULL,-1,NULL,-1,NULL,-1,NULL,-1,NULL,7,7,6,7,7,0,7,0,0,0.49,16,0,0,0,0,0,0,0,0,2,-1,-1,-1,-1,-1,-1,-1,-1,-1,-1,-1,-1,-1,-1,-1,-1,-1,-1,-1,-1,0,-1
Unknown,Unknown,NULL,NULL,NULL,NULL,NULL,NULL,Unknown,2018-05-14 00:00:00.000,3,56096,2018-05-14 00:00:00.000,11:21:28.0000000,6.2.,0,0,Hydraulic,0,NULL,NULL,NULL,NULL,NULL,NULL,NULL,NULL,NULL,NULL,NULL,NULL,NULL,0,0,0,0,1165,TEALD,NULL,NULL,457.71,83.32,9.62,5.77,1.92,0,0,39,6.14,2.66,16,14,8,5,2,800,11,6,455.01,200.96,80.62,6.16,1.54,1.54,0,0,0,0,0,0,0,0,0,0,0,0,0,0,0,0,0,0,0,0,0,0,1.54,0,0,0,21.1,21.1,0,3.08,1.54,0,0,39.83,32.08,7.75,1.54,1.54,0,0,27.93,27.93,0,0,-1,NULL,-1,NULL,-1,NULL,-1,NULL,-1,NULL,-1,NULL,6,5,2,0,0,0,6,0,0,0.07,9,0,0,0,0,0,0,0,0,2,-1,-1,-1,-1,-1,-1,-1,-1,-1,-1,-1,-1,-1,-1,-1,-1,-1,-1,-1,-1,0,-1
Unknown,Unknown,NULL,NULL,NULL,NULL,NULL,NULL,Unknown,2018-05-14 00:00:00.000,5,56096,2018-05-14 00:00:00.000,11:43:52.0000000,6.2.,0,0,Hydraulic,0,NULL,NULL,NULL,NULL,NULL,NULL,NULL,NULL,NULL,NULL,NULL,NULL,NULL,0,0,0,0,1165,TEALD,NULL,NULL,145.57,92.09,15.39,11.55,5.77,1.92,0,71,9.88,6.27,14,14,10,6,2,800,10,6,141.72,121.66,88.24,15.39,6.16,6.16,3.08,3.08,1.54,0,0,0,0,0,1.54,0,0,0,23.3,23.3,0,1.54,1.54,1.54,0,71.29,71.29,0.01,3.08,1.54,0,0,25.79,23.08,2.71,3.08,1.54,0,0,25.79,23.45,2.34,0,0,0,0,0,0,0,0,-1,NULL,-1,NULL,-1,NULL,-1,NULL,-1,NULL,-1,NULL,5,5,4,6,0,0,6,0,0,0.1,9,0,0,0,0,0,0,0,0,2,-1,-1,-1,-1,-1,-1,-1,-1,-1,-1,-1,-1,-1,-1,-1,-1,-1,-1,-1,-1,0,-1
